{"type": "FeatureCollection", "crs": {"type": "name", "properties": {"name": "urn:ogc:def:crs:EPSG::32635"}}, "features": [{"type": "Feature", "geometry": {"type": "LineString", "coordinates": [[629504.7, 5220250.75], [629504.0, 5220251.6], [629506.0, 5220249.6], [629508.0, 5220249.6], [629510.0, 5220249.6], [629512.0, 5220249.6], [629514.0, 5220251.6], [629516.0, 5220253.6], [629518.0, 5220253.6], [629520.0, 5220253.6], [629522.0, 5220255.6], [629524.0, 5220255.6], [629526.0, 5220257.6], [629528.0, 5220257.6], [629530.0, 5220257.6], [629532.0, 5220259.6], [629534.0, 5220259.6], [629536.0, 5220259.6], [629538.0, 5220261.6], [629540.0, 5220261.6], [629542.0, 5220261.6], [629544.0, 5220263.6], [629546.0, 5220263.6], [629548.0, 5220263.6], [629550.0, 5220265.6], [629552.0, 5220265.6], [629554.0, 5220265.6], [629556.0, 5220267.6], [629558.0, 5220267.6], [629560.0, 5220267.6], [629562.0, 5220269.6], [629564.0, 5220269.6], [629566.0, 5220269.6], [629568.0, 5220271.6], [629570.0, 5220271.6], [629572.0, 5220271.6], [629574.0, 5220273.6], [629576.0, 5220273.6], [629578.0, 5220273.6], [629580.0, 5220275.6], [629582.0, 5220275.6], [629584.0, 5220275.6], [629586.0, 5220277.6], [629588.0, 5220277.6], [629590.0, 5220277.6], [629592.0, 5220279.6], [629594.0, 5220279.6], [629596.0, 5220279.6], [629598.0, 5220281.6], [629600.0, 5220281.6], [629602.0, 5220281.6], [629604.0, 5220281.6], [629606.0, 5220283.6], [629608.0, 5220283.6], [629610.0, 5220283.6], [629612.0, 5220283.6], [629614.0, 5220285.6], [629616.0, 5220285.6], [629618.0, 5220285.6], [629620.0, 5220285.6], [629622.0, 5220285.6], [629624.0, 5220287.6], [629626.0, 5220287.6], [629628.0, 5220287.6], [629630.0, 5220287.6], [629632.0, 5220289.6], [629634.0, 5220289.6], [629636.0, 5220289.6], [629638.0, 5220289.6], [629640.0, 5220291.6], [629642.0, 5220291.6], [629644.0, 5220291.6], [629646.0, 5220291.6], [629648.0, 5220289.6], [629650.0, 5220287.6], [629650.0, 5220285.6], [629652.0, 5220283.6], [629652.0, 5220281.6], [629654.0, 5220279.6], [629656.0, 5220277.6], [629656.0, 5220275.6], [629658.0, 5220273.6], [629660.0, 5220271.6], [629662.0, 5220269.6], [629664.0, 5220267.6], [629664.0, 5220265.6], [629666.0, 5220263.6], [629668.0, 5220261.6], [629670.0, 5220259.6], [629672.0, 5220257.6], [629672.0, 5220255.6], [629674.0, 5220253.6], [629676.0, 5220251.6], [629678.0, 5220249.6], [629680.0, 5220247.6], [629682.0, 5220245.6], [629682.0, 5220243.6], [629684.0, 5220241.6], [629686.0, 5220239.6], [629688.0, 5220237.6], [629690.0, 5220235.6], [629692.0, 5220233.6], [629694.0, 5220231.6], [629696.0, 5220229.6], [629698.0, 5220227.6], [629700.0, 5220225.6], [629702.0, 5220223.6], [629704.0, 5220221.6], [629706.0, 5220219.6], [629706.0, 5220217.6], [629706.0, 5220215.6], [629708.0, 5220213.6], [629708.0, 5220211.6], [629710.0, 5220209.6], [629712.0, 5220207.6], [629714.0, 5220205.6], [629716.0, 5220203.6], [629718.0, 5220201.6], [629718.0, 5220199.6], [629720.0, 5220197.6], [629722.0, 5220195.6], [629724.0, 5220193.6], [629724.0, 5220191.6], [629726.0, 5220189.6], [629728.0, 5220187.6], [629730.0, 5220185.6], [629732.0, 5220183.6], [629734.0, 5220181.6], [629736.0, 5220179.6], [629736.0, 5220177.6], [629738.0, 5220175.6], [629740.0, 5220173.6], [629742.0, 5220171.6], [629742.0, 5220169.6], [629744.0, 5220167.6], [629746.0, 5220165.6], [629748.0, 5220163.6], [629750.0, 5220161.6], [629752.0, 5220159.6], [629754.0, 5220157.6], [629754.0, 5220155.6], [629756.0, 5220153.6], [629758.0, 5220151.6], [629760.0, 5220149.6], [629762.0, 5220147.6], [629764.0, 5220145.6], [629766.0, 5220143.6], [629768.0, 5220141.6], [629770.0, 5220139.6], [629772.0, 5220137.6], [629774.0, 5220135.6], [629776.0, 5220133.6], [629778.0, 5220131.6], [629780.0, 5220129.6], [629782.0, 5220127.6], [629784.0, 5220125.6], [629786.0, 5220123.6], [629788.0, 5220121.6], [629790.0, 5220119.6], [629792.0, 5220117.6], [629794.0, 5220115.6], [629796.0, 5220113.6], [629798.0, 5220111.6], [629800.0, 5220109.6], [629802.0, 5220107.6], [629802.0, 5220105.6], [629804.0, 5220103.6], [629806.0, 5220101.6], [629808.0, 5220099.6], [629810.0, 5220097.6], [629812.0, 5220095.6], [629812.0, 5220093.6], [629814.0, 5220091.6], [629816.0, 5220089.6], [629818.0, 5220087.6], [629820.0, 5220085.6], [629820.0, 5220083.6], [629822.0, 5220081.6], [629824.0, 5220079.6], [629826.0, 5220077.6], [629828.0, 5220075.6], [629828.0, 5220073.6], [629830.0, 5220071.6], [629832.0, 5220069.6], [629834.0, 5220067.6], [629834.0, 5220065.6], [629836.0, 5220063.6], [629838.0, 5220061.6], [629840.0, 5220059.6], [629840.0, 5220057.6], [629842.0, 5220055.6], [629844.0, 5220053.6], [629846.0, 5220051.6], [629846.0, 5220049.6], [629848.0, 5220047.6], [629850.0, 5220045.6], [629852.0, 5220043.6], [629852.0, 5220041.6], [629854.0, 5220039.6], [629856.0, 5220037.6], [629858.0, 5220035.6], [629858.0, 5220033.6], [629860.0, 5220031.6], [629862.0, 5220029.6], [629864.0, 5220027.6], [629864.0, 5220025.6], [629866.0, 5220023.6], [629868.0, 5220021.6], [629870.0, 5220019.6], [629870.0, 5220017.6], [629872.0, 5220015.6], [629874.0, 5220013.6], [629874.0, 5220011.6], [629876.0, 5220009.6], [629878.0, 5220007.6], [629880.0, 5220005.6], [629880.0, 5220003.6], [629882.0, 5220001.6], [629884.0, 5219999.6], [629886.0, 5219997.6], [629886.0, 5219995.6], [629888.0, 5219993.6], [629890.0, 5219991.6], [629890.0, 5219989.6], [629892.0, 5219987.6], [629894.0, 5219985.6], [629896.0, 5219983.6], [629896.0, 5219981.6], [629898.0, 5219979.6], [629900.0, 5219977.6], [629902.0, 5219975.6], [629904.0, 5219973.6], [629904.0, 5219971.6], [629906.0, 5219969.6], [629906.0, 5219967.6], [629908.0, 5219965.6], [629910.0, 5219963.6], [629910.0, 5219961.6], [629912.0, 5219959.6], [629914.0, 5219957.6], [629916.0, 5219955.6], [629916.0, 5219953.6], [629918.0, 5219951.6], [629920.0, 5219949.6], [629920.0, 5219947.6], [629922.0, 5219945.6], [629924.0, 5219943.6], [629926.0, 5219941.6], [629926.0, 5219939.6], [629928.0, 5219937.6], [629930.0, 5219935.6], [629932.0, 5219933.6], [629934.0, 5219931.6], [629936.0, 5219929.6], [629936.0, 5219927.6], [629938.0, 5219925.6], [629940.0, 5219923.6], [629942.0, 5219921.6], [629944.0, 5219919.6], [629946.0, 5219917.6], [629948.0, 5219915.6], [629948.0, 5219913.6], [629950.0, 5219911.6], [629952.0, 5219909.6], [629954.0, 5219907.6], [629956.0, 5219905.6], [629956.0, 5219903.6], [629958.0, 5219901.6], [629960.0, 5219899.6], [629960.0, 5219897.6], [629962.0, 5219895.6], [629964.0, 5219893.6], [629966.0, 5219891.6], [629968.0, 5219889.6], [629968.0, 5219887.6], [629970.0, 5219885.6], [629972.0, 5219883.6], [629974.0, 5219881.6], [629976.0, 5219879.6], [629978.0, 5219877.6], [629980.0, 5219875.6], [629982.0, 5219873.6], [629982.0, 5219871.6], [629984.0, 5219869.6], [629986.0, 5219867.6], [629988.0, 5219865.6], [629990.0, 5219863.6], [629990.0, 5219861.6], [629992.0, 5219859.6], [629994.0, 5219857.6], [629996.0, 5219855.6], [629998.0, 5219853.6], [629998.0, 5219851.6], [630000.0, 5219849.6], [630002.0, 5219847.6], [630004.0, 5219845.6], [630006.0, 5219843.6], [630006.0, 5219841.6], [630008.0, 5219839.6], [630010.0, 5219837.6], [630012.0, 5219835.6], [630014.0, 5219833.6], [630014.0, 5219831.6], [630016.0, 5219829.6], [630018.0, 5219827.6], [630020.0, 5219825.6], [630022.0, 5219823.6], [630022.0, 5219821.6], [630024.0, 5219819.6], [630026.0, 5219817.6], [630028.0, 5219815.6], [630030.0, 5219813.6], [630032.0, 5219811.6], [630032.0, 5219809.6], [630032.0, 5219807.6], [630032.0, 5219805.6], [630032.0, 5219803.6], [630032.0, 5219801.6], [630032.0, 5219799.6], [630030.0, 5219797.6], [630030.0, 5219795.6], [630028.0, 5219793.6], [630028.0, 5219791.6], [630026.0, 5219789.6], [630026.0, 5219787.6], [630024.0, 5219785.6], [630024.0, 5219783.6], [630022.0, 5219781.6], [630022.0, 5219779.6], [630020.0, 5219777.6], [630018.0, 5219775.6], [630018.0, 5219773.6], [630018.0, 5219771.6], [630016.0, 5219769.6], [630016.0, 5219767.6], [630014.0, 5219765.6], [630012.0, 5219763.6], [630012.0, 5219761.6], [630010.0, 5219759.6], [630008.0, 5219757.6], [630006.0, 5219755.6], [630004.0, 5219753.6], [630002.0, 5219751.6], [630000.0, 5219749.6], [629998.0, 5219749.6], [629998.0, 5219751.6], [629998.0, 5219753.6], [629996.0, 5219755.6], [629994.0, 5219757.6], [629992.0, 5219759.6], [629992.0, 5219761.6], [629990.0, 5219763.6], [629988.0, 5219765.6], [629986.0, 5219767.6], [629984.0, 5219769.6], [629982.0, 5219771.6], [629982.0, 5219773.6], [629980.0, 5219775.6], [629978.0, 5219777.6], [629976.0, 5219779.6], [629974.0, 5219781.6], [629972.0, 5219783.6], [629972.0, 5219785.6], [629970.0, 5219787.6], [629968.0, 5219789.6], [629966.0, 5219791.6], [629964.0, 5219793.6], [629962.0, 5219795.6], [629962.0, 5219797.6], [629960.0, 5219799.6], [629958.0, 5219801.6], [629956.0, 5219803.6], [629954.0, 5219805.6], [629952.0, 5219807.6], [629952.0, 5219809.6], [629950.0, 5219811.6], [629948.0, 5219813.6], [629946.0, 5219815.6], [629944.0, 5219817.6], [629942.0, 5219819.6], [629940.0, 5219821.6], [629938.0, 5219823.6], [629936.0, 5219825.6], [629934.0, 5219827.6], [629932.0, 5219829.6], [629930.0, 5219831.6], [629928.0, 5219833.6], [629926.0, 5219835.6], [629924.0, 5219837.6], [629922.0, 5219839.6], [629920.0, 5219841.6], [629918.0, 5219843.6], [629918.0, 5219841.6], [629918.0, 5219839.6], [629920.0, 5219837.6], [629922.0, 5219835.6], [629922.0, 5219833.6], [629924.0, 5219831.6], [629926.0, 5219829.6], [629928.0, 5219827.6], [629930.0, 5219825.6], [629932.0, 5219823.6], [629932.0, 5219821.6], [629934.0, 5219819.6], [629936.0, 5219817.6], [629938.0, 5219815.6], [629940.0, 5219813.6], [629942.0, 5219811.6], [629942.0, 5219809.6], [629944.0, 5219807.6], [629946.0, 5219805.6], [629948.0, 5219803.6], [629950.0, 5219801.6], [629952.0, 5219799.6], [629952.0, 5219797.6], [629954.0, 5219795.6], [629956.0, 5219793.6], [629958.0, 5219791.6], [629960.0, 5219789.6], [629962.0, 5219787.6], [629962.0, 5219785.6], [629964.0, 5219783.6], [629966.0, 5219781.6], [629968.0, 5219779.6], [629970.0, 5219777.6], [629972.0, 5219775.6], [629974.0, 5219773.6], [629976.0, 5219771.6], [629978.0, 5219769.6], [629980.0, 5219767.6], [629982.0, 5219765.6], [629984.0, 5219763.6], [629986.0, 5219761.6], [629988.0, 5219759.6], [629990.0, 5219757.6], [629992.0, 5219755.6], [629994.0, 5219753.6], [629996.0, 5219751.6], [629998.0, 5219749.6], [629998.0, 5219747.6], [629998.0, 5219745.6], [629996.0, 5219743.6], [629996.0, 5219741.6], [629994.0, 5219739.6], [629992.0, 5219737.6], [629990.0, 5219735.6], [629988.0, 5219733.6], [629988.0, 5219731.6], [629986.0, 5219729.6], [629984.0, 5219727.6], [629982.0, 5219725.6], [629980.0, 5219723.6], [629978.0, 5219721.6], [629976.0, 5219719.6], [629974.0, 5219717.6], [629972.0, 5219715.6], [629970.0, 5219715.6], [629968.0, 5219713.6], [629966.0, 5219711.6], [629964.0, 5219709.6], [629962.0, 5219709.6], [629960.0, 5219707.6], [629958.0, 5219705.6], [629956.0, 5219703.6], [629954.0, 5219703.6], [629952.0, 5219701.6], [629950.0, 5219699.6], [629948.0, 5219697.6], [629946.0, 5219695.6], [629944.0, 5219695.6], [629942.0, 5219693.6], [629940.0, 5219691.6], [629938.0, 5219689.6], [629936.0, 5219687.6], [629934.0, 5219687.6], [629932.0, 5219685.6], [629930.0, 5219683.6], [629928.0, 5219681.6], [629926.0, 5219679.6], [629924.0, 5219679.6], [629922.0, 5219677.6], [629920.0, 5219675.6], [629918.0, 5219673.6], [629916.0, 5219671.6], [629914.0, 5219669.6], [629912.0, 5219667.6], [629910.0, 5219665.6], [629908.0, 5219663.6], [629906.0, 5219663.6], [629904.0, 5219661.6], [629902.0, 5219659.6], [629904.0, 5219657.6], [629906.0, 5219657.6], [629908.0, 5219655.6], [629910.0, 5219653.6], [629912.0, 5219651.6], [629914.0, 5219649.6], [629916.0, 5219647.6], [629918.0, 5219645.6], [629920.0, 5219643.6], [629922.0, 5219643.6], [629924.0, 5219641.6], [629926.0, 5219639.6], [629928.0, 5219637.6], [629930.0, 5219635.6], [629932.0, 5219633.6], [629934.0, 5219631.6], [629936.0, 5219631.6], [629938.0, 5219629.6], [629940.0, 5219627.6], [629942.0, 5219625.6], [629944.0, 5219623.6], [629946.0, 5219623.6], [629948.0, 5219621.6], [629950.0, 5219619.6], [629952.0, 5219617.6], [629954.0, 5219615.6], [629956.0, 5219615.6], [629958.0, 5219613.6], [629960.0, 5219611.6], [629962.0, 5219609.6], [629964.0, 5219607.6], [629966.0, 5219607.6], [629968.0, 5219605.6], [629970.0, 5219603.6], [629972.0, 5219601.6], [629974.0, 5219599.6], [629976.0, 5219599.6], [629978.0, 5219597.6], [629980.0, 5219595.6], [629982.0, 5219593.6], [629984.0, 5219593.6], [629986.0, 5219591.6], [629988.0, 5219589.6], [629990.0, 5219587.6], [629992.0, 5219585.6], [629994.0, 5219585.6], [629996.0, 5219583.6], [629998.0, 5219581.6], [630000.0, 5219579.6], [630002.0, 5219577.6], [630004.0, 5219575.6], [630006.0, 5219575.6], [630008.0, 5219573.6], [630010.0, 5219571.6], [630012.0, 5219569.6], [630014.0, 5219567.6], [630016.0, 5219567.6], [630018.0, 5219565.6], [630020.0, 5219563.6], [630022.0, 5219561.6], [630024.0, 5219559.6], [630026.0, 5219557.6], [630028.0, 5219557.6], [630030.0, 5219555.6], [630032.0, 5219553.6], [630034.0, 5219551.6], [630036.0, 5219549.6], [630038.0, 5219549.6], [630040.0, 5219547.6], [630042.0, 5219545.6], [630044.0, 5219543.6], [630046.0, 5219541.6], [630048.0, 5219541.6], [630050.0, 5219539.6], [630052.0, 5219537.6], [630054.0, 5219535.6], [630056.0, 5219535.6], [630058.0, 5219533.6], [630060.0, 5219531.6], [630062.0, 5219529.6], [630064.0, 5219529.6], [630066.0, 5219527.6], [630068.0, 5219525.6], [630070.0, 5219523.6], [630072.0, 5219523.6], [630074.0, 5219521.6], [630076.0, 5219519.6], [630078.0, 5219517.6], [630080.0, 5219515.6], [630082.0, 5219513.6], [630080.0, 5219515.6], [630078.0, 5219515.6], [630076.0, 5219517.6], [630074.0, 5219519.6], [630072.0, 5219521.6], [630070.0, 5219521.6], [630068.0, 5219523.6], [630066.0, 5219525.6], [630064.0, 5219527.6], [630062.0, 5219527.6], [630060.0, 5219529.6], [630058.0, 5219531.6], [630056.0, 5219533.6], [630054.0, 5219533.6], [630052.0, 5219535.6], [630050.0, 5219537.6], [630048.0, 5219539.6], [630046.0, 5219539.6], [630044.0, 5219541.6], [630042.0, 5219543.6], [630040.0, 5219545.6], [630038.0, 5219547.6], [630036.0, 5219547.6], [630034.0, 5219549.6], [630032.0, 5219551.6], [630030.0, 5219553.6], [630028.0, 5219555.6], [630026.0, 5219557.6], [630024.0, 5219557.6], [630022.0, 5219559.6], [630020.0, 5219561.6], [630018.0, 5219563.6], [630016.0, 5219565.6], [630014.0, 5219565.6], [630012.0, 5219567.6], [630010.0, 5219569.6], [630008.0, 5219571.6], [630006.0, 5219573.6], [630004.0, 5219573.6], [630002.0, 5219575.6], [630000.0, 5219577.6], [629998.0, 5219579.6], [629996.0, 5219581.6], [629994.0, 5219583.6], [629992.0, 5219583.6], [629990.0, 5219585.6], [629988.0, 5219587.6], [629986.0, 5219589.6], [629984.0, 5219591.6], [629982.0, 5219591.6], [629980.0, 5219593.6], [629978.0, 5219595.6], [629976.0, 5219597.6], [629974.0, 5219599.6], [629972.0, 5219599.6], [629970.0, 5219601.6], [629968.0, 5219603.6], [629966.0, 5219605.6], [629964.0, 5219607.6], [629962.0, 5219607.6], [629960.0, 5219609.6], [629958.0, 5219611.6], [629956.0, 5219613.6], [629954.0, 5219615.6], [629952.0, 5219615.6], [629950.0, 5219617.6], [629948.0, 5219619.6], [629946.0, 5219621.6], [629944.0, 5219623.6], [629942.0, 5219623.6], [629940.0, 5219625.6], [629938.0, 5219627.6], [629936.0, 5219629.6], [629934.0, 5219631.6], [629932.0, 5219631.6], [629930.0, 5219633.6], [629928.0, 5219635.6], [629926.0, 5219637.6], [629924.0, 5219639.6], [629922.0, 5219641.6], [629920.0, 5219641.6], [629918.0, 5219643.6], [629916.0, 5219645.6], [629914.0, 5219647.6], [629912.0, 5219649.6], [629910.0, 5219651.6], [629908.0, 5219653.6], [629906.0, 5219655.6], [629904.0, 5219655.6], [629902.0, 5219657.6], [629900.0, 5219659.6], [629898.0, 5219661.6], [629896.0, 5219661.6], [629894.0, 5219661.6], [629892.0, 5219663.6], [629890.0, 5219665.6], [629888.0, 5219665.6], [629886.0, 5219667.6], [629884.0, 5219669.6], [629882.0, 5219671.6], [629880.0, 5219673.6], [629878.0, 5219675.6], [629876.0, 5219677.6], [629874.0, 5219679.6], [629872.0, 5219681.6], [629870.0, 5219683.6], [629868.0, 5219685.6], [629866.0, 5219687.6], [629864.0, 5219689.6], [629864.0, 5219691.6], [629862.0, 5219693.6], [629860.0, 5219695.6], [629858.0, 5219697.6], [629856.0, 5219699.6], [629856.0, 5219701.6], [629854.0, 5219703.6], [629852.0, 5219705.6], [629850.0, 5219707.6], [629848.0, 5219709.6], [629848.0, 5219711.6], [629846.0, 5219713.6], [629844.0, 5219715.6], [629842.0, 5219717.6], [629840.0, 5219719.6], [629840.0, 5219721.6], [629838.0, 5219723.6], [629836.0, 5219725.6], [629834.0, 5219727.6], [629832.0, 5219729.6], [629832.0, 5219731.6], [629830.0, 5219733.6], [629828.0, 5219735.6], [629826.0, 5219737.6], [629824.0, 5219739.6], [629824.0, 5219741.6], [629822.0, 5219743.6], [629820.0, 5219745.6], [629818.0, 5219747.6], [629816.0, 5219749.6], [629816.0, 5219751.6], [629814.0, 5219753.6], [629812.0, 5219755.6], [629810.0, 5219757.6], [629808.0, 5219759.6], [629808.0, 5219761.6], [629806.0, 5219763.6], [629804.0, 5219765.6], [629802.0, 5219767.6], [629800.0, 5219769.6], [629800.0, 5219771.6], [629798.0, 5219773.6], [629796.0, 5219775.6], [629794.0, 5219777.6], [629792.0, 5219779.6], [629792.0, 5219781.6], [629790.0, 5219783.6], [629788.0, 5219785.6], [629786.0, 5219787.6], [629784.0, 5219789.6], [629784.0, 5219791.6], [629782.0, 5219793.6], [629780.0, 5219795.6], [629778.0, 5219797.6], [629778.0, 5219799.6], [629776.0, 5219801.6], [629774.0, 5219803.6], [629772.0, 5219805.6], [629770.0, 5219807.6], [629770.0, 5219809.6], [629768.0, 5219811.6], [629766.0, 5219813.6], [629764.0, 5219815.6], [629762.0, 5219817.6], [629762.0, 5219819.6], [629760.0, 5219821.6], [629758.0, 5219823.6], [629756.0, 5219825.6], [629754.0, 5219827.6], [629754.0, 5219829.6], [629752.0, 5219831.6], [629750.0, 5219833.6], [629748.0, 5219835.6], [629746.0, 5219837.6], [629746.0, 5219839.6], [629744.0, 5219841.6], [629742.0, 5219843.6], [629740.0, 5219845.6], [629738.0, 5219847.6], [629738.0, 5219849.6], [629736.0, 5219851.6], [629734.0, 5219853.6], [629732.0, 5219855.6], [629730.0, 5219857.6], [629730.0, 5219859.6], [629728.0, 5219861.6], [629726.0, 5219863.6], [629724.0, 5219865.6], [629722.0, 5219867.6], [629722.0, 5219869.6], [629720.0, 5219871.6], [629718.0, 5219873.6], [629716.0, 5219875.6], [629714.0, 5219877.6], [629714.0, 5219879.6], [629712.0, 5219881.6], [629710.0, 5219883.6], [629708.0, 5219885.6], [629706.0, 5219887.6], [629706.0, 5219889.6], [629704.0, 5219891.6], [629702.0, 5219893.6], [629700.0, 5219895.6], [629698.0, 5219897.6], [629698.0, 5219899.6], [629696.0, 5219901.6], [629694.0, 5219903.6], [629692.0, 5219905.6], [629690.0, 5219907.6], [629690.0, 5219909.6], [629688.0, 5219911.6], [629686.0, 5219913.6], [629684.0, 5219915.6], [629684.0, 5219917.6], [629682.0, 5219919.6], [629680.0, 5219921.6], [629678.0, 5219923.6], [629678.0, 5219925.6], [629676.0, 5219927.6], [629674.0, 5219929.6], [629672.0, 5219931.6], [629670.0, 5219933.6], [629670.0, 5219935.6], [629668.0, 5219937.6], [629666.0, 5219939.6], [629664.0, 5219941.6], [629664.0, 5219943.6], [629662.0, 5219945.6], [629660.0, 5219947.6], [629658.0, 5219949.6], [629658.0, 5219951.6], [629656.0, 5219953.6], [629654.0, 5219955.6], [629652.0, 5219957.6], [629650.0, 5219959.6], [629650.0, 5219961.6], [629648.0, 5219963.6], [629646.0, 5219965.6], [629644.0, 5219967.6], [629644.0, 5219969.6], [629642.0, 5219971.6], [629640.0, 5219973.6], [629638.0, 5219975.6], [629638.0, 5219977.6], [629636.0, 5219979.6], [629634.0, 5219981.6], [629632.0, 5219983.6], [629630.0, 5219985.6], [629630.0, 5219987.6], [629628.0, 5219989.6], [629626.0, 5219991.6], [629624.0, 5219993.6], [629624.0, 5219995.6], [629622.0, 5219997.6], [629620.0, 5219999.6], [629618.0, 5220001.6], [629618.0, 5220003.6], [629616.0, 5220005.6], [629614.0, 5220007.6], [629612.0, 5220009.6], [629612.0, 5220011.6], [629610.0, 5220013.6], [629608.0, 5220015.6], [629606.0, 5220017.6], [629604.0, 5220019.6], [629604.0, 5220021.6], [629602.0, 5220023.6], [629600.0, 5220025.6], [629598.0, 5220027.6], [629598.0, 5220029.6], [629596.0, 5220031.6], [629594.0, 5220033.6], [629592.0, 5220035.6], [629590.0, 5220037.6], [629588.0, 5220039.6], [629586.0, 5220041.6], [629586.0, 5220043.6], [629584.0, 5220045.6], [629584.0, 5220047.6], [629582.0, 5220049.6], [629580.0, 5220051.6], [629578.0, 5220053.6], [629578.0, 5220055.6], [629576.0, 5220057.6], [629574.0, 5220059.6], [629572.0, 5220061.6], [629572.0, 5220063.6], [629570.0, 5220065.6], [629568.0, 5220067.6], [629566.0, 5220069.6], [629564.0, 5220071.6], [629564.0, 5220073.6], [629562.0, 5220075.6], [629560.0, 5220077.6], [629558.0, 5220079.6], [629558.0, 5220081.6], [629556.0, 5220083.6], [629554.0, 5220085.6], [629552.0, 5220087.6], [629552.0, 5220089.6], [629550.0, 5220091.6], [629550.0, 5220093.6], [629550.0, 5220095.6], [629548.0, 5220097.6], [629548.0, 5220099.6], [629546.0, 5220101.6], [629546.0, 5220103.6], [629544.0, 5220105.6], [629544.0, 5220107.6], [629544.0, 5220109.6], [629542.0, 5220111.6], [629540.0, 5220113.6], [629540.0, 5220115.6], [629538.0, 5220117.6], [629536.0, 5220119.6], [629536.0, 5220121.6], [629534.0, 5220123.6], [629534.0, 5220125.6], [629532.0, 5220127.6], [629530.0, 5220129.6], [629530.0, 5220131.6], [629528.0, 5220133.6], [629526.0, 5220135.6], [629524.0, 5220137.6], [629522.0, 5220139.6], [629520.0, 5220141.6], [629518.0, 5220143.6], [629518.0, 5220145.6], [629516.0, 5220147.6], [629514.0, 5220149.6], [629512.0, 5220151.6], [629510.0, 5220153.6], [629510.0, 5220155.6], [629508.0, 5220157.6], [629508.0, 5220159.6], [629508.0, 5220161.6], [629508.0, 5220163.6], [629508.0, 5220165.6], [629508.0, 5220167.6], [629508.0, 5220169.6], [629508.0, 5220171.6], [629508.0, 5220173.6], [629508.0, 5220175.6], [629508.0, 5220177.6], [629508.0, 5220179.6], [629506.0, 5220181.6], [629506.0, 5220183.6], [629506.0, 5220185.6], [629506.0, 5220187.6], [629506.0, 5220189.6], [629506.0, 5220191.6], [629506.0, 5220193.6], [629506.0, 5220195.6], [629506.0, 5220197.6], [629506.0, 5220199.6], [629506.0, 5220201.6], [629506.0, 5220203.6], [629504.0, 5220205.6], [629504.0, 5220207.6], [629504.0, 5220209.6], [629504.0, 5220211.6], [629504.0, 5220213.6], [629504.0, 5220215.6], [629504.0, 5220217.6], [629504.0, 5220219.6], [629504.0, 5220221.6], [629504.0, 5220223.6], [629504.0, 5220225.6], [629504.0, 5220227.6], [629504.0, 5220229.6], [629504.0, 5220231.6], [629504.0, 5220233.6], [629504.0, 5220235.6], [629504.0, 5220237.6], [629504.0, 5220239.6], [629504.0, 5220241.6], [629502.0, 5220243.6], [629500.0, 5220241.6], [629498.0, 5220239.6], [629496.0, 5220237.6], [629494.0, 5220235.6], [629492.0, 5220235.6], [629490.0, 5220237.6], [629488.0, 5220239.6], [629486.0, 5220241.6], [629484.0, 5220241.6], [629482.0, 5220243.6], [629480.0, 5220245.6], [629478.0, 5220245.6], [629476.0, 5220247.6], [629474.0, 5220249.6], [629472.0, 5220251.6], [629470.0, 5220251.6], [629468.0, 5220253.6], [629466.0, 5220255.6], [629464.0, 5220257.6], [629462.0, 5220257.6], [629460.0, 5220259.6], [629458.0, 5220261.6], [629456.0, 5220263.6], [629454.0, 5220263.6], [629452.0, 5220265.6], [629450.0, 5220267.6], [629448.0, 5220269.6], [629446.0, 5220269.6], [629444.0, 5220271.6], [629442.0, 5220273.6], [629440.0, 5220273.6], [629438.0, 5220275.6], [629436.0, 5220277.6], [629434.0, 5220277.6], [629432.0, 5220279.6], [629430.0, 5220281.6], [629428.0, 5220281.6], [629426.0, 5220283.6], [629424.0, 5220283.6], [629422.0, 5220285.6], [629420.0, 5220285.6], [629418.0, 5220287.6], [629416.0, 5220287.6], [629414.0, 5220289.6], [629412.0, 5220289.6], [629410.0, 5220291.6], [629408.0, 5220291.6], [629406.0, 5220293.6], [629404.0, 5220295.6], [629402.0, 5220295.6], [629400.0, 5220297.6], [629398.0, 5220299.6], [629396.0, 5220301.6], [629394.0, 5220301.6], [629392.0, 5220303.6], [629390.0, 5220305.6], [629388.0, 5220307.6], [629386.0, 5220307.6], [629384.0, 5220309.6], [629382.0, 5220311.6], [629380.0, 5220313.6], [629378.0, 5220313.6], [629376.0, 5220315.6], [629374.0, 5220317.6], [629372.0, 5220319.6], [629370.0, 5220319.6], [629368.0, 5220321.6], [629366.0, 5220323.6], [629364.0, 5220323.6], [629362.0, 5220325.6], [629360.0, 5220327.6], [629358.0, 5220329.6], [629356.0, 5220329.6], [629354.0, 5220331.6], [629352.0, 5220333.6], [629350.0, 5220333.6], [629348.0, 5220335.6], [629346.0, 5220337.6], [629344.0, 5220337.6], [629342.0, 5220339.6], [629340.0, 5220341.6], [629338.0, 5220341.6], [629336.0, 5220343.6], [629334.0, 5220345.6], [629332.0, 5220345.6], [629330.0, 5220347.6], [629328.0, 5220347.6], [629326.0, 5220349.6], [629324.0, 5220351.6], [629322.0, 5220351.6], [629320.0, 5220353.6], [629318.0, 5220355.6], [629316.0, 5220355.6], [629314.0, 5220357.6], [629312.0, 5220359.6], [629310.0, 5220359.6], [629308.0, 5220361.6], [629306.0, 5220363.6], [629304.0, 5220363.6], [629302.0, 5220365.6], [629300.0, 5220367.6], [629298.0, 5220367.6], [629296.0, 5220369.6], [629294.0, 5220371.6], [629292.0, 5220371.6], [629290.0, 5220373.6], [629288.0, 5220375.6], [629286.0, 5220375.6], [629284.0, 5220377.6], [629282.0, 5220379.6], [629280.0, 5220381.6], [629278.0, 5220381.6], [629276.0, 5220383.6], [629274.0, 5220385.6], [629272.0, 5220385.6], [629270.0, 5220387.6], [629268.0, 5220389.6], [629266.0, 5220389.6], [629264.0, 5220391.6], [629262.0, 5220393.6], [629260.0, 5220395.6], [629258.0, 5220397.6], [629256.0, 5220399.6], [629256.0, 5220401.6], [629256.0, 5220403.6], [629256.0, 5220405.6], [629254.0, 5220407.6], [629254.0, 5220409.6], [629254.0, 5220411.6], [629254.0, 5220413.6], [629254.0, 5220415.6], [629252.0, 5220417.6], [629252.0, 5220419.6], [629252.0, 5220421.6], [629252.0, 5220423.6], [629252.0, 5220425.6], [629250.0, 5220427.6], [629250.0, 5220429.6], [629250.0, 5220431.6], [629250.0, 5220433.6], [629250.0, 5220435.6], [629248.0, 5220437.6], [629248.0, 5220439.6], [629248.0, 5220441.6], [629248.0, 5220443.6], [629246.0, 5220445.6], [629246.0, 5220447.6], [629246.0, 5220449.6], [629244.0, 5220451.6], [629244.0, 5220453.6], [629242.0, 5220455.6], [629242.0, 5220457.6], [629240.0, 5220459.6], [629240.0, 5220461.6], [629240.0, 5220463.6], [629240.0, 5220465.6], [629240.0, 5220467.6], [629240.0, 5220469.6], [629240.0, 5220471.6], [629240.0, 5220473.6], [629240.0, 5220475.6], [629240.0, 5220477.6], [629238.0, 5220479.6], [629238.0, 5220481.6], [629238.0, 5220483.6], [629238.0, 5220485.6], [629238.0, 5220487.6], [629238.0, 5220489.6], [629238.0, 5220491.6], [629236.0, 5220493.6], [629236.0, 5220495.6], [629236.0, 5220497.6], [629236.0, 5220499.6], [629236.0, 5220501.6], [629234.0, 5220503.6], [629234.0, 5220505.6], [629234.0, 5220507.6], [629234.0, 5220509.6], [629234.0, 5220511.6], [629232.0, 5220513.6], [629232.0, 5220515.6], [629232.0, 5220517.6], [629232.0, 5220519.6], [629232.0, 5220521.6], [629232.0, 5220519.6], [629232.0, 5220517.6], [629232.0, 5220515.6], [629232.0, 5220513.6], [629232.0, 5220511.6], [629232.0, 5220509.6], [629232.0, 5220507.6], [629234.0, 5220505.6], [629234.0, 5220503.6], [629234.0, 5220501.6], [629234.0, 5220499.6], [629236.0, 5220497.6], [629236.0, 5220495.6], [629236.0, 5220493.6], [629236.0, 5220491.6], [629236.0, 5220489.6], [629238.0, 5220487.6], [629238.0, 5220485.6], [629238.0, 5220483.6], [629238.0, 5220481.6], [629238.0, 5220479.6], [629238.0, 5220477.6], [629238.0, 5220475.6], [629238.0, 5220473.6], [629238.0, 5220471.6], [629238.0, 5220469.6], [629240.0, 5220467.6], [629240.0, 5220465.6], [629240.0, 5220463.6], [629240.0, 5220461.6], [629240.0, 5220459.6], [629240.0, 5220457.6], [629242.0, 5220455.6], [629242.0, 5220453.6], [629244.0, 5220451.6], [629244.0, 5220449.6], [629244.0, 5220447.6], [629246.0, 5220445.6], [629246.0, 5220443.6], [629246.0, 5220441.6], [629248.0, 5220439.6], [629248.0, 5220437.6], [629248.0, 5220435.6], [629248.0, 5220433.6], [629248.0, 5220431.6], [629250.0, 5220429.6], [629250.0, 5220427.6], [629250.0, 5220425.6], [629250.0, 5220423.6], [629250.0, 5220421.6], [629252.0, 5220419.6], [629252.0, 5220417.6], [629252.0, 5220415.6], [629252.0, 5220413.6], [629252.0, 5220411.6], [629254.0, 5220409.6], [629254.0, 5220407.6], [629254.0, 5220405.6], [629254.0, 5220403.6], [629254.0, 5220401.6], [629256.0, 5220399.6], [629256.0, 5220397.6], [629256.0, 5220395.6], [629258.0, 5220393.6], [629258.0, 5220391.6], [629258.0, 5220389.6], [629258.0, 5220387.6], [629260.0, 5220385.6], [629260.0, 5220383.6], [629260.0, 5220381.6], [629260.0, 5220379.6], [629262.0, 5220377.6], [629264.0, 5220375.6], [629262.0, 5220377.6], [629262.0, 5220379.6], [629262.0, 5220381.6], [629260.0, 5220383.6], [629260.0, 5220385.6], [629258.0, 5220387.6], [629258.0, 5220389.6], [629258.0, 5220391.6], [629258.0, 5220393.6], [629260.0, 5220395.6], [629262.0, 5220395.6], [629264.0, 5220393.6], [629266.0, 5220391.6], [629268.0, 5220391.6], [629270.0, 5220389.6], [629272.0, 5220387.6], [629274.0, 5220387.6], [629276.0, 5220385.6], [629278.0, 5220383.6], [629280.0, 5220381.6], [629282.0, 5220381.6], [629284.0, 5220379.6], [629286.0, 5220377.6], [629288.0, 5220377.6], [629290.0, 5220375.6], [629292.0, 5220373.6], [629294.0, 5220373.6], [629296.0, 5220371.6], [629298.0, 5220369.6], [629300.0, 5220367.6], [629302.0, 5220367.6], [629304.0, 5220365.6], [629306.0, 5220363.6], [629308.0, 5220363.6], [629310.0, 5220361.6], [629312.0, 5220359.6], [629314.0, 5220359.6], [629316.0, 5220357.6], [629318.0, 5220355.6], [629320.0, 5220355.6], [629322.0, 5220353.6], [629324.0, 5220353.6], [629326.0, 5220351.6], [629328.0, 5220349.6], [629330.0, 5220349.6], [629332.0, 5220347.6], [629334.0, 5220345.6], [629336.0, 5220345.6], [629338.0, 5220343.6], [629340.0, 5220341.6], [629342.0, 5220341.6], [629344.0, 5220339.6], [629346.0, 5220337.6], [629348.0, 5220337.6], [629350.0, 5220335.6], [629352.0, 5220335.6], [629354.0, 5220333.6], [629356.0, 5220331.6], [629358.0, 5220331.6], [629360.0, 5220329.6], [629362.0, 5220327.6], [629364.0, 5220325.6], [629366.0, 5220325.6], [629368.0, 5220323.6], [629370.0, 5220321.6], [629372.0, 5220319.6], [629374.0, 5220319.6], [629376.0, 5220317.6], [629378.0, 5220315.6], [629380.0, 5220313.6], [629382.0, 5220313.6], [629384.0, 5220311.6], [629386.0, 5220309.6], [629388.0, 5220307.6], [629390.0, 5220307.6], [629392.0, 5220305.6], [629394.0, 5220303.6], [629396.0, 5220303.6], [629398.0, 5220301.6], [629400.0, 5220299.6], [629402.0, 5220297.6], [629404.0, 5220297.6], [629406.0, 5220295.6], [629408.0, 5220293.6], [629410.0, 5220293.6], [629412.0, 5220291.6], [629414.0, 5220291.6], [629416.0, 5220289.6], [629418.0, 5220287.6], [629420.0, 5220287.6], [629422.0, 5220285.6], [629424.0, 5220285.6], [629426.0, 5220283.6], [629428.0, 5220283.6], [629430.0, 5220281.6], [629432.0, 5220281.6], [629434.0, 5220279.6], [629436.0, 5220279.6], [629438.0, 5220277.6], [629440.0, 5220275.6], [629442.0, 5220273.6], [629444.0, 5220271.6], [629446.0, 5220271.6], [629448.0, 5220269.6], [629450.0, 5220269.6], [629452.0, 5220267.6], [629454.0, 5220265.6], [629456.0, 5220263.6], [629458.0, 5220263.6], [629460.0, 5220261.6], [629462.0, 5220259.6], [629464.0, 5220259.6], [629466.0, 5220257.6], [629468.0, 5220255.6], [629470.0, 5220253.6], [629472.0, 5220253.6], [629474.0, 5220251.6], [629476.0, 5220249.6], [629478.0, 5220247.6], [629480.0, 5220247.6], [629482.0, 5220245.6], [629484.0, 5220243.6], [629486.0, 5220241.6], [629488.0, 5220241.6], [629490.0, 5220239.6], [629492.0, 5220237.6], [629494.0, 5220235.6], [629496.0, 5220237.6], [629498.0, 5220239.6], [629498.0, 5220241.6], [629500.0, 5220243.6], [629502.0, 5220245.6], [629502.0, 5220247.6], [629504.0, 5220249.6], [629504.0, 5220251.6], [629504.7, 5220250.75]]}, "properties": {"name": "inspector", "length_m": 3459.3}}]}