{"type": "FeatureCollection", "name": "siret3_forbidden", "crs": {"type": "name", "properties": {"name": "urn:ogc:def:crs:EPSG::32635"}}, "features": [{"type": "Feature", "properties": {"type": "forbidden", "source": "village core outside the study area; OSM buildings (+1 m); commercial/religious compounds"}, "geometry": {"type": "MultiPolygon", "coordinates": [[[[28.70665513356955, 47.12591617895627], [28.706656133928856, 47.125916718813876], [28.706657206042415, 47.12591719016757], [28.70665833987527, 47.12591758860549], [28.706659524814764, 47.12591791039827], [28.706660749769902, 47.12591815253393], [28.706683532257973, 47.12592185099066], [28.706683823794766, 47.125922118606745], [28.706684701548056, 47.12592277692823], [28.706685670318308, 47.12592337282982], [28.706686720622812, 47.12592390047859], [28.706687842180767, 47.1259243547097], [28.706689024013915, 47.125924731076964], [28.706690254554008, 47.12592502589633], [28.706691521756024, 47.12592523628201], [28.70681552177595, 47.125941436284414], [28.70681678668579, 47.125941558519045], [28.706818062991964, 47.12594159660864], [28.706819338706474, 47.12594155019544], [28.706820601846857, 47.12594141971539], [28.706821840548766, 47.12594120639407], [28.706823043177387, 47.12594091223512], [28.706824198436752, 47.12594054000156], [28.706825295475806, 47.125940093189605], [28.706826323990335, 47.1259395759961], [28.70682727431979, 47.12593899327889], [28.706828137537958, 47.125938350511284], [28.706828905536867, 47.12593765373063], [28.706829571102904, 47.12593690948163], [28.706830127984592, 47.12593612475477], [28.706830570951286, 47.12593530692085], [28.70683089584232, 47.12593446366154], [28.706871195812074, 47.12580456365744], [28.706871406034207, 47.12580366277858], [28.70687148151051, 47.125802752001185], [28.706871421465017, 47.125801840689185], [28.706871226515066, 47.12580093821195], [28.706870898664985, 47.12580005384801], [28.70687044128547, 47.125799196689705], [28.706869859078953, 47.125798375549664], [28.706869158031203, 47.125797598870165], [28.706868345349854, 47.125796874636436], [28.706867858296203, 47.12579652137831], [28.706869222039842, 47.12579059614031], [28.706869361063266, 47.12578970356005], [28.706869369078568, 47.12578880596726], [28.70686924600595, 47.125787912296744], [28.706868993070525, 47.125787031444325], [28.706868612790064, 47.1257861721782], [28.706868108949973, 47.125785343051675], [28.706867486565592, 47.125784552318095], [28.706866751832273, 47.125783807848535], [28.70686591206372, 47.12578311705365], [28.70686497561917, 47.125782486809754], [28.706863951820207, 47.12578192339043], [28.70686285085794, 47.12578143240409], [28.706861683691596, 47.125781018738074], [28.7068604619394, 47.12578068651017], [28.706859197762945, 47.12578043902738], [28.7068064977712, 47.125772039028654], [28.706805232414062, 47.125771881325335], [28.706803950560914, 47.12577180854542], [28.706802664417538, 47.12577182138197], [28.706801386230556, 47.1257719197127], [28.706800128170833, 47.125772102601346], [28.706798902217585, 47.12577236830643], [28.7067977200443, 47.1257727142979], [28.706796592907622, 47.12577313728127], [28.7067955315401, 47.12577363322888], [28.706794546048062, 47.12577419741833], [28.706793645815342, 47.125774824477425], [28.70679283941394, 47.12577550843532], [28.706792134522388, 47.125776242779395], [28.70679153785266, 47.12577702051723], [28.70679105508623, 47.12577783424322], [28.70679069082, 47.1257786762091], [28.706789453215077, 47.125782153287794], [28.70670687857029, 47.12577136376133], [28.706705615790437, 47.12577124163709], [28.706704341629, 47.12577120337637], [28.706703068013994, 47.1257712493373], [28.70670180686833, 47.125771379089635], [28.70670056999821, 47.125771591418705], [28.706699368982537, 47.125771884336814], [28.706698215064595, 47.1257722551018], [28.706697119046762, 47.12577270024276], [28.706696091189375, 47.1257732155925], [28.706695141114697, 47.12577379632663], [28.706694277716824, 47.12577443700857], [28.70669350907845, 47.12577513164063], [28.70669284239515, 47.12577587372002], [28.70669228390808, 47.1257766562998], [28.7066918388455, 47.12577747205383], [28.706691511373858, 47.12577831334548], [28.70665091134382, 47.125907513341325], [28.706650704539367, 47.12590837222525], [28.706650620308064, 47.12590924072912], [28.706650659438328, 47.12591011072377], [28.70665082156391, 47.12591097406608], [28.706651105167314, 47.12591182267517], [28.70665150759404, 47.12591264860809], [28.70665202507737, 47.12591344413413], [28.70665265277369, 47.12591420180718], [28.70665338480779, 47.12591491453545], [28.706654214327838, 47.12591557564781], [28.70665513356955, 47.12591617895627]]], [[[28.70665398840413, 47.12593554760954], [28.706653198559458, 47.125936243180455], [28.706652512060636, 47.12593698809074], [28.70665193547592, 47.12593777521323], [28.706651474321983, 47.1259385970169], [28.70665113301103, 47.12593944563891], [28.7066137329845, 47.126054145635095], [28.7066135146683, 47.126055013588676], [28.706613421730953, 47.126055891951864], [28.70661345506296, 47.126056772308495], [28.706613614344956, 47.12605764622333], [28.706613898050758, 47.1260585053228], [28.70661430346202, 47.12605934137538], [28.706614826694224, 47.126060146370286], [28.70661546273397, 47.12606091259434], [28.706616205486952, 47.12606163270589], [28.706617047836392, 47.126062299805064], [28.7066179817112, 47.12606290749998], [28.706618998163336, 47.1260634499679], [28.70662008745352, 47.12606392201112], [28.70662123914457, 47.12606431910667], [28.706622442201393, 47.12606463744973], [28.706623685096748, 47.12606487399007], [28.706784585122087, 47.12608977399381], [28.70678586887419, 47.12608992756771], [28.706787168571932, 47.12608999386706], [28.706788471509665, 47.12608997224372], [28.70678976495007, 47.126089862909055], [28.706791036248646, 47.12608966693192], [28.706792272977378, 47.12608938622816], [28.706793463046186, 47.12608902354187], [28.706794594821126, 47.12608858241867], [28.70679565723814, 47.12608806717089], [28.706796639911193, 47.12608748283547], [28.706797533233836, 47.12608683512486], [28.706798328473063, 47.12608613037095], [28.706799017854745, 47.1260853754633], [28.706799594639605, 47.12608457778178], [28.706800053189067, 47.12608374512444], [28.706800389020437, 47.126082885631156], [28.706836788993492, 47.125966985627436], [28.70683699747912, 47.125966115803145], [28.70683708025969, 47.12596523622957], [28.7068370365407, 47.12596435534849], [28.706836866741764, 47.125963481614335], [28.706836572492556, 47.12596262341288], [28.706836156617182, 47.12596178898085], [28.70683562310708, 47.125960986326845], [28.70683497708269, 47.125960223154436], [28.706834224744338, 47.12595950678832], [28.706833373312712, 47.125958844103884], [28.706832430959548, 47.125958241461376], [28.706831406729233, 47.12595770464472], [28.706830310451963, 47.12595723880613], [28.706829152649433, 47.12595684841651], [28.70682794443382, 47.12595653722273], [28.706826697401148, 47.1259563082115], [28.706666797426475, 47.125932608215045], [28.70666552554606, 47.12593246374146], [28.706664239069553, 47.125932404768065], [28.706662950305677, 47.12593243185912], [28.70666167158505, 47.12593254475541], [28.70666041514219, 47.12593274237676], [28.70665919299846, 47.125933022832406], [28.706658016847072, 47.125933383438976], [28.706656897941187, 47.125933820746276], [28.706655846986255, 47.12593433057026], [28.70665487403758, 47.12593490803303], [28.70665398840413, 47.12593554760954]]], [[[28.706752899688606, 47.12649296531372], [28.706754205161054, 47.12649299562094], [28.706755508618958, 47.12649293759726], [28.706756797263242, 47.12649279181243], [28.706758058440283, 47.12649255969794], [28.706759279766167, 47.126492243532994], [28.706760449248314, 47.12649184642216], [28.706761555403183, 47.12649137226476], [28.706762587369084, 47.126490825716715], [28.706763535012822, 47.12649021214476], [28.706764389029164, 47.12648953757375], [28.706765141032253, 47.12648880862753], [28.706765783637934, 47.126488032463826], [28.706766310536256, 47.126487216704085], [28.706766716553442, 47.126486369358496], [28.706766997702683, 47.12648549874742], [28.706794697676013, 47.12637359874465], [28.706794848732596, 47.12637273754046], [28.70679487757871, 47.126371870410665], [28.706794783946243, 47.12637100541481], [28.706794568705476, 47.12637015059252], [28.706794233856957, 47.12636931388895], [28.70679378251293, 47.126368503080805], [28.706793218868405, 47.126367725704114], [28.706792548162156, 47.12636698898418], [28.706791776628048, 47.1263662997684], [28.706790911437082, 47.1263656644627], [28.706789960630744, 47.12636508897188], [28.706788933046273, 47.126364578644825], [28.70678783823452, 47.12636413822475], [28.706786686371164, 47.12636377180514], [28.70678548816217, 47.12636348279163], [28.70678425474424, 47.12636327387049], [28.706751977939465, 47.12635892194356], [28.706753855262093, 47.12634974390946], [28.706753972187325, 47.12634884469793], [28.706753956488825, 47.12634794201581], [28.706753808324677, 47.12634704495177], [28.706753529186653, 47.12634616253782], [28.706753121885267, 47.12634530365854], [28.706752590521415, 47.12634447696153], [28.706751940445127, 47.12634369077034], [28.706751178201667, 47.12634295300071], [28.706750311465672, 47.126342271080865], [28.70674934896384, 47.126341651876686], [28.706748300387087, 47.126341101622586], [28.706747176292968, 47.126340625858795], [28.70674598799939, 47.12634022937552], [28.706744747470637, 47.126339916164724], [28.70674346719693, 47.126339689379996], [28.706627167215466, 47.12632328938244], [28.706625895093897, 47.12632315381638], [28.706624609662626, 47.126323103600136], [28.70662332318513, 47.12632313921279], [28.706622047934875, 47.12632326031459], [28.706620796078195, 47.12632346575016], [28.706619579558247, 47.1263237535596], [28.706618409981083, 47.12632412099708], [28.706617298504867, 47.12632456455715], [28.706616255733504, 47.12632508000805], [28.706615291615392, 47.126325662432215], [28.706614415348568, 47.126326306273086], [28.706613635292943, 47.12632700538823], [28.706612958890524, 47.12632775310781], [28.70661239259444, 47.1263285422983], [28.70661194180737, 47.126329365430585], [28.706611610829984, 47.12633021465164], [28.7065715108003, 47.12645791464755], [28.706571299553463, 47.12645880143475], [28.706571218950234, 47.12645969818013], [28.706571269794438, 47.126460595940905], [28.70657145157902, 47.12646148576419], [28.706571762491166, 47.12646235877628], [28.706572199430312, 47.12646320627109], [28.70657275803912, 47.12646401979703], [28.706573432746882, 47.12646479124123], [28.70657421682511, 47.1264655129105], [28.706575102454625, 47.12646617760804], [28.70657608080353, 47.12646677870514], [28.706577142115272, 47.12646731020743], [28.70657827580598, 47.12646776681451], [28.70657947056996, 47.126468143972865], [28.706580714492485, 47.12646843792134], [28.706581995168577, 47.12646864572848], [28.706595506586165, 47.126470356781944], [28.706595578114786, 47.126470437368596], [28.706596362999697, 47.12647115103614], [28.70659724761086, 47.12647180812592], [28.7065982232456, 47.126472402173555], [28.70659928030577, 47.126472927334895], [28.706600408392195, 47.126473378443485], [28.706601596406916, 47.12647375106141], [28.70660283266244, 47.1264740415229], [28.70660410499667, 47.126474246970425], [28.70675160502048, 47.12649284697319], [28.706752899688606, 47.12649296531372]]], [[[28.70667187501329, 47.126638203305546], [28.706670587286446, 47.126638248010835], [28.70666931211935, 47.12663837836678], [28.70666806171252, 47.12663859312615], [28.706666848029563, 47.12663889023421], [28.706665682682733, 47.12663926684826], [28.706664576821794, 47.12663971936496], [28.706663541027396, 47.12664024345474], [28.706662585209788, 47.126640834103206], [28.706661718514013, 47.12664148565917], [28.706660949232436, 47.1266421918887], [28.706660284725373, 47.12664294603474], [28.706659731350683, 47.126643740881796], [28.706659294402947, 47.126644568824936], [28.706658978062777, 47.12664542194259], [28.706636921644847, 47.126720088290384], [28.706136473189765, 47.126727545359394], [28.705461717323345, 47.126737596279064], [28.705476441182316, 47.12719811834492], [28.705491165405324, 47.127658640370065], [28.7051437293719, 47.12766381417653], [28.705145295059214, 47.12766086230122], [28.705145674896208, 47.12766001911932], [28.70514593191639, 47.12765915460298], [28.705146063648815, 47.1276582770636], [28.705146068827013, 47.1276573949378], [28.705145947401203, 47.12765651670622], [28.70514570053878, 47.127655650812144], [28.70514533061305, 47.12765480558018], [28.705144841180473, 47.12765398913632], [28.7051442369464, 47.127653209329786], [28.7051435237199, 47.12765247365759], [28.70514270835787, 47.12765178919239], [28.705141798699135, 47.12765116251458], [28.705140803489087, 47.12765059964902], [28.705139732295578, 47.127650106007025], [28.705138595416972, 47.12764968633442], [28.70513740378313, 47.12764934466592], [28.705018503799742, 47.127619844670335], [28.705017267241672, 47.12761958400532], [28.70501599919106, 47.12761940735272], [28.7050147118705, 47.127619316415235], [28.705013417688313, 47.127619312069434], [28.705012129118955, 47.12761939435718], [28.705010858582774, 47.12761956248533], [28.705009618326322, 47.1276198148333], [28.705008420304274, 47.12762014896874], [28.705007276064205, 47.12762056167099], [28.705006196635313, 47.12762104896204], [28.70500519242207, 47.127621606144956], [28.705004273103974, 47.12762222784912], [28.70500344754221, 47.12762290808201], [28.70500272369428, 47.12762364028694], [28.705002108537258, 47.127624417406295], [28.705001608000583, 47.1276252319495], [28.704979803018535, 47.12766625490202], [28.70481639753767, 47.12766868763847], [28.704827864426466, 47.12802746567077], [28.70482780237601, 47.12802750000964], [28.704826877686063, 47.128028124376684], [28.70482604766034, 47.12802880790087], [28.704825320380635, 47.128029543926864], [28.704824702928335, 47.1280303252881], [28.70482420131544, 47.12803114437667], [28.704818525804626, 47.12804187108909], [28.70480064439868, 47.12803793717865], [28.704799406845666, 47.128037709596086], [28.704798142758584, 47.12803756511226], [28.704796864087278, 47.12803750509299], [28.704795582919466, 47.12803753010568], [28.70479431136646, 47.1280376399139], [28.70479306144869, 47.12803783347956], [28.704791844982054, 47.12803810897283], [28.70479067346623, 47.12803846378939], [28.70478955797596, 47.128038894575], [28.70478850905636, 47.128039397257346], [28.704787536623222, 47.12803996708437], [28.7047866498693, 47.12804059866931], [28.704785857177377, 47.128041286041565], [28.704785166041052, 47.128042022703184], [28.704784582993884, 47.128042801690235], [28.704784113547614, 47.128043615638695], [28.704782264751493, 47.128047343537915], [28.70476379966218, 47.12804299530598], [28.704762528458044, 47.12804274392433], [28.70476122672708, 47.128042580803886], [28.704759907590716, 47.12804250758889], [28.704758584345843, 47.12804252501735], [28.704757270330756, 47.128042632913576], [28.70475597879072, 47.12804283018998], [28.70475472274444, 47.128043114858045], [28.704753514852847, 47.12804348404827], [28.704752367291494, 47.12804393403927], [28.704751291627783, 47.12804446029511], [28.7047502987044, 47.12804505751113], [28.704749398530012, 47.12804571966744], [28.70474860017837, 47.12804644008946], [28.704747911696852, 47.128047211515366], [28.704747340025367, 47.128048026169175], [28.70474689092635, 47.128048875839184], [28.704746629077786, 47.128049461881], [28.704745933957724, 47.12804932895051], [28.7047446690091, 47.128049175687615], [28.704743388207937, 47.12804910718939], [28.70474210371951, 47.128049124106454], [28.70474082774411, 47.128049226278094], [28.704739572401163, 47.12804941273391], [28.704738349614136, 47.1280496817029], [28.704737170997273, 47.12805003063034], [28.704736047745275, 47.12805045620204], [28.704734990526976, 47.12805095437588], [28.704734009384037, 47.12805152042009], [28.70473311363551, 47.128052148958325], [28.70473231178938, 47.12805283402059], [28.70473161146172, 47.128053569100054], [28.704731019304372, 47.128054347214785], [28.704730540941746, 47.12805516097414], [28.704703040930404, 47.12810946097134], [28.704702680749193, 47.12811030309047], [28.70470244245429, 47.128111165147175], [28.704702328311427, 47.12811203894496], [28.704702339405884, 47.12811291617569], [28.704702475632175, 47.12811378849858], [28.704702735695072, 47.12811464761955], [28.70470311712187, 47.12811548537], [28.704703616285947, 47.128116293784544], [28.704704228441223, 47.12811706517672], [28.704704947767283, 47.128117792212066], [28.704705767424734, 47.12811846797789], [28.70470667962021, 47.128119086048955], [28.7047076756805, 47.12811964054862], [28.704708746134987, 47.12812012620463], [28.70470988080572, 47.12812053839934], [28.704711068904157, 47.128120873213575], [28.704750236661276, 47.128130413820536], [28.70415634225552, 47.12813925323983], [28.70417105556868, 47.12859977550525], [28.70418576924562, 47.12906029772995], [28.704200483286346, 47.12952081991392], [28.70421519769088, 47.12998134205719], [28.704263908204986, 47.129980617153116], [28.7044656100673, 47.12997761522933], [28.704743046385754, 47.129973485570744], [28.70488999501801, 47.129971297957844], [28.704972809134173, 47.129970065027365], [28.70521067196731, 47.12996652340976], [28.705398383013218, 47.12996372816951], [28.7055647919812, 47.129961249885014], [28.70556546612837, 47.12998233195365], [28.70556765904187, 47.13005090902871], [28.705576436175605, 47.13032538615497], [28.705578347266496, 47.13038514894622], [28.70557951838862, 47.130421771665844], [28.705874501772612, 47.13041737792969], [28.706104338710205, 47.13041395401372], [28.706254320807233, 47.13041171945861], [28.70625517384424, 47.130438384594314], [28.70625904152351, 47.13055928413427], [28.70626905339844, 47.13087224103777], [28.706943861272453, 47.130862184696], [28.70695860004773, 47.131322706073405], [28.707633413377124, 47.131312645596964], [28.708308226341956, 47.1313025811469], [28.708529107715528, 47.13129928596295], [28.70868007818757, 47.1312970334885], [28.708708292702777, 47.13129661250678], [28.708799682282088, 47.13129524885796], [28.708983038942083, 47.1312925127232], [28.708968282707474, 47.130831991829254], [28.70964308912299, 47.1308219195932], [28.709628327433606, 47.130361398819794], [28.70995535379708, 47.130356516192364], [28.71006984133154, 47.130354806629285], [28.710303127664535, 47.130351322771524], [28.71028936426797, 47.12992210483462], [28.710288360520664, 47.12989080211873], [28.710332240580733, 47.129890146773214], [28.710567647323384, 47.12988663070328], [28.710724127689296, 47.12988429322147], [28.710963154567036, 47.129880722258385], [28.710962527910336, 47.129861187113264], [28.7109593743127, 47.12976287781032], [28.710948381968965, 47.12942020172624], [28.710948222028534, 47.12941521568542], [28.710947604613388, 47.12939596815009], [28.710943289291826, 47.12926144011209], [28.710942193280683, 47.12922727234594], [28.710934733732895, 47.128994721866015], [28.71093360973613, 47.128959681153354], [28.71097219693994, 47.128959104638135], [28.711608391778817, 47.128949597642524], [28.7115936140922, 47.12848907719032], [28.71226838995052, 47.128478989867716], [28.712253606810417, 47.128018469536315], [28.712666236235155, 47.12801229916414], [28.712833771299373, 47.12800979345596], [28.712928376484395, 47.128008378402086], [28.712913587891087, 47.127547858191505], [28.713189214467807, 47.1275437351009], [28.71342631874122, 47.12754018773325], [28.71358835138075, 47.127537763245776], [28.713585110243233, 47.127436871680544], [28.713581826163487, 47.12733464283111], [28.713573557334527, 47.127077243156094], [28.713559916897392, 47.126652623344576], [28.71355876365406, 47.12661672302566], [28.713626496310063, 47.126615709491794], [28.714233515141043, 47.126606624430245], [28.714218716008073, 47.12614610442074], [28.71424517395847, 47.12614570836254], [28.714309380379955, 47.12614474720901], [28.714332007662527, 47.12614440847587], [28.714478022153116, 47.126142222513714], [28.714893461310943, 47.12613600201414], [28.71488769628408, 47.125956673151705], [28.714884283325343, 47.12585050769427], [28.714878656725766, 47.12567548212565], [28.715553395844537, 47.125665375908], [28.71553858580744, 47.12520485614056], [28.716213318742145, 47.12519474611199], [28.71619850325341, 47.124734226465684], [28.716873230004065, 47.12472411262631], [28.716865039278684, 47.12446961000967], [28.71686041155631, 47.1243258156528], [28.71685840906398, 47.12426359310118], [28.717086502323006, 47.12426017321512], [28.717096630981167, 47.12426002134189], [28.71753312963061, 47.12425347545114], [28.717529925844904, 47.1241539643076], [28.71752735029141, 47.12407396597547], [28.717521036648083, 47.12387785873392], [28.717520292368867, 47.12385474063892], [28.717518303239473, 47.123792956047225], [28.71813688747103, 47.12378367675258], [28.7181930176221, 47.123782834586656], [28.71819139821293, 47.1237325535151], [28.71817818578018, 47.123322315304044], [28.718541373201784, 47.12331686548509], [28.718575950951134, 47.12331634656762], [28.718852893978827, 47.12331219003307], [28.718845168608965, 47.12307241180404], [28.718840759074045, 47.12293554829852], [28.718838503392313, 47.1228655358741], [28.718838056686426, 47.1228516708718], [28.718835332376628, 47.12276711263494], [28.71882321976083, 47.12239115166978], [28.71922415127968, 47.12238513313973], [28.71935407901193, 47.12238318244554], [28.719497915958513, 47.12238102275071], [28.71948307358285, 47.12192050367009], [28.72015776359676, 47.121910370940924], [28.720144496562163, 47.12149888220692], [28.720142915771316, 47.12144985198176], [28.720172815687974, 47.1214494028457], [28.720817599601464, 47.121439715442655], [28.72080274632653, 47.12097919660501], [28.721477423972946, 47.12096905625609], [28.721462565248807, 47.12050853754002], [28.721447706891983, 47.12004801878318], [28.72143284890247, 47.119587499985556], [28.7207581887048, 47.119597639847406], [28.72008352813997, 47.11960777573733], [28.720076802087213, 47.119399136561796], [28.720077679858697, 47.11939869982931], [28.72007865075165, 47.11939810836848], [28.720079531465213, 47.11939745443678], [28.720080313413888, 47.11939674440894], [28.720080988975, 47.11939598520654], [28.72008155156295, 47.11939518423054], [28.72009435155897, 47.119374384229246], [28.720094795614585, 47.11937354945286], [28.720095116931695, 47.119372688858775], [28.720095312379204, 47.11937181083309], [28.720095380052577, 47.11937092393175], [28.720095319292387, 47.11937003679723], [28.720095130690698, 47.119369158074214], [28.720094816085368, 47.119368296325476], [28.720094378542083, 47.119367459948386], [28.72009382232451, 47.11936665709299], [28.720078622321584, 47.11934725709455], [28.720077968436478, 47.119346511515296], [28.720077212224936, 47.119345812474464], [28.72007636074179, 47.11934516649356], [28.720075421930677, 47.11934457959905], [28.72007503693515, 47.11934438193872], [28.720074963791106, 47.119342113023436], [28.720088840240773, 47.119319702544495], [28.72008928473733, 47.11931887339986], [28.720089608029948, 47.119318018507684], [28.720089807004985, 47.11931714610137], [28.720089879746123, 47.11931626458316], [28.720089825552783, 47.119315382442956], [28.720089644946928, 47.11931450817668], [28.720089339667965, 47.119313650204404], [28.720088912656056, 47.11931281678926], [28.72008836802377, 47.11931201595791], [28.72008771101648, 47.11931125542319], [28.720086947961832, 47.11931054250981], [28.720086086208845, 47.11930988408387], [28.720085134057065, 47.119309286486676], [28.7200841006767, 47.11930875547368], [28.720082996020267, 47.119308296159105], [28.72008183072672, 47.119307912966626], [28.72007378646034, 47.11930559239139], [28.72006868214969, 47.119147256574266], [28.720053836526404, 47.11868673737043], [28.719379187226394, 47.118696868963966], [28.719392461895954, 47.119108818406836], [28.719385074017932, 47.11910651595519], [28.719383859679095, 47.11910618612679], [28.719382603455525, 47.11910594001393], [28.719381317699483, 47.1191057800366], [28.719380015053588, 47.119105707767794], [28.71937870832654, 47.11910572391815], [28.719377410367162, 47.11910582832888], [28.719376133938084, 47.119106019973295], [28.71937489159022, 47.119106296967004], [28.71937484070203, 47.119106312267675], [28.719355396005472, 47.11910022282443], [28.719354196407984, 47.11909989473039], [28.719352955505293, 47.119099648405125], [28.719351685227306, 47.11909948621675], [28.71935039778634, 47.119099409724555], [28.719349105559704, 47.11909941966392], [28.719347820970736, 47.11909951593929], [28.719346556369327, 47.11909969762508], [28.719345323913224, 47.11909996297458], [28.719344135451113, 47.11910030943677], [28.719343002408753, 47.119100733680774], [28.71934193567909, 47.11910123162796], [28.719340945517555, 47.11910179849113], [28.71934004144344, 47.119102428820504], [28.71933923214844, 47.11910311655619], [28.71933852541302, 47.119103855086344], [28.719337928031667, 47.119104637310826], [28.719323628027833, 47.11912583730938], [28.71932314616911, 47.11912665486886], [28.71932278379956, 47.11912750068561], [28.719322544395975, 47.119128366644375], [28.71932243025534, 47.11912924443669], [28.71932244247278, 47.11913012564048], [28.71932258093109, 47.11913100180098], [28.719322844301825, 47.119131864511814], [28.719323230058066, 47.119132705495616], [28.719323734498637, 47.11913351668353], [28.71932435278367, 47.11913429029254], [28.71932507898097, 47.11913501890017], [28.71932590612299, 47.11913569551577], [28.71932682627366, 47.119136313647516], [28.719327830604527, 47.11913686736465], [28.719328909479454, 47.11913735135451], [28.719330052547107, 47.11913776097343], [28.71934625635989, 47.119142893143234], [28.71933594669215, 47.11915826037616], [28.71871937155113, 47.11916751611389], [28.718044715701712, 47.11917763992588], [28.71737005948573, 47.11918775976597], [28.716695402903326, 47.11919787563416], [28.716020745954637, 47.119207987530444], [28.716035557048844, 47.11966850766591], [28.71536089391797, 47.11967861575212], [28.71468623042109, 47.119688719866375], [28.71401156655835, 47.11969882000863], [28.714026360570095, 47.12015934058868], [28.713351690525407, 47.1201694369206], [28.713366479086496, 47.12062995762156], [28.71269180285984, 47.12064005014302], [28.712706585970004, 47.12110057096483], [28.712712542116595, 47.12128611255666], [28.712712440300145, 47.12128604732423], [28.71259154030494, 47.12121584733311], [28.712590497069815, 47.12121530040567], [28.712589379161706, 47.121214827180374], [28.712588197715313, 47.12121443237062], [28.712586964498172, 47.12121411990889], [28.712585691793485, 47.12121389290738], [28.712584392277755, 47.12121375362705], [28.712583078894543, 47.12121370345523], [28.712581764725517, 47.1212137428916], [28.71258046286018, 47.12121387154338], [28.712579186265486, 47.121214088129165], [28.71257794765668, 47.12121439049169], [28.712576759370677, 47.12121477561934], [28.712575633243144, 47.121215239676125], [28.71257458049063, 47.12121577803994], [28.71257361159887, 47.1212163853485], [28.71257273621831, 47.1212170555528], [28.71252103621509, 47.12126085554825], [28.71252028016431, 47.12126156413853], [28.712519628731222, 47.12126231958782], [28.712519088100265, 47.1212631147242], [28.712518663403966, 47.12126394199899], [28.712518358674227, 47.12126479355839], [28.71251817680402, 47.12126566131802], [28.712518119519956, 47.12126653703975], [28.71251818736587, 47.121267412409864], [28.712518379697666, 47.121268279117935], [28.71251869468944, 47.121269128935815], [28.712519129350788, 47.12126995379567], [28.71251967955523, 47.12127074586665], [28.712520340079344, 47.12127149762913], [28.712521104652406, 47.12127220194621], [28.712521966015874, 47.12127285213139], [28.712522915992324, 47.12127344201208], [28.712546896000113, 47.12128693513969], [28.71251552167818, 47.121312153735694], [28.71248597879264, 47.12129956786189], [28.712484886851225, 47.12129915047822], [28.712483741836753, 47.12129880566525], [28.712482554072118, 47.121298536531654], [28.71248133426565, 47.12129834550384], [28.71248009341455, 47.12129823430397], [28.71247884270574, 47.121298203934614], [28.712477593415024, 47.12129825466956], [28.712476356805404, 47.12129838605138], [28.71247514402558, 47.121298596895635], [28.712473966009394, 47.12129888530143], [28.712472833377287, 47.12129924866864], [28.71247175634054, 47.121299683721325], [28.712470744609202, 47.12130018653723], [28.712469807304572, 47.12130075258324], [28.712468952876932, 47.12130137675613], [28.71241695287448, 47.121343176751644], [28.71241616341126, 47.12134387858349], [28.71241547877082, 47.121344629955026], [28.71241490557574, 47.12134542359822], [28.712414449370556, 47.12134625183612], [28.712414114568173, 47.12134710665713], [28.712413904407143, 47.12134797979256], [28.71241382092039, 47.121348862796495], [28.712413864915472, 47.121349747127624], [28.712414035966837, 47.12135062423174], [28.712414332419907, 47.12135148562461], [28.712414751407078, 47.12135232297391], [28.712415288875476, 47.12135312817995], [28.71241593962615, 47.12135389345391], [28.712416697364354, 47.12135461139326], [28.712417554760464, 47.12135527505335], [28.71241850352084, 47.12135587801456], [28.71254030352588, 47.121425978023446], [28.712541333833773, 47.12142651415101], [28.712542436275605, 47.121426978647186], [28.71254360020021, 47.1214273670243], [28.712544814362378, 47.121427675530036], [28.712546067031564, 47.1214279011838], [28.712547346105165, 47.121428041805444], [28.712548639225496, 47.121428096036375], [28.712549933899137, 47.121428063352624], [28.71255121761768, 47.12142794406998], [28.712552477978537, 47.12142773934086], [28.712553702804815, 47.121427451143276], [28.712554880262914, 47.121427082261604], [28.7125559989769, 47.121426636259805], [28.712557048138375, 47.12142611744686], [28.712558017610938, 47.12142553083529], [28.712558898028078, 47.121424882092576], [28.712712972407292, 47.12129951659093], [28.71272136944562, 47.12156109174588], [28.712046681220293, 47.12157118061829], [28.712061459244566, 47.12203170152015], [28.711386764837066, 47.12204178658177], [28.711401537409692, 47.12250230760435], [28.71072683682, 47.12251238885506], [28.710741603940708, 47.12297290999832], [28.710066897168797, 47.12298298743799], [28.710081658837293, 47.12344350870187], [28.709406945883146, 47.12345358233037], [28.709412919176216, 47.123640002040354], [28.709315820185218, 47.12359115771164], [28.709314737942798, 47.12359066756037], [28.709313590278676, 47.12359025248687], [28.709312388336016, 47.12358991652123], [28.70931114378504, 47.123589662925546], [28.70930986870965, 47.12358949416205], [28.709308575490113, 47.12358941186934], [28.709307276682885, 47.12358941684647], [28.70930598489867, 47.12358950904509], [28.709304712679977, 47.123589687569996], [28.70930347237934, 47.12358995068782], [28.70930227603941, 47.12359029584385], [28.70930113527598, 47.12359071968677], [28.70930006116523, 47.12359121810133], [28.7092990641362, 47.12359178624819], [28.709298153869483, 47.123592418610954], [28.709289652155267, 47.12359893833051], [28.709260760424336, 47.12358513033285], [28.709259681130007, 47.12358466596223], [28.709258541115624, 47.123584274986754], [28.709257351061684, 47.12358396106936], [28.709256122117498, 47.12358372715105], [28.709254865796737, 47.12358357542337], [28.70925359386956, 47.1235835073078], [28.709252318252307, 47.12358352344249], [28.709251050895926, 47.123583623676296], [28.709249803673952, 47.123583807070155], [28.709248588271297, 47.12358407190588], [28.709247416074753, 47.12358441570232], [28.709246298066333, 47.12358483523849], [28.709245244720375, 47.12358532658389], [28.709244265905415, 47.12358588513523], [28.70924337079173, 47.12358650565959], [28.709242567765397, 47.12358718234341], [28.709160867757955, 47.12366328233599], [28.70916015713022, 47.12366401714239], [28.709159555136964, 47.1236647958404], [28.709159067543673, 47.12366561097211], [28.70915869902019, 47.12366645473076], [28.709158453096013, 47.12366731903538], [28.709158332126425, 47.123668195608246], [28.70915833727001, 47.123669076054114], [28.709158468477522, 47.12366995194066], [28.70915872449233, 47.12367081487922], [28.709159102862515, 47.12367165660514], [28.709159599964284, 47.12367246905692], [28.70916021103675, 47.12367324445344], [28.70916093022746, 47.12367397536847], [28.709161750648477, 47.12367465480175], [28.709162664442367, 47.12367527624617], [28.70916366285741, 47.12367583374991], [28.70930136286639, 47.123745333759146], [28.70930243909517, 47.12374582310416], [28.709303580397332, 47.12374623811468], [28.709304775787906, 47.12374657479626], [28.70930601376131, 47.12374682990835], [28.709307282402115, 47.12374700099551], [28.709308569499708, 47.12374708641103], [28.70930986266584, 47.123747085332795], [28.70931114945384, 47.1237469977712], [28.709312417478433, 47.12374682456898], [28.709313654534956, 47.12374656739322], [28.70931484871678, 47.12374622871924], [28.70931598852998, 47.12374581180674], [28.70931706300389, 47.1237453206685], [28.709318061796775, 47.123744760031684], [28.70931897529529, 47.1237441352924], [28.709319794707064, 47.12374345246375], [28.709413466234682, 47.12365707502178], [28.709421702099142, 47.1239141037148], [28.708746982962733, 47.123924173532], [28.70876173372594, 47.124384695036944], [28.70877648485382, 47.12484521650116], [28.708101753717376, 47.1248552826681], [28.70810595883742, 47.12498661377106], [28.708017345790086, 47.12494092157995], [28.708016284195224, 47.124940427735844], [28.708015157205757, 47.124940006772434], [28.70801397552722, 47.124939662688526], [28.70801275038466, 47.12493939875267], [28.708011493416013, 47.12493921747206], [28.708010216561508, 47.1249391205687], [28.70800893195029, 47.12493910896313], [28.708007651785184, 47.12493918276558], [28.708006388226785, 47.12493934127497], [28.708005153277927, 47.1249395829856], [28.7080039586697, 47.12493990560139], [28.708002815749957, 47.12494030605775], [28.708001735375564, 47.124940780550645], [28.708000727809267, 47.12494132457275], [28.707999802622176, 47.12494193295626], [28.707998968602865, 47.12494259992203], [28.70791226859638, 47.12501919991427], [28.707911519538435, 47.125019934530876], [28.70791088112891, 47.12502071630937], [28.707910359685897, 47.12502153751282], [28.707909960369896, 47.125022390014124], [28.707909687132794, 47.12502326537641], [28.70790954267871, 47.1250241549366], [28.70790952843725, 47.125025049891065], [28.707909644549357, 47.12502594138281], [28.707909889865928, 47.1250268205891], [28.70791026195918, 47.12502767880879], [28.707910757146653, 47.125028507548436], [28.707911370527686, 47.125029298606336], [28.707912096031908, 47.1250300441537], [28.707912926479292, 47.12503073681217], [28.707913853651245, 47.12503136972677], [28.707914868371933, 47.12503193663382], [28.708047768380627, 47.125098936642715], [28.708048834573205, 47.12509942133068], [28.708049964664, 47.125099833092094], [28.70805114797953, 47.12510016803795], [28.70805237334358, 47.125100423004746], [28.708053629182817, 47.12510059558437], [28.708054903636064, 47.12510068414684], [28.708056184666344, 47.12510068785572], [28.708057460174555, 47.125100606675936], [28.708058718113755, 47.125100441374244], [28.70805994660293, 47.12510019351189], [28.70806113403923, 47.12509986542989], [28.708062269207534, 47.1250994602269], [28.708063341386385, 47.12509898172999], [28.70806434044925, 47.125098434458494], [28.708065256960165, 47.1250978235813], [28.70806608226286, 47.12509715486801], [28.708108288546335, 47.125059373063685], [28.70811649939205, 47.12531580425275], [28.707441762073145, 47.12532586660806], [28.707456502294328, 47.12578638831311], [28.707471242879937, 47.12624690997744], [28.706796493560336, 47.12625696868206], [28.706809275077934, 47.12665643419738], [28.706674438861203, 47.12663837173429], [28.7066731629792, 47.12663824467865], [28.70667187501329, 47.126638203305546]]], [[[28.709193112377697, 47.123803482130995], [28.709192392815353, 47.12380274578005], [28.709191570725796, 47.12380206125229], [28.70919065406598, 47.123801435173206], [28.70918965170821, 47.12380087360259], [28.709068151716078, 47.12373937361075], [28.709067075185178, 47.12373888272736], [28.70906593329191, 47.123738466294974], [28.709064737052476, 47.12373812833106], [28.70906349800739, 47.123737872096044], [28.70906222811011, 47.12373770006193], [28.709060939611735, 47.12373761388838], [28.709059644942823, 47.123737614406735], [28.70905835659346, 47.12373770161201], [28.709057086992743, 47.123737874662865], [28.709055848388942, 47.12373813188986], [28.709054652731243, 47.12373847081142], [28.709053511554547, 47.1237388881579], [28.709052435868145, 47.12373937990297], [28.709051436049528, 47.12373994130269], [28.70905052174427, 47.12374056694095], [28.709049701772972, 47.12374125078212], [28.70895750176484, 47.12382635077373], [28.708956785371665, 47.123827084693765], [28.708956177696074, 47.12382786296039], [28.70895568457697, 47.12382867809552], [28.70895531075255, 47.123829522266924], [28.70895505981473, 47.12383038736325], [28.708954934174685, 47.12383126507219], [28.708954935039635, 47.12383214696017], [28.708955062401284, 47.1238330245535], [28.708955315035865, 47.12383388941976], [28.708955690515925, 47.12383473324878], [28.708956185233635, 47.12383554793255], [28.708956794435466, 47.12383632564313], [28.70895751226784, 47.123837058907824], [28.70895833183342, 47.123837740680955], [28.70895924525732, 47.12383836441168], [28.708960243762835, 47.1238389241068], [28.70908104377064, 47.12390012411493], [28.709082116545737, 47.123900613895614], [28.70908325435697, 47.12390102971961], [28.70908444629561, 47.12390136760023], [28.70908568093399, 47.123901624298036], [28.70908694643506, 47.12390179735198], [28.709088230665863, 47.12390188510286], [28.709089521313885, 47.12390188670941], [28.709090806005083, 47.12390180215622], [28.70909207242252, 47.123901632253926], [28.709093308424464, 47.12390137863147], [28.709094502160788, 47.12390104372046], [28.709095642186583, 47.12390063073183], [28.709096717571896, 47.12390014362509], [28.709097718006504, 47.12389958707036], [28.709098633898787, 47.12389896640362], [28.709099456467662, 47.12389828757546], [28.709192356459788, 47.123813487567055], [28.709193080998904, 47.12381275349302], [28.709193696349864, 47.1238119743781], [28.709194196556716, 47.1238111577633], [28.709194576778003, 47.1238103115526], [28.709194833333576, 47.123809443936416], [28.709194963740263, 47.12380856331235], [28.70919496673587, 47.12380767820392], [28.7091948422914, 47.12380679717803], [28.70919459161137, 47.1238059287621], [28.709194217122086, 47.12380508136144], [28.709193722448223, 47.123804263178044], [28.709193112377697, 47.123803482130995]]], [[[28.708399436902905, 47.124368167344734], [28.708399998447018, 47.1243689707382], [28.70840067356005, 47.12436973232496], [28.708401455633243, 47.124370444649706], [28.70840233701081, 47.12437110073945], [28.70840330906484, 47.12437169417164], [28.708486609068945, 47.124417694177545], [28.708487667351203, 47.12441822141256], [28.7084887970934, 47.124418674334606], [28.708489987133465, 47.12441904846875], [28.708491225713587, 47.12441934011847], [28.708492500596357, 47.124419546402194], [28.70849379918569, 47.12441966528182], [28.70849510865127, 47.1244196955828], [28.70849641605534, 47.12441963700574], [28.708497708480497, 47.1244194901294], [28.708498973157322, 47.12441925640494], [28.708500197590592, 47.124418938141574], [28.708501369682654, 47.12441853848388], [28.708502477853038, 47.124418061380474], [28.708503511152795, 47.12441751154528], [28.708504459372737, 47.12441689441076], [28.708505313144272, 47.124416216074295], [28.708581613138684, 47.1243491160675], [28.70858236028413, 47.12434838729512], [28.708582998342862, 47.12434761172911], [28.708583521078165, 47.12434679695028], [28.70858392338054, 47.12434595092273], [28.708584201317663, 47.124345081915976], [28.70858435217284, 47.124344198424204], [28.70858437447154, 47.12434330908309], [28.70858426799579, 47.12434242258559], [28.708584033786373, 47.124341547596764], [28.70858367413257, 47.12434069266924], [28.708583192549842, 47.12433986615957], [28.708582593745444, 47.124339076146484], [28.708581883572425, 47.124338330351996], [28.70858106897239, 47.12433763606592], [28.7085801579077, 47.12433700007457], [28.708579159283577, 47.124336428594454], [28.708496959288606, 47.124293928600046], [28.70849592255866, 47.12429344386874], [28.708494822910033, 47.124293028723514], [28.708493670337372, 47.1242926869376], [28.70849247531632, 47.124292421617504], [28.70849124870835, 47.12429223517465], [28.708490001662017, 47.12429212930363], [28.708488745511644, 47.124292104966685], [28.7084874916743, 47.12429216238505], [28.70848625154603, 47.12429230103682], [28.708485036398272, 47.1242925196618], [28.708483857275425, 47.12429281627291], [28.70848272489446, 47.12429318817431], [28.708481649547508, 47.12429363198579], [28.70848064100834, 47.12429414367357], [28.708479708443484, 47.124294718586974], [28.708478860328988, 47.12429535150063], [28.70840146032486, 47.124358951493896], [28.708400677670376, 47.12435966352109], [28.70840000193576, 47.12436042485095], [28.708399439735857, 47.12436122803071], [28.70839899657411, 47.124362065197964], [28.708398676788686, 47.12436292815761], [28.70839848351, 47.124363808462014], [28.708398418630086, 47.124364697493796], [28.70839848278407, 47.124365586550105], [28.70839867534394, 47.1243664669279], [28.708398994424723, 47.124367330009036], [28.708399436902905, 47.124368167344734]]], [[[28.708344713727087, 47.12459877181221], [28.70834586708261, 47.12459836105228], [28.708346955497234, 47.12459787469562], [28.708347968369207, 47.12459731747961], [28.708348895832643, 47.12459669483183], [28.708349728853552, 47.124596012817186], [28.708445628845638, 47.12450911280854], [28.708446352087023, 47.1245083861557], [28.708446968049653, 47.12450761482451], [28.708447470860868, 47.124506806168924], [28.708447855726813, 47.12450596789877], [28.70844811897813, 47.1245051080062], [28.708448258104962, 47.124504234689525], [28.708448271780863, 47.12450335627507], [28.708448159875445, 47.124502481137746], [28.708447923455644, 47.124501617621206], [28.708447564775508, 47.12450077395831], [28.70844708725475, 47.12449995819263], [28.70844649544612, 47.124499178101814], [28.708445794991974, 47.124498441123315], [28.708444992570545, 47.12449775428355], [28.708444095832206, 47.12449712413096], [28.70844311332657, 47.124496556673456], [28.708314713334182, 47.12442945668228], [28.70831364450994, 47.12442895312748], [28.708312508270705, 47.12442852380597], [28.708311315646714, 47.1244281728855], [28.708310078215565, 47.12442790377266], [28.708308807989827, 47.124427719079925], [28.70830751730043, 47.124427620600244], [28.708306218676952, 47.12442760928958], [28.708304924725994, 47.124427685257764], [28.7083036480088, 47.12442784776732], [28.708302400919322, 47.124428095240646], [28.708301195563887, 47.12442842527538], [28.70830004364368, 47.124428834667626], [28.70829895634115, 47.124429319443166], [28.708297944211488, 47.12442987489594], [28.708297017080106, 47.1244304956338], [28.70829618394729, 47.12443117563085], [28.708200183939475, 47.1245178756222], [28.708199458748314, 47.124518601741265], [28.708198840807544, 47.12451937268543], [28.708198336012803, 47.124520181099264], [28.708197949180253, 47.1245210192699], [28.708197684000577, 47.124521879200486], [28.708197543003802, 47.12452275268664], [28.708197527535155, 47.1245236313946], [28.708197637742234, 47.12452450694081], [28.70819787257357, 47.12452537097185], [28.70819822978871, 47.124526215244195], [28.708198705979516, 47.12452703170279], [28.70819929660279, 47.124527812558014], [28.708199996023495, 47.12452855035988], [28.70820079756863, 47.12452923806916], [28.708201693590805, 47.12452986912456], [28.70820267554127, 47.12453043750532], [28.70833117554884, 47.124597737514165], [28.708332245460984, 47.12459824263402], [28.708333383114013, 47.12459867331062], [28.70833457742659, 47.12459902534893], [28.708335816765477, 47.1245992953199], [28.708337089058855, 47.1245994805939], [28.708338381913915, 47.12459957936622], [28.708339682737567, 47.12459959067482], [28.708340978859102, 47.12459951440949], [28.7083422576536, 47.12459935131314], [28.708343506664946, 47.124599102974386], [28.708344713727087, 47.12459877181221]]], [[[28.708150939493706, 47.12477676369641], [28.708152062509296, 47.124776362890756], [28.708153123942154, 47.124775890331364], [28.70815411398126, 47.12477535038619], [28.708155023475513, 47.12477474804603], [28.708155844018307, 47.124774088878425], [28.708244744011584, 47.124695288870484], [28.70824548619898, 47.12469455911597], [28.708246119324265, 47.12469378296153], [28.708246637214685, 47.12469296797442], [28.708247034820946, 47.12469212210052], [28.708247308266518, 47.124691253586825], [28.70824745488541, 47.124690370901135], [28.708247473248118, 47.12468948264931], [28.70824736317563, 47.12468859749157], [28.70824712574112, 47.12468772405795], [28.708246763259513, 47.12468687086413], [28.708246279264895, 47.12468604622851], [28.70824567847608, 47.12468525819103], [28.708244966750573, 47.12468451443483], [28.7082441510275, 47.1246838222113], [28.708243239259897, 47.12468318826939], [28.70824224033724, 47.12468261878988], [28.708093140346445, 47.1246058188], [28.708092066450238, 47.12460532034947], [28.70809092590151, 47.124604896445184], [28.70808972977156, 47.124604551202], [28.7080884896712, 47.12460428797116], [28.708087217638063, 47.12460410930785], [28.70808592601974, 47.124604016946364], [28.708084627353962, 47.12460401178326], [28.70808333424685, 47.124604093868626], [28.708082059250565, 47.124604262405676], [28.708080814741482, 47.124604515758435], [28.708079612800024, 47.124604851467595], [28.70807846509341, 47.124605266274436], [28.708077382762422, 47.12460575615244], [28.70807637631322, 47.12460631634638], [28.708075455515402, 47.124606941418435], [28.70807462930713, 47.12460762530107], [28.707985129299445, 47.124689625292994], [28.70798440154106, 47.12469036606593], [28.70798378482175, 47.12469115238027], [28.707983285202523, 47.12469197650831], [28.707982907593543, 47.12469283035066], [28.707982655705894, 47.124693705515924], [28.70798253201507, 47.1246945934031], [28.707982537736704, 47.12469548528627], [28.707982672814556, 47.12469637240014], [28.707982935921127, 47.12469724602633], [28.70798332447065, 47.12469809757901], [28.707983834644548, 47.124698918689276], [28.707984461428925, 47.124699701287405], [28.707985198663874, 47.124700437682165], [28.707986039103993, 47.12470112063644], [28.707986974489593, 47.124701743438244], [28.70798799562788, 47.124702299966835], [28.70813769563829, 47.124775899976676], [28.708138758337732, 47.12477637120813], [28.708139882427222, 47.124776770608975], [28.708141057516603, 47.12477709448744], [28.708142272744322, 47.12477733984993], [28.708143516877804, 47.12477750442845], [28.708144778417328, 47.12477758670183], [28.708146045702243, 47.12477758590955], [28.70814730701882, 47.124777502058976], [28.708148550708483, 47.12477733592512], [28.7081497652756, 47.12477708904361], [28.708150939493706, 47.12477676369641]]], [[[28.711476897192426, 47.12135965683065], [28.711478087949953, 47.12135931587906], [28.711479224115607, 47.121358897032835], [28.711480294784693, 47.121358404311955], [28.71148128968112, 47.121357842445484], [28.711482199256075, 47.1213572168261], [28.711483014779617, 47.12135653345836], [28.711580614770874, 47.12126603344949], [28.711581330664835, 47.12126529630663], [28.711581937066736, 47.121264514748106], [28.711582428116717, 47.12126369632641], [28.711582799069603, 47.12126284895018], [28.711583046340753, 47.121261980807944], [28.711583167540706, 47.12126110028883], [28.711583161498275, 47.1212602159016], [28.711583028271864, 47.121259336192374], [28.711582769148873, 47.121258469662095], [28.71158238663332, 47.121257624684326], [28.711581884421573, 47.12125680942437], [28.71158126736669, 47.12125603176038], [28.711580541431463, 47.12125529920712], [28.711579713630872, 47.12125461884357], [28.71157879196423, 47.12125399724429], [28.7115777853379, 47.12125344041596], [28.711435685347414, 47.12118244042544], [28.71143460728355, 47.12118195527704], [28.711433464844376, 47.121181544461145], [28.71143226899481, 47.12118121192068], [28.71143103121241, 47.12118096084732], [28.71142976337719, 47.121180793650815], [28.711428477657602, 47.12118071193591], [28.711427186393763, 47.12118071648686], [28.711425901978984, 47.12118080725999], [28.711424636740862, 47.1211809833841], [28.711423402822916, 47.121181243168756], [28.711422212068076, 47.12118158412061], [28.711421075904997, 47.12118200296724], [28.711420005238374, 47.121182495688664], [28.711419010344265, 47.121183057555825], [28.71141810077151, 47.12118368317599], [28.71141728525001, 47.1211843665446], [28.711319685241257, 47.12127486653573], [28.711318969345154, 47.121275603677205], [28.711318362940833, 47.12127638523444], [28.711317871888195, 47.12127720365501], [28.711317500932452, 47.12127805103025], [28.71131725365827, 47.1212789191717], [28.71131713245514, 47.12127979969023], [28.7113171384943, 47.12128068407707], [28.7113172717174, 47.12128156378611], [28.711317530837068, 47.121282430316484], [28.711317913349347, 47.12128327529456], [28.7113184155579, 47.121284090555065], [28.711319032609733, 47.121284868219874], [28.71131975854207, 47.121285600774144], [28.711320586339994, 47.121286281138985], [28.71132150800422, 47.12128690273976], [28.71132251462841, 47.12128745956978], [28.711464614637926, 47.121358459579234], [28.711465692704802, 47.12135894472653], [28.711466835147043, 47.12135935554144], [28.711468030999686, 47.121359688081014], [28.71146926878518, 47.121359939153606], [28.71147053662348, 47.12136010634948], [28.71147182234612, 47.12136018806392], [28.711473113612968, 47.121360183512635], [28.711474398030692, 47.1213600927393], [28.711475663271692, 47.12135991661518], [28.711476897192426, 47.12135965683065]]], [[[28.711303962322447, 47.121918901618386], [28.711304704066894, 47.121919642038534], [28.711305550140736, 47.121920328364936], [28.711306492134025, 47.1219209537755], [28.71130752068337, 47.12192151205367], [28.711308625565, 47.12192199765015], [28.711453225579596, 47.12197879765821], [28.711454397294833, 47.121979206199185], [28.711455622845552, 47.12197953296917], [28.711456890019694, 47.121979774712045], [28.711458186190455, 47.12197992901898], [28.711459498442096, 47.121979994352365], [28.71146081369862, 47.12197997006117], [28.711462118854097, 47.121979856387455], [28.71146340090326, 47.12197965446392], [28.711464647071065, 47.121979366302654], [28.711465844940037, 47.121978994775056], [28.711466982573945, 47.12197854358322], [28.711468048636807, 47.12197801722304], [28.711469032505793, 47.121977420939494], [28.711469924377095, 47.121976760674244], [28.711470715363642, 47.12197604300656], [28.711471397583608, 47.12197527508764], [28.71154339756919, 47.12188427508058], [28.711543971693775, 47.12188345231544], [28.711544420928035, 47.12188259412706], [28.711544740662504, 47.121881709321094], [28.71154492761649, 47.121880806976264], [28.71154497987171, 47.12187989635129], [28.711544896892008, 47.121878986789824], [28.71154467952881, 47.12187808762464], [28.711544330012426, 47.121877208081806], [28.711543851929157, 47.12187635718605], [28.711543250184484, 47.12187554366819], [28.711542530952734, 47.121874775875476], [28.711541701613754, 47.12187406168604], [28.711540770677153, 47.12187340842796], [28.711539747695003, 47.121872822804114], [28.71153864316385, 47.12187231082344], [28.71145964904155, 47.12183955717127], [28.71146530104213, 47.121833130297], [28.711465911402268, 47.12183235212579], [28.711466407106315, 47.12183153687501], [28.71146678338274, 47.12183069239207], [28.71146703660961, 47.12182982680571], [28.711467164349433, 47.12182894844788], [28.71146716537263, 47.12182806577342], [28.711467039669362, 47.12182718727872], [28.71146678844961, 47.121826321419945], [28.71146641413156, 47.12182547653162], [28.71146592031831, 47.12182466074643], [28.711465311763185, 47.12182388191688], [28.711464594323978, 47.12182314753983], [28.71146377490658, 47.12182246468418], [28.711462861398484, 47.121821839922895], [28.711461862592888, 47.12182127926982], [28.711460788104038, 47.121820788121596], [28.711415188108404, 47.12180208812422], [28.711414052637323, 47.121801672619384], [28.71141286316008, 47.12180133476483], [28.71141163104112, 47.121801077788454], [28.7114103680523, 47.12180090414546], [28.711409086260396, 47.12180081549484], [28.711407797911864, 47.121800812683595], [28.71140651531577, 47.12180089573857], [28.711405250726234, 47.121801063866265], [28.71140401622535, 47.12180131546034], [28.711402823607717, 47.12180164811704], [28.71140168426779, 47.121802058658105], [28.711400609091008, 47.121802543161174], [28.71139960834977, 47.12180309699722], [28.711398691605314, 47.1218037148748], [28.711397867616366, 47.121804390890645], [28.711397144255447, 47.12180511858595], [28.71130394424109, 47.121909518577056], [28.711303317234968, 47.12191030685975], [28.711302808343273, 47.12191113384022], [28.71130242262439, 47.12191199129824], [28.711302163912343, 47.12191287071072], [28.71130203477875, 47.12191376333632], [28.711302036507192, 47.12191466030235], [28.711302169080504, 47.121915552693], [28.711302431180908, 47.121916431637906], [28.711302820203137, 47.12191728840038], [28.711303332280327, 47.12191811446424], [28.711303962322447, 47.121918901618386]]], [[[28.711234254700475, 47.12215202672364], [28.71123537671003, 47.12215161656254], [28.711236435529226, 47.122151134447336], [28.71123742128497, 47.12215058487356], [28.71123832478545, 47.12214997296581], [28.71123913760586, 47.12214930442987], [28.71133083759823, 47.12206600442161], [28.711331571999146, 47.12206526321822], [28.71133219489849, 47.122064475886745], [28.7113327001346, 47.12206365021535], [28.711333082709732, 47.12206279437153], [28.711333338839495, 47.122061916821195], [28.711333465990286, 47.12206102624501], [28.711333462904346, 47.12206013145243], [28.711333329612202, 47.12205924129471], [28.71133306743238, 47.122058364577164], [28.711332678958353, 47.12205750997223], [28.711332168032854, 47.12205668593355], [28.711331539709924, 47.12205590061245], [28.711330800204887, 47.12205516177725], [28.711329956832845, 47.12205447673644], [28.711329017936357, 47.12205385226636], [28.7113279928029, 47.12205329454422], [28.711195092812194, 47.121988094552954], [28.711194021271794, 47.12198762083137], [28.71119288761368, 47.12198722009036], [28.71119170247333, 47.121986896089496], [28.71119047696916, 47.12198665186839], [28.71118922259829, 47.121986489718246], [28.71118795112865, 47.12198641116026], [28.71118667448858, 47.12198641693141], [28.711185404654916, 47.121986506977585], [28.71118415354066, 47.12198668045399], [28.711182932883176, 47.12198693573316], [28.71118175413411, 47.12198727042019], [28.71118062835194, 47.12198768137521], [28.711179566098238, 47.12198816474278], [28.71117857733857, 47.121988715988216], [28.71117767134903, 47.12198932993999], [28.71117685662921, 47.12199000083828], [28.711084856621508, 47.12207370082997], [28.711084121628577, 47.122074443961225], [28.71108349865538, 47.12207523333751], [28.71108299388947, 47.122076061118506], [28.711082612344317, 47.12207691908248], [28.71108235780953, 47.122077798707906], [28.71108223281323, 47.122078691258125], [28.711082238596905, 47.122079587868086], [28.71108237510313, 47.122080479632416], [28.711082640976095, 47.12208135769387], [28.711083033575076, 47.12208221333132], [28.711083549000687, 47.12208303804635], [28.711084182133593, 47.122083823647664], [28.711084926685345, 47.12208456233246], [28.711085775260862, 47.12208524676391], [28.71108671943188, 47.12208587014408], [28.71108774982062, 47.12208642628138], [28.71122094983011, 47.12215122629007], [28.711222020763252, 47.12215169577413], [28.71122315304539, 47.12215209256545], [28.71122433611838, 47.12215241296411], [28.711225558950524, 47.122152653982496], [28.71122681013935, 47.122152813373205], [28.711228078017974, 47.12215288964998], [28.711229350763887, 47.12215288210157], [28.7112306165092, 47.122152790798346], [28.7112318634513, 47.122152616591706], [28.711233079962902, 47.122152361106025], [28.711234254700475, 47.12215202672364]]], [[[28.710291502140663, 47.12288747454288], [28.71029260877683, 47.12288703198616], [28.710293647156547, 47.12288651811271], [28.710294607447906, 47.122885937788126], [28.71029548055836, 47.12288529650724], [28.71038768055382, 47.12281059649924], [28.710388462697882, 47.12280989588342], [28.710389140716824, 47.12280914642069], [28.710389708111457, 47.122808355295064], [28.710390159442984, 47.12280753008994], [28.71039049038515, 47.122806678715364], [28.71039069776569, 47.122805809332235], [28.710390779596743, 47.122804930274114], [28.710390735093924, 47.12280404996724], [28.710390564683824, 47.122803176849864], [28.71039026999993, 47.12280231929129], [28.71038985386695, 47.12280148551173], [28.710389320273773, 47.122800683503414], [28.710388674335174, 47.12279992095403], [28.71038792224286, 47.12279920517307], [28.710387071206046, 47.122798543021666], [28.710386129382414, 47.12279794084694], [28.710217829389162, 47.12270044085929], [28.710216791809135, 47.12269989782096], [28.710215680510988, 47.12269942761882], [28.710214506429704, 47.12269903487958], [28.710213281118044, 47.12269872346775], [28.71021201663286, 47.12269849644757], [28.71021072541647, 47.12269835605285], [28.71020942017423, 47.12269830366507], [28.710208113749495, 47.12269833979971], [28.71020681899726, 47.12269846410121], [28.710205548657665, 47.122698675346484], [28.71020431523064, 47.12269897145689], [28.71020313085289, 47.12269934951877], [28.71020200717849, 47.12269980581204], [28.710200955264213, 47.12270033584688], [28.710199985460722, 47.1227009344078], [28.7101991073107, 47.1227015956051], [28.71010600730539, 47.12277909559695], [28.710105237227584, 47.12277980495964], [28.7101045727227, 47.12278056242523], [28.710104020190027, 47.12278136069923], [28.71010358495052, 47.12278219209419], [28.710103271195614, 47.1227830486036], [28.7101030819468, 47.12278392197922], [28.71010301902659, 47.1227848038103], [28.710103083040906, 47.12278568560469], [28.710103273373303, 47.1227865588706], [28.71010358819085, 47.122787415198346], [28.710104024461817, 47.12278824634139], [28.71010457798487, 47.12278904429572], [28.7101052434295, 47.12278980137691], [28.7101060143874, 47.12279051029417], [28.71010688343414, 47.122791164220544], [28.71010784220069, 47.122791756858625], [28.710277042208595, 47.12288645687079], [28.71027807239162, 47.12288697837346], [28.710279171956255, 47.122887429067035], [28.71028033049124, 47.1228878046841], [28.71028153702697, 47.12288810166814], [28.710282780139345, 47.12288831720711], [28.71028404805791, 47.12288844926021], [28.71028532877738, 47.1228884965771], [28.710286610171217, 47.12288845870973], [28.710287880106524, 47.12288833601667], [28.710289126558887, 47.12288812965963], [28.710290337726253, 47.122887841592515], [28.710291502140663, 47.12288747454288]]], [[[28.71247987279852, 47.12089506284468], [28.712481093877543, 47.12089471392433], [28.71248225752337, 47.120894283160226], [28.712483351998518, 47.12089377489742], [28.7124843662632, 47.12089319426265], [28.712485290086708, 47.12089254711268], [28.712552790084214, 47.120840247106926], [28.712553598799047, 47.12083955455886], [28.71255430383945, 47.12083881109263], [28.712554898373373, 47.12083802391261], [28.71255537663962, 47.120837200646854], [28.71255573400366, 47.12083634927298], [28.712555967002547, 47.12083547804109], [28.71255607337845, 47.12083459539367], [28.71255605210057, 47.12083370988378], [28.712555903375097, 47.1208328300923], [28.712555628643234, 47.12083196454466], [28.712555230567215, 47.120831121628235], [28.712554713004508, 47.12083030951115], [28.71255408097046, 47.120829536063034], [28.712553340589654, 47.12082880877883], [28.712552499036597, 47.12082813470613], [28.71255156446618, 47.12082752037685], [28.71245936446937, 47.12077262038374], [28.712458333174606, 47.12077206555258], [28.7124572261176, 47.120771583518696], [28.712456054286324, 47.12077117906647], [28.71245482931166, 47.12077085621025], [28.712453563351964, 47.12077061815452], [28.71245226897238, 47.120770467262034], [28.712450959020142, 47.12077040503051], [28.712449646497017, 47.1207704320776], [28.712448344430324, 47.12077054813485], [28.712447065743582, 47.12077075205035], [28.712445823128252, 47.120771041800154], [28.712444628917776, 47.120771414508376], [28.712443494965164, 47.12077186647577], [28.71244243252535, 47.12077239321635], [28.71244145214345, 47.12077298950203], [28.71244056355015, 47.12077364941442], [28.712378463546848, 47.12082464940901], [28.712377670538213, 47.12082537147967], [28.712376987495777, 47.12082614414452], [28.712376421291925, 47.120826959629454], [28.712375977623502, 47.120827809729505], [28.712375660954468, 47.12082868589141], [28.712375474470964, 47.12082957929977], [28.7123754200493, 47.12083048096558], [28.712375498237044, 47.12083138181674], [28.71237570824751, 47.12083227278942], [28.71237604796771, 47.12083314491912], [28.71237651397956, 47.12083398943098], [28.712377101594313, 47.120834797827946], [28.71237780489972, 47.1208355619764], [28.712378616819514, 47.12083627418789], [28.712379529184606, 47.120836927296544], [28.71246632918605, 47.12089312730334], [28.712467334138182, 47.12089371543407], [28.7124684204493, 47.12089423179267], [28.71246957716196, 47.12089467117065], [28.71247079260862, 47.12089502913616], [28.712472054529247, 47.1208953020784], [28.712473350195083, 47.120895487244255], [28.71247466653695, 47.12089558276602], [28.71247599027714, 47.12089558768016], [28.712477308063303, 47.12089550193711], [28.712478606603145, 47.12089532640175], [28.71247987279852, 47.12089506284468]]], [[[28.71159821466559, 47.121648362178384], [28.711598862709526, 47.12164911774349], [28.711599615280562, 47.12164982673581], [28.711600465251582, 47.12165048244095], [28.711601404573052, 47.12165107864912], [28.71160242434927, 47.12165160971404], [28.71174262436001, 47.12171750972298], [28.711743735961097, 47.12171797854352], [28.711744910107658, 47.121718369934115], [28.711746135260242, 47.121718680048225], [28.711747399378105, 47.12171890583804], [28.711748690037556, 47.121719045084504], [28.711749994554058, 47.121719096419106], [28.711751300106872, 47.12171905933735], [28.711752593865086, 47.12171893420366], [28.711753863113714, 47.12171872224786], [28.711755095378635, 47.121718425553055], [28.7117562785492, 47.1217180470351], [28.711757400997268, 47.12171759041407], [28.71175845169148, 47.121717060177644], [28.711759420305654, 47.12171646153692], [28.711760297320307, 47.12171580037535], [28.711761074116186, 47.12171508319076], [28.71179567411193, 47.12167958318753], [28.71179633991127, 47.12167882106801], [28.71179689248302, 47.12167801788795], [28.711797326452018, 47.1216771814603], [28.711797637596835, 47.12167631992141], [28.711797822890794, 47.12167544165194], [28.711797880531456, 47.1216745551953], [28.711797809958128, 47.1216736691745], [28.711797611857317, 47.12167279220834], [28.711797288156056, 47.12167193282752], [28.711796842003174, 47.121671099391705], [28.711796277738635, 47.12167030000818], [28.71179560085133, 47.12166954245293], [28.711794817925732, 47.12166883409511], [28.711793936577745, 47.1216681818253], [28.711792965380724, 47.12166759198844], [28.711791913782, 47.12166707032223], [28.711779458677455, 47.12166151096366], [28.71181915279721, 47.12161849478685], [28.71181977859767, 47.12161773783497], [28.711820294466353, 47.12161694319726], [28.711820695588585, 47.12161611829022], [28.71182097822062, 47.12161527081287], [28.7118211397246, 47.12161440867482], [28.711821178593198, 47.12161353992263], [28.711821094463644, 47.121612672664455], [28.711820888121146, 47.12161181499459], [28.711820561491532, 47.12161097491783], [28.711820117623308, 47.121610160274734], [28.711819560659183, 47.121609378668545], [28.711818895797396, 47.12160863739408], [28.711818129243223, 47.12160794336985], [28.711817268151055, 47.121607303073255], [28.711816320557617, 47.12160672248031], [28.711815295306973, 47.121606207009805], [28.71169889531651, 47.12155340701702], [28.71169778665603, 47.121552955910076], [28.711696618671176, 47.12155258097971], [28.71169540256186, 47.12155228582116], [28.71169414998945, 47.12155207326473], [28.711692872964978, 47.12155194534863], [28.711691583733938, 47.12155190329947], [28.711690294658872, 47.12155194752046], [28.711689018100838, 47.12155207758756], [28.711687766300848, 47.121552292253554], [28.711686551262524, 47.12155258945996], [28.71168538463697, 47.121552966356894], [28.71168427761106, 47.121553419330205], [28.71168324080016, 47.12155394403633], [28.711682284146338, 47.121554535443785], [28.71168141682304, 47.12155518788156], [28.711680647147094, 47.121555895093344], [28.71159894713723, 47.12163919508572], [28.711598286279976, 47.12163994546217], [28.71159773540875, 47.121640736130615], [28.711597299740518, 47.12164155960311], [28.7115969834012, 47.12164240808114], [28.711596789386657, 47.12164327352928], [28.71159671953428, 47.12164414775141], [28.711596774505605, 47.12164502246838], [28.71159695378003, 47.1216458893963], [28.711597255659786, 47.12164674032502], [28.71159767728595, 47.121647567195964], [28.71159821466559, 47.121648362178384]]], [[[28.713966105518562, 47.11945074954987], [28.713966764423013, 47.11945151905198], [28.71396753164021, 47.119452240274235], [28.713968399640034, 47.119452906137944], [28.713969359903167, 47.11945351010775], [28.71411045990932, 47.11953381011797], [28.71411150544021, 47.119534347387386], [28.714112623873575, 47.119534811233564], [28.71411380418285, 47.11953519708342], [28.71411503473145, 47.11953550113291], [28.714116303387474, 47.11953572038444], [28.714117597643327, 47.1195358526764], [28.71411890473903, 47.11953589670454], [28.71412021178801, 47.1195358520348], [28.71412150590416, 47.11953571910755], [28.71412277432887, 47.119535499233365], [28.71412400455683, 47.1195351945799], [28.7141251844593, 47.11953480815078], [28.714126302403702, 47.11953434375574], [28.714127347368304, 47.11953380597323], [28.714128309050867, 47.11953320010521], [28.714129177970232, 47.1195325321249], [28.71421867796458, 47.119456432117026], [28.714219421679566, 47.11945573354835], [28.714220063850885, 47.11945498952651], [28.71422059856215, 47.11945420690622], [28.714221020887035, 47.11945339289782], [28.71422132693463, 47.119452555000855], [28.714221513885292, 47.11945170093493], [28.714221580016645, 47.11945083856862], [28.714221524719413, 47.119449975846955], [28.71422134850307, 47.119449120718315], [28.7142210529911, 47.119448281061025], [28.714220640906095, 47.119447464610936], [28.71422011604464, 47.11944667889009], [28.714219483242314, 47.11944593113734], [28.714218748329195, 47.119445228241844], [28.714217918076095, 47.1194445766794], [28.714217000132194, 47.119443982452935], [28.714188527096926, 47.119427246976436], [28.714203420189847, 47.11941303392845], [28.71420413328434, 47.11941227586281], [28.714204731736967, 47.11941147291758], [28.714205209547043, 47.1194106331439], [28.714205561923546, 47.11940976496222], [28.7142057853332, 47.119408877077845], [28.71420587753587, 47.119407978393575], [28.714205837607054, 47.119407077920556], [28.714205665947116, 47.11940618468785], [28.714205364277312, 47.119405307651924], [28.714204935622487, 47.119404455606855], [28.71420438428079, 47.11940363709609], [28.714203715780535, 47.119402860326886], [28.714202936824794, 47.11940213308791], [28.71420205522418, 47.1194014626712], [28.714201079818537, 47.119400855799036], [28.714184731101007, 47.11939166350374], [28.714193091274762, 47.11938470503345], [28.714193842241517, 47.11938401524715], [28.714194493361987, 47.119383279697495], [28.714195038694804, 47.11938250509626], [28.71419547326389, 47.11938169851158], [28.714195793103872, 47.11938086730339], [28.71419599529626, 47.11938001905637], [28.714196077996096, 47.119379161510615], [28.71419604044876, 47.11937830249111], [28.71419588299686, 47.11937744983627], [28.71419560707714, 47.11937661132644], [28.714195215207326, 47.119375794612885], [28.714194710963174, 47.119375007148015], [28.714194098945836, 47.119374256117275], [28.71419338473988, 47.11937354837375], [28.71419257486232, 47.11937289037546], [28.71419167670317, 47.11937228812656], [28.71410977670561, 47.119322388132765], [28.714108740183104, 47.119321818097966], [28.71410762471653, 47.11932132233311], [28.714106441682823, 47.11932090589466], [28.71410520314803, 47.11932057302995], [28.714103921744286, 47.119320327133956], [28.714102610540944, 47.11932017071465], [28.71410128291129, 47.11932010536737], [28.714099952396154, 47.11932013175862], [28.714098632565793, 47.119320249619214], [28.714097336881483, 47.1193204577471], [28.714096078558228, 47.1193207540195], [28.71409487042998, 47.11932113541466], [28.714093724818753, 47.11932159804263], [28.71409265340891, 47.11932213718497], [28.714091667128038, 47.11932274734283], [28.714090776035466, 47.11932342229303], [28.713988276029383, 47.119409422284015], [28.713987526293213, 47.11941011688149], [28.713986877476703, 47.119410857306214], [28.713986335546686, 47.11941163674885], [28.713985905487032, 47.11941244804128], [28.71398559125279, 47.11941328372245], [28.713985395733815, 47.119414136107025], [28.7139853207282, 47.11941499735605], [28.713985366925748, 47.11941585954906], [28.7139855339016, 47.119416714756866], [28.71398582012018, 47.119417555114566], [28.713986222949273, 47.11941837289381], [28.713986738684277, 47.11941916057391], [28.71398736258223, 47.11941991091094], [28.713988088905467, 47.11942061700443], [28.713988239171396, 47.11942073679698], [28.713967003238402, 47.119441439921566], [28.713966308222982, 47.119442194476484], [28.7139657259978, 47.11944299227103], [28.713965262277323, 47.11944382547495], [28.713964921612913, 47.119444685910494], [28.713964707348143, 47.11944556513255], [28.713964621586005, 47.119446454511724], [28.71396466516825, 47.11944734531885], [28.713964837667135, 47.11944822881077], [28.7139651373896, 47.11944909631613], [28.713965561393923, 47.11944993932048], [28.713966105518562, 47.11945074954987]]], [[[28.713714947830415, 47.11947278330915], [28.7137155079111, 47.11947358133082], [28.71371618013051, 47.11947433793607], [28.713716957985774, 47.1194750458057], [28.713717833952142, 47.11947569809199], [28.71371879955575, 47.11947628848486], [28.713837699561566, 47.11954208849334], [28.71383874077579, 47.11954260916975], [28.713839851607386, 47.11954305783178], [28.713841021403276, 47.11954343017666], [28.713842238944874, 47.11954372263356], [28.71384349255573, 47.119543932397725], [28.71384477021347, 47.119544057457496], [28.713846059665098, 47.11954409661352], [28.71384734854453, 47.1195440494903], [28.71384862449115, 47.11954391653973], [28.713849875268394, 47.11954369903685], [28.713851088881047, 47.119543399067545], [28.713852253690334, 47.119543019508576], [28.71385335852551, 47.119542564000014], [28.71385439279099, 47.119542036910254], [28.713855346567968, 47.11954144329418], [28.71385621070954, 47.119540788844716], [28.71390691070658, 47.11949838884027], [28.71390767977439, 47.119497676904814], [28.713908342702968, 47.11949691685865], [28.713908893083925, 47.119496116048985], [28.713909325596845, 47.119495282217095], [28.713909636060723, 47.119494423423454], [28.71390982147437, 47.11949354796984], [28.713909880045435, 47.119492664319075], [28.713909811207742, 47.119491781013245], [28.713909615626726, 47.119490906591075], [28.713909295193037, 47.11949004950544], [28.71390885300425, 47.11948921804158], [28.71390829333491, 47.11948842023708], [28.713907621595226, 47.11948766380417], [28.71390684427879, 47.119486956055134], [28.713905968899738, 47.119486303831614], [28.713905003920182, 47.11948571343851], [28.713858565912215, 47.11945999645337], [28.713915813603684, 47.119412086402804], [28.713916582084906, 47.11941137451073], [28.713917244469837, 47.11941061456065], [28.71391779435929, 47.11940981389434], [28.713918226440853, 47.119408980246945], [28.713918536540266, 47.119408121672144], [28.71391872166171, 47.119407246464554], [28.713918780016765, 47.11940636307939], [28.71391871104167, 47.11940548005094], [28.713918515402796, 47.119404605909956], [28.713918194990182, 47.11940374910146], [28.713917752899295, 47.11940291790287], [28.71391719340111, 47.119402120344276], [28.71391652190086, 47.119401364130816], [28.713915744885803, 47.11940065656812], [28.713914869862577, 47.11940000449184], [28.71391390528464, 47.119399414201595], [28.713851805287668, 47.11936501420603], [28.71385076426625, 47.11936449311272], [28.71384965355667, 47.11936404403513], [28.713848483814274, 47.119363671281384], [28.713847266260736, 47.11936337842742], [28.713846012576397, 47.119363168282675], [28.713844734788196, 47.119363042863114], [28.713843445154325, 47.11936300337192], [28.71384215604661, 47.11936305018796], [28.71384087983181, 47.119363182862095], [28.713839628753025, 47.11936340012156], [28.71383841481221, 47.11936369988213], [28.71383724965504, 47.11936407926809], [28.7138361444592, 47.11936453463992], [28.713835109827144, 47.11936506162907], [28.713834155684403, 47.11936565518001], [28.71383329118433, 47.119366309598625], [28.713716891177544, 47.11946360958841], [28.71371612161751, 47.11946432166997], [28.713715458259315, 47.11946508191054], [28.71371490752011, 47.119465882955744], [28.71371447472759, 47.119466717056504], [28.713714164068474, 47.11946757614397], [28.71371397854801, 47.11946845190754], [28.713713919960878, 47.11946933587534], [28.713713988873835, 47.11947021949608], [28.713714184620244, 47.1194710942219], [28.713714505306516, 47.1194719515909], [28.713714947830415, 47.11947278330915]]], [[[28.71359275205304, 47.11997103305687], [28.713592455103782, 47.11997018571593], [28.71359203947347, 47.11996936195422], [28.713591509059928, 47.11996856949712], [28.71359086883745, 47.119967815776384], [28.713590124810118, 47.11996710786045], [28.713589283955514, 47.11996645238829], [28.71358835415927, 47.11996585550698], [28.71347415416373, 47.11989935551538], [28.713473139706213, 47.11989882070602], [28.71347205393983, 47.11989835568843], [28.7134709071335, 47.1198979648606], [28.713469710133484, 47.11989765191893], [28.713468474260733, 47.11989741982315], [28.713467211203863, 47.11989727076836], [28.713465932908584, 47.11989720616428], [28.713464651464722, 47.119897226621944], [28.713463378991904, 47.11989733194785], [28.71346212752488, 47.11989752114585], [28.713460908899766, 47.119897792426556], [28.71345973464203, 47.11989814322426], [28.71345861585755, 47.11989857022118], [28.71345756312755, 47.1198990693789], [28.71345658640851, 47.119899635976466], [28.71345569493803, 47.119900264655136], [28.713356794934285, 47.11997716464673], [28.713355985774907, 47.11997786027214], [28.713355281050553, 47.11997860697088], [28.713354687630396, 47.11997939746465], [28.7133542112987, 47.11998022404825], [28.71335385669843, 47.11998107866469], [28.713353627286, 47.119981952983764], [28.71335352529757, 47.11998283848316], [28.713353551727263, 47.11998372653167], [28.713353706317466, 47.119984608473175], [28.71335398756134, 47.11998547571111], [28.71335439271752, 47.119986319792226], [28.713354917836817, 47.11998713248897], [28.71335555780073, 47.119987905879725], [28.713356306371328, 47.11998863242601], [28.713357156252044, 47.119989305045934], [28.71335809915882, 47.11998991718324], [28.71347479916316, 47.12005851719187], [28.713475829611777, 47.12005906465348], [28.71347693436499, 47.12005953982984], [28.71347810257946, 47.120059938057025], [28.713479322788977, 47.120060255426345], [28.713480583016985, 47.12006048882281], [28.71348187089414, 47.120060635955554], [28.71348317377972, 47.120060695380474], [28.713484478885693, 47.120060666514284], [28.713485773402216, 47.12006054964032], [28.713487044623417, 47.12006034590573], [28.713488280072035, 47.120060057310184], [28.713489467621955, 47.120059686686304], [28.713490595617174, 47.12005923767182], [28.713491652986242, 47.12005871467387], [28.71349262935091, 47.120058122825796], [28.713493515128, 47.12005746793666], [28.713576615123703, 47.119989567929444], [28.71357670249297, 47.119989495781404], [28.7135900024922, 47.11997839578023], [28.71359076177963, 47.11997769545436], [28.713591418266148, 47.119976948280524], [28.713591965795157, 47.11997616126581], [28.713592399231864, 47.11997534179092], [28.713592714511442, 47.119974497541016], [28.713592908677175, 47.119973636433556], [28.713592979908167, 47.11997276654414], [28.713592927536403, 47.11997189603065], [28.71359275205304, 47.11997103305687]]], [[[28.714900030306858, 47.11931178130075], [28.714900079245588, 47.119310897498856], [28.714900000818307, 47.11931001468758], [28.714899795782937, 47.119309141398475], [28.714899466120997, 47.119308286071174], [28.71489901501837, 47.11930745697164], [28.714898446834592, 47.119306662112415], [28.71480854681827, 47.119195162121606], [28.714807869599802, 47.11919441172367], [28.714807088065605, 47.11919371015804], [28.714806209716073, 47.119193064157606], [28.714805242980745, 47.1191924799221], [28.714804197137404, 47.1191919630584], [28.714803082223025, 47.11919151852687], [28.71480190893745, 47.11919115059368], [28.71480068854073, 47.11919086278991], [28.714799432745032, 47.11919065787757], [28.71479815360224, 47.11919053782327], [28.714796863388308, 47.11919050377913], [28.714795574485443, 47.11919055607188], [28.714794299263264, 47.11919069419967], [28.714793049960086, 47.1191909168369], [28.714791838565507, 47.119191221846904], [28.714790676705295, 47.11919160630248], [28.714641176720345, 47.119247406294086], [28.714640071813676, 47.119247868240116], [28.714639038694088, 47.11924840200777], [28.714638087345786, 47.11924900243866], [28.714637226962758, 47.11924966373012], [28.714636465859872, 47.11925037949133], [28.714635811392533, 47.11925114280509], [28.714635269885626, 47.11925194629458], [28.71463484657235, 47.11925278219481], [28.714634545543678, 47.11925364242748], [28.7146343697088, 47.11925451867917], [28.714634320767015, 47.1192554024817], [28.714634399191315, 47.11925628529382], [28.7146346042238, 47.11925715858393], [28.714634933883005, 47.11925801391239], [28.714635384983076, 47.119258843013235], [28.7146359531645, 47.119259637873846], [28.714725853148185, 47.11937113788305], [28.714726530368598, 47.11937188827994], [28.714727311904877, 47.11937258984464], [28.714728190256615, 47.11937323584418], [28.714729156994277, 47.11937382007896], [28.714730202840087, 47.11937433694203], [28.71473131775705, 47.11937478147308], [28.714732491045318, 47.11937514940594], [28.714733711444836, 47.11937543720954], [28.714734967243427, 47.119375642121845], [28.714736246389194, 47.11937576217632], [28.71473753660616, 47.11937579622077], [28.714738825512125, 47.1193757439285], [28.714740100737437, 47.11937560580136], [28.714741350043763, 47.11937538316492], [28.71474256144151, 47.11937507815588], [28.714743723304892, 47.11937469370138], [28.71489322331994, 47.119318893693006], [28.714894328225224, 47.119318431745135], [28.714895361343103, 47.119317897975876], [28.714896312689387, 47.119317297543624], [28.714897173070128, 47.11931663625105], [28.714897934170494, 47.119315920489], [28.71489858863511, 47.11931515717466], [28.71489913013914, 47.119314353684835], [28.71489955344943, 47.11931351778455], [28.71489985447505, 47.11931265755204], [28.714900030306858, 47.11931178130075]]], [[[28.7206048, 47.1180345], [28.720833399999997, 47.1181701], [28.720977400000002, 47.11823929999999], [28.7211946, 47.1177849], [28.720874799999997, 47.117745000000006], [28.7206048, 47.1180345]]]]}}]}