{"type": "FeatureCollection", "features": [{"type": "Feature", "geometry": {"type": "Polygon", "coordinates": [[[28.709362483196177, 47.12206074978609], [28.70934748857986, 47.122072132199015], [28.709314840950984, 47.12207261952003], [28.709361545163656, 47.12203147248966], [28.709362483196177, 47.12206074978609]]]}, "properties": {"vineyard_id": "V01", "interrow_cover": "bare_soil", "tile": "siret3_r021_c012.tif"}}, {"type": "Feature", "geometry": {"type": "Polygon", "coordinates": [[[28.70936127067055, 47.122022905170155], [28.70930466121587, 47.12207277146786], [28.70926779673754, 47.122073321718], [28.709360155408508, 47.12198809621836], [28.70936127067055, 47.122022905170155]]]}, "properties": {"vineyard_id": "V01", "interrow_cover": "bare_soil", "tile": "siret3_r021_c012.tif"}}, {"type": "Feature", "geometry": {"type": "Polygon", "coordinates": [[[28.7092224326729, 47.12207399881917], [28.7093588838106, 47.12194840771683], [28.709359872991065, 47.12197928154836], [28.709257814666813, 47.12207347071129], [28.7092224326729, 47.12207399881917]]]}, "properties": {"vineyard_id": "V01", "interrow_cover": "bare_soil", "tile": "siret3_r021_c012.tif"}}, {"type": "Feature", "geometry": {"type": "Polygon", "coordinates": [[[28.709172094042955, 47.12207475014934], [28.70935743786658, 47.12190327750538], [28.709358602114204, 47.121939615533165], [28.709212417657678, 47.12207414830023], [28.709172094042955, 47.12207475014934]]]}, "properties": {"vineyard_id": "V01", "interrow_cover": "bare_soil", "tile": "siret3_r021_c012.tif"}}, {"type": "Feature", "geometry": {"type": "Polygon", "coordinates": [[[28.709126268756993, 47.12207543409626], [28.709356071895776, 47.12186064328433], [28.709357154729968, 47.12189444034884], [28.709162111971462, 47.122074899134304], [28.709126268756993, 47.12207543409626]]]}, "properties": {"vineyard_id": "V01", "interrow_cover": "bare_soil", "tile": "siret3_r021_c012.tif"}}, {"type": "Feature", "geometry": {"type": "Polygon", "coordinates": [[[28.709078269156592, 47.12207615047535], [28.709354737627738, 47.121818998464704], [28.709355787318923, 47.12185176115491], [28.709116319629263, 47.122075582585545], [28.709078269156592, 47.12207615047535]]]}, "properties": {"vineyard_id": "V01", "interrow_cover": "bare_soil", "tile": "siret3_r021_c012.tif"}}, {"type": "Feature", "geometry": {"type": "Polygon", "coordinates": [[[28.70902559148732, 47.122076936650004], [28.70935336085644, 47.12177602694691], [28.70935445377196, 47.121810138821594], [28.709068287084346, 47.12207629945215], [28.70902559148732, 47.122076936650004]]]}, "properties": {"vineyard_id": "V01", "interrow_cover": "bare_soil", "tile": "siret3_r021_c012.tif"}}, {"type": "Feature", "geometry": {"type": "Polygon", "coordinates": [[[28.708979239089807, 47.122077628404675], [28.709352055412186, 47.12173528158276], [28.709353079162657, 47.121767234762956], [28.709015576470517, 47.12207708611386], [28.708979239089807, 47.122077628404675]]]}, "properties": {"vineyard_id": "V01", "interrow_cover": "bare_soil", "tile": "siret3_r021_c012.tif"}}, {"type": "Feature", "geometry": {"type": "Polygon", "coordinates": [[[28.70891829243802, 47.122078537932744], [28.70935025862989, 47.12167920049054], [28.709351773719014, 47.121726489398746], [28.708969224072636, 47.12207777786448], [28.70891829243802, 47.122078537932744]]]}, "properties": {"vineyard_id": "V01", "interrow_cover": "bare_soil", "tile": "siret3_r021_c012.tif"}}, {"type": "Feature", "geometry": {"type": "Polygon", "coordinates": [[[28.708858894157757, 47.12207942432268], [28.709348531735564, 47.12162530057896], [28.709349976217123, 47.121670385820025], [28.708908277420356, 47.12207868738722], [28.708858894157757, 47.12207942432268]]]}, "properties": {"vineyard_id": "V01", "interrow_cover": "bare_soil", "tile": "siret3_r021_c012.tif"}}, {"type": "Feature", "geometry": {"type": "Polygon", "coordinates": [[[28.708817615151563, 47.122080040303764], [28.70932212603701, 47.12161176898892], [28.709348085784107, 47.12161138149448], [28.709348248603177, 47.12161646342195], [28.708848912083763, 47.12207957328036], [28.708817615151563, 47.122080040303764]]]}, "properties": {"vineyard_id": "V01", "interrow_cover": "bare_soil", "tile": "siret3_r021_c012.tif"}}, {"type": "Feature", "geometry": {"type": "Polygon", "coordinates": [[[28.708773733556896, 47.122080695105346], [28.709276762365988, 47.12161244610661], [28.709312144052898, 47.12161191798586], [28.70880763307724, 47.122080189257865], [28.708773733556896, 47.122080695105346]]]}, "properties": {"vineyard_id": "V01", "interrow_cover": "bare_soil", "tile": "siret3_r021_c012.tif"}}, {"type": "Feature", "geometry": {"type": "Polygon", "coordinates": [[[28.70872998373725, 47.12208134792384], [28.7092288620173, 47.12161316106831], [28.70926678038151, 47.1216125950996], [28.708763751482213, 47.122080844055624], [28.70872998373725, 47.12208134792384]]]}, "properties": {"vineyard_id": "V01", "interrow_cover": "bare_soil", "tile": "siret3_r021_c012.tif"}}, {"type": "Feature", "geometry": {"type": "Polygon", "coordinates": [[[28.708688144676362, 47.12208197221504], [28.708688064017096, 47.12207945373705], [28.709185804412066, 47.12161380373], [28.709218912976283, 47.12161330956542], [28.7087200675505, 47.12208149588715], [28.708688144676362, 47.12208197221504]]]}, "properties": {"vineyard_id": "V01", "interrow_cover": "bare_soil", "tile": "siret3_r021_c012.tif"}}, {"type": "Feature", "geometry": {"type": "Polygon", "coordinates": [[[28.708686823162108, 47.12204070965151], [28.709141890265336, 47.121614459159424], [28.709175855370706, 47.12161395222336], [28.70868777954924, 47.12207057160487], [28.708686823162108, 47.12204070965151]]]}, "properties": {"vineyard_id": "V01", "interrow_cover": "bare_soil", "tile": "siret3_r021_c012.tif"}}, {"type": "Feature", "geometry": {"type": "Polygon", "coordinates": [[[28.7086855383794, 47.122000593894604], [28.709096724250838, 47.1216151332557], [28.709131941223628, 47.12161460764898], [28.70868653797468, 47.12203180503286], [28.7086855383794, 47.122000593894604]]]}, "properties": {"vineyard_id": "V01", "interrow_cover": "bare_soil", "tile": "siret3_r021_c012.tif"}}, {"type": "Feature", "geometry": {"type": "Polygon", "coordinates": [[[28.708684072837478, 47.1219548340482], [28.70904661665736, 47.121615881083486], [28.709086775208775, 47.121615281741335], [28.708685253192584, 47.12199168927587], [28.708684072837478, 47.1219548340482]]]}, "properties": {"vineyard_id": "V01", "interrow_cover": "bare_soil", "tile": "siret3_r021_c012.tif"}}, {"type": "Feature", "geometry": {"type": "Polygon", "coordinates": [[[28.708682654109904, 47.121910535818124], [28.708997629152783, 47.12161661217335], [28.70903666761489, 47.121616029564755], [28.70868378837153, 47.121945951915805], [28.708682654109904, 47.121910535818124]]]}, "properties": {"vineyard_id": "V01", "interrow_cover": "bare_soil", "tile": "siret3_r021_c012.tif"}}, {"type": "Feature", "geometry": {"type": "Polygon", "coordinates": [[[28.708681332607817, 47.12186927325323], [28.708949827624938, 47.12161732554347], [28.708987647166072, 47.121616761142015], [28.70868236964463, 47.12190165368566], [28.708681332607817, 47.12186927325323]]]}, "properties": {"vineyard_id": "V01", "interrow_cover": "bare_soil", "tile": "siret3_r021_c012.tif"}}, {"type": "Feature", "geometry": {"type": "Polygon", "coordinates": [[[28.708680038474824, 47.121828865171665], [28.70890469454735, 47.121617999072434], [28.7089398785817, 47.12161747401634], [28.708681047423013, 47.12186036863429], [28.708680038474824, 47.121828865171665]]]}, "properties": {"vineyard_id": "V01", "interrow_cover": "bare_soil", "tile": "siret3_r021_c012.tif"}}, {"type": "Feature", "geometry": {"type": "Polygon", "coordinates": [[[28.708678657205198, 47.12178573623394], [28.708860714503018, 47.12161865537735], [28.708894745503752, 47.12161814754139], [28.708679752570472, 47.12181993806624], [28.708678657205198, 47.12178573623394]]]}, "properties": {"vineyard_id": "V01", "interrow_cover": "bare_soil", "tile": "siret3_r021_c012.tif"}}, {"type": "Feature", "geometry": {"type": "Polygon", "coordinates": [[[28.708850699571364, 47.121618804825694], [28.70867837634263, 47.121776966533304], [28.70867739188437, 47.12174622760819], [28.708811035170186, 47.12161939671121], [28.708850699571364, 47.121618804825694]]]}, "properties": {"vineyard_id": "V01", "interrow_cover": "bare_soil", "tile": "siret3_r021_c012.tif"}}, {"type": "Feature", "geometry": {"type": "Polygon", "coordinates": [[[28.708676153212046, 47.121707550979394], [28.7087677798874, 47.12162004216539], [28.708801119069694, 47.12161954468044], [28.708677104540964, 47.12173725552979], [28.708676153212046, 47.121707550979394]]]}, "properties": {"vineyard_id": "V01", "interrow_cover": "bare_soil", "tile": "siret3_r021_c012.tif"}}, {"type": "Feature", "geometry": {"type": "Polygon", "coordinates": [[[28.708674921023707, 47.12166907672802], [28.708727061280147, 47.12162064975244], [28.70875789673042, 47.12162018963931], [28.70867586442893, 47.1216985339281], [28.708674921023707, 47.12166907672802]]]}, "properties": {"vineyard_id": "V01", "interrow_cover": "bare_soil", "tile": "siret3_r021_c012.tif"}}, {"type": "Feature", "geometry": {"type": "Polygon", "coordinates": [[[28.704129094182623, 47.12906102863729], [28.704182978291453, 47.12896778608081], [28.704184356992144, 47.12901093755162], [28.70415499172713, 47.12906064325422], [28.704129094182623, 47.12906102863729]]]}, "properties": {"vineyard_id": "V02", "interrow_cover": "bare_soil", "tile": "siret3_r006_c004.tif"}}, {"type": "Feature", "geometry": {"type": "Polygon", "coordinates": [[[28.704091961188478, 47.12906158120562], [28.70418113835245, 47.128910198317485], [28.7041825328547, 47.128953844490376], [28.704120494616195, 47.12906115660671], [28.704091961188478, 47.12906158120562]]]}, "properties": {"vineyard_id": "V02", "interrow_cover": "bare_soil", "tile": "siret3_r006_c004.tif"}}, {"type": "Feature", "geometry": {"type": "Polygon", "coordinates": [[[28.704052060516528, 47.12906217494574], [28.704179149701623, 47.12884795586116], [28.704180700101517, 47.128896481591276], [28.704083361621798, 47.129061709172234], [28.704052060516528, 47.12906217494574]]]}, "properties": {"vineyard_id": "V02", "interrow_cover": "bare_soil", "tile": "siret3_r006_c004.tif"}}, {"type": "Feature", "geometry": {"type": "Polygon", "coordinates": [[[28.704018156476355, 47.12906267944232], [28.704177202008502, 47.12878699513098], [28.704178713607476, 47.12883430659407], [28.70404342800104, 47.12906230339966], [28.704018156476355, 47.12906267944232]]]}, "properties": {"vineyard_id": "V02", "interrow_cover": "bare_soil", "tile": "siret3_r006_c004.tif"}}, {"type": "Feature", "geometry": {"type": "Polygon", "coordinates": [[[28.70398214372908, 47.12906321530575], [28.70417528808831, 47.12872709126265], [28.704176755857638, 47.12877303105362], [28.704009556909167, 47.129062807403415], [28.70398214372908, 47.12906321530575]]]}, "properties": {"vineyard_id": "V02", "interrow_cover": "bare_soil", "tile": "siret3_r006_c004.tif"}}, {"type": "Feature", "geometry": {"type": "Polygon", "coordinates": [[[28.7039429679214, 47.1290637982221], [28.704173550909317, 47.12867271905722], [28.704174840502006, 47.12871308221224], [28.703973577110176, 47.12906334277388], [28.7039429679214, 47.1290637982221]]]}, "properties": {"vineyard_id": "V02", "interrow_cover": "bare_soil", "tile": "siret3_r006_c004.tif"}}, {"type": "Feature", "geometry": {"type": "Polygon", "coordinates": [[[28.703906362098316, 47.129064342886245], [28.704171491158995, 47.12860825044071], [28.70417311266397, 47.12865900233037], [28.7039343683537, 47.129063926177544], [28.703906362098316, 47.129064342886245]]]}, "properties": {"vineyard_id": "V02", "interrow_cover": "bare_soil", "tile": "siret3_r006_c004.tif"}}, {"type": "Feature", "geometry": {"type": "Polygon", "coordinates": [[[28.70387146959808, 47.12906486204667], [28.704141760986708, 47.128600098958444], [28.70416795484152, 47.12859970916254], [28.703897762530364, 47.12906447083895], [28.70387146959808, 47.12906486204667]]]}, "properties": {"vineyard_id": "V02", "interrow_cover": "bare_soil", "tile": "siret3_r006_c004.tif"}}, {"type": "Feature", "geometry": {"type": "Polygon", "coordinates": [[[28.703837862089863, 47.12906536207783], [28.704105254330283, 47.128600642211175], [28.704133194442875, 47.12860022643757], [28.703862870029887, 47.129064989996756], [28.703837862089863, 47.12906536207783]]]}, "properties": {"vineyard_id": "V02", "interrow_cover": "bare_soil", "tile": "siret3_r006_c004.tif"}}, {"type": "Feature", "geometry": {"type": "Polygon", "coordinates": [[[28.703797302439032, 47.12906596553369], [28.704066507191968, 47.12860121879162], [28.7040966877862, 47.12860076968758], [28.703829295469976, 47.12906548953517], [28.703797302439032, 47.12906596553369]]]}, "properties": {"vineyard_id": "V02", "interrow_cover": "bare_soil", "tile": "siret3_r006_c004.tif"}}, {"type": "Feature", "geometry": {"type": "Polygon", "coordinates": [[[28.703762508781377, 47.1290664831903], [28.704030297067582, 47.12860175760791], [28.704057940647623, 47.128601346265114], [28.703788702870327, 47.1290660934782], [28.703762508781377, 47.1290664831903]]]}, "properties": {"vineyard_id": "V02", "interrow_cover": "bare_soil", "tile": "siret3_r006_c004.tif"}}, {"type": "Feature", "geometry": {"type": "Polygon", "coordinates": [[[28.703725079239497, 47.129067040051545], [28.70399435052814, 47.128602292490676], [28.704021730522985, 47.12860188507871], [28.703753942160976, 47.12906661064203], [28.703725079239497, 47.129067040051545]]]}, "properties": {"vineyard_id": "V02", "interrow_cover": "bare_soil", "tile": "siret3_r006_c004.tif"}}, {"type": "Feature", "geometry": {"type": "Polygon", "coordinates": [[[28.703688868792543, 47.129067578763944], [28.70395728374716, 47.12860284403075], [28.703985751035052, 47.12860242044904], [28.703716512618836, 47.129067167500466], [28.703688868792543, 47.129067578763944]]]}, "properties": {"vineyard_id": "V02", "interrow_cover": "bare_soil", "tile": "siret3_r006_c004.tif"}}, {"type": "Feature", "geometry": {"type": "Polygon", "coordinates": [[[28.70364969297568, 47.12906816158004], [28.703921370153875, 47.12860337840036], [28.703948717202067, 47.12860297149608], [28.703680269223096, 47.12906770670033], [28.70364969297568, 47.12906816158004]]]}, "properties": {"vineyard_id": "V02", "interrow_cover": "bare_soil", "tile": "siret3_r006_c004.tif"}}, {"type": "Feature", "geometry": {"type": "Polygon", "coordinates": [[[28.70361394380616, 47.12906869340642], [28.703885127077033, 47.128603917661046], [28.70391277066028, 47.12860350635325], [28.70364112635451, 47.129068289023316], [28.70361394380616, 47.12906869340642]]]}, "properties": {"vineyard_id": "V02", "interrow_cover": "mixed", "tile": "siret3_r006_c004.tif"}}, {"type": "Feature", "geometry": {"type": "Polygon", "coordinates": [[[28.703579248989055, 47.129069209536915], [28.703848883999154, 47.12860445691025], [28.70387656053145, 47.12860404512097], [28.7036053442362, 47.12906882133717], [28.703579248989055, 47.129069209536915]]]}, "properties": {"vineyard_id": "V02", "interrow_cover": "mixed", "tile": "siret3_r006_c004.tif"}}, {"type": "Feature", "geometry": {"type": "Polygon", "coordinates": [[[28.703542214824235, 47.129069760456666], [28.703812179644654, 47.128605003010954], [28.703840317453313, 47.12860458436747], [28.70357064941885, 47.12906933746508], [28.703542214824235, 47.129069760456666]]]}, "properties": {"vineyard_id": "V02", "interrow_cover": "mixed", "tile": "siret3_r006_c004.tif"}}, {"type": "Feature", "geometry": {"type": "Polygon", "coordinates": [[[28.70351114434526, 47.12907022265145], [28.703510887241865, 47.12906217250464], [28.70377857242506, 47.12860550302104], [28.703803613098568, 47.128605130465445], [28.703533615253782, 47.12906988838205], [28.70351114434526, 47.12907022265145]]]}, "properties": {"vineyard_id": "V02", "interrow_cover": "mixed", "tile": "siret3_r006_c004.tif"}}, {"type": "Feature", "geometry": {"type": "Polygon", "coordinates": [[[28.70350895250647, 47.1290015940251], [28.703740681931293, 47.128606066746066], [28.703770005878738, 47.12860563047302], [28.703510447006423, 47.129048388314665], [28.70350895250647, 47.1290015940251]]]}, "properties": {"vineyard_id": "V02", "interrow_cover": "bare_soil", "tile": "siret3_r006_c004.tif"}}, {"type": "Feature", "geometry": {"type": "Polygon", "coordinates": [[[28.703507235380226, 47.128947828937456], [28.703707140606284, 47.12860656575483], [28.70373208243646, 47.1286061946854], [28.703508512272464, 47.12898780983499], [28.703507235380226, 47.128947828937456]]]}, "properties": {"vineyard_id": "V02", "interrow_cover": "bare_soil", "tile": "siret3_r006_c004.tif"}}, {"type": "Feature", "geometry": {"type": "Polygon", "coordinates": [[[28.703505573557198, 47.12889579530547], [28.70367010676506, 47.128607116711834], [28.703698541111223, 47.128606693691644], [28.703506795147483, 47.1289340447472], [28.703505573557198, 47.12889579530547]]]}, "properties": {"vineyard_id": "V02", "interrow_cover": "bare_soil", "tile": "siret3_r006_c004.tif"}}, {"type": "Feature", "geometry": {"type": "Polygon", "coordinates": [[[28.703503483717196, 47.12883035975199], [28.703630997182433, 47.12860769853689], [28.703661573166258, 47.12860724366553], [28.703505123271462, 47.12888169630484], [28.703503483717196, 47.12883035975199]]]}, "properties": {"vineyard_id": "V02", "interrow_cover": "bare_soil", "tile": "siret3_r006_c004.tif"}}, {"type": "Feature", "geometry": {"type": "Polygon", "coordinates": [[[28.703501643802284, 47.12877274948048], [28.703596072027576, 47.1286082180998], [28.703622430635104, 47.12860782597783], [28.703503034869353, 47.12881630572406], [28.703501643802284, 47.12877274948048]]]}, "properties": {"vineyard_id": "V02", "interrow_cover": "bare_soil", "tile": "siret3_r006_c004.tif"}}, {"type": "Feature", "geometry": {"type": "Polygon", "coordinates": [[[28.70349984913666, 47.1287165558544], [28.703561706992186, 47.128608729319694], [28.703587505480016, 47.12860834553812], [28.703501195673987, 47.12875871793886], [28.70349984913666, 47.1287165558544]]]}, "properties": {"vineyard_id": "V02", "interrow_cover": "bare_soil", "tile": "siret3_r006_c004.tif"}}, {"type": "Feature", "geometry": {"type": "Polygon", "coordinates": [[[28.703497997024435, 47.12865856331208], [28.703525233267104, 47.128609271897524], [28.70355314044438, 47.128608856755456], [28.70349940100972, 47.12870252431262], [28.703497997024435, 47.12865856331208]]]}, "properties": {"vineyard_id": "V02", "interrow_cover": "bare_soil", "tile": "siret3_r006_c004.tif"}}]}