{"type": "FeatureCollection", "name": "siret3_passages", "crs": {"type": "name", "properties": {"name": "urn:ogc:def:crs:EPSG::32635"}}, "features": [{"type": "Feature", "properties": {"type": "passage", "source": "OpenStreetMap highways, buffered; plus 5 passages digitised from the orthomosaic (work/manual_passages.json)"}, "geometry": {"type": "MultiPolygon", "coordinates": [[[[28.71517052494567, 47.11375629042568], [28.715742918742993, 47.11420204972766], [28.71604604898032, 47.114462576445526], [28.715091459765716, 47.11502811563029], [28.714923183877755, 47.1148261285474], [28.714922185861663, 47.114825052204495], [28.71492104362744, 47.1148240448955], [28.714919767352537, 47.11482311559566], [28.714615610161275, 47.11462161277936], [28.714560094313093, 47.114622444013804], [28.71489020969681, 47.11484114421739], [28.71506100647011, 47.11504615732858], [28.71413967220333, 47.11559199044005], [28.713051509445975, 47.11623152605909], [28.713075702490574, 47.11618066798918], [28.713076195316955, 47.116179436460605], [28.713076515461207, 47.11617817865239], [28.71307666005823, 47.1161769058212], [28.713076627813983, 47.11617562935817], [28.71307641901704, 47.11617436068688], [28.713076035536027, 47.11617311116127], [28.713075480802903, 47.116171891963816], [28.713074759782213, 47.11617071400569], [28.71307387892669, 47.116169587828914], [28.713072846119495, 47.116168523512144], [28.71307167060368, 47.11616753058039], [28.713070362899437, 47.11616661791985], [28.712933784095686, 47.1160799106403], [28.712885106711816, 47.11602973780075], [28.71283836216321, 47.11603043699554], [28.712902118026964, 47.1160961516133], [28.712903522100575, 47.11609742788284], [28.712905137091226, 47.11609858206255], [28.71303420268851, 47.11618051961246], [28.712993806955872, 47.116265438397036], [28.712559582747158, 47.116520644525636], [28.712560704603007, 47.116555600537055], [28.71302379835831, 47.1162834269623], [28.71416549831445, 47.11561242688895], [28.714165557191986, 47.115612392146716], [28.715099157230135, 47.11505929204146], [28.71608625650336, 47.114474492384616], [28.717079055874372, 47.11388639266931], [28.717465508302627, 47.11365742029689], [28.71740362470083, 47.113658348416955], [28.717068704876855, 47.11385678768008], [28.716846607508817, 47.11366670096277], [28.716796905759512, 47.113667446115244], [28.71703881923653, 47.11387449304616], [28.71607593814871, 47.114444870056914], [28.715773579404445, 47.11418500652042], [28.715772965255923, 47.114184504187186], [28.715169175234927, 47.11371429455678], [28.71517052494567, 47.11375629042568]]], [[[28.71020473249572, 47.12268306593463], [28.710206669257737, 47.12268298627111], [28.71020858525375, 47.122682777417936], [28.710210462031633, 47.122682441386466], [28.710212281517002, 47.12268198141289], [28.710214026187195, 47.122681401927], [28.71021567924008, 47.12268070850956], [28.710217224755844, 47.12267990783858], [28.71021864785032, 47.122679007624924], [28.710219934818337, 47.122678016538195], [28.71022107326569, 47.122676944123086], [28.710222052228506, 47.12267580070754], [28.71022286227885, 47.12267459730328], [28.710223495615512, 47.12267334549975], [28.71022394613911, 47.122672057352496], [28.710224209510876, 47.122670745267115], [28.710224283194403, 47.12266942187966], [28.710224166480106, 47.122668099935126], [28.710223860492015, 47.12266679216453], [28.71022336817697, 47.1226655111624], [28.710222694276247, 47.122664269265535], [28.710221845279904, 47.12266307843403], [28.710220829364225, 47.12266195013626], [28.710219656313058, 47.122660895238354], [28.710218337423523, 47.122659923899526], [28.710216885397248, 47.12265904547432], [28.71021531421804, 47.12265826842244], [28.710213639017205, 47.12265760022729], [28.71021187592784, 47.122657047324], [28.710210041929454, 47.12265661503728], [28.710129867862896, 47.12264067617364], [28.71022744167566, 47.12255734174115], [28.710229091283743, 47.122555803462625], [28.710329602662014, 47.12245322065044], [28.710437916946795, 47.12237237877613], [28.710440162153645, 47.122370510718234], [28.710578827240592, 47.12224159390734], [28.71077841100546, 47.12208266052608], [28.710949016611377, 47.12196802863429], [28.710950283325946, 47.12196712894189], [28.711261383303732, 47.12173352887646], [28.711262702260665, 47.12173247499305], [28.711397583228187, 47.12161772178935], [28.71145471010408, 47.12166986907613], [28.711456610309764, 47.12167144858159], [28.711458712729122, 47.1216729038296], [28.7114610000023, 47.12167422280402], [28.7115790000195, 47.121736222824346], [28.711582224843088, 47.12173771853523], [28.711867566993664, 47.121853843858844], [28.712058969818692, 47.12195412546529], [28.712057118950593, 47.12189644808277], [28.711906164160425, 47.12181735836457], [28.711902975075482, 47.121815881421334], [28.711617652488894, 47.12169976409237], [28.711504782498515, 47.12164045953415], [28.71143968898885, 47.121581040077146], [28.711649533457468, 47.121390620315886], [28.711649929720803, 47.12139025303786], [28.71203352962844, 47.12102705295025], [28.71203387240651, 47.12102672215767], [28.71256217226282, 47.12050702203565], [28.71256255462937, 47.12050663746528], [28.712846068377672, 47.1202150488078], [28.713191056775788, 47.11992569714234], [28.713192355815856, 47.11992453209888], [28.71338742683661, 47.11973723194918], [28.71359582181979, 47.11956639182301], [28.7135966411201, 47.11956569229963], [28.71416580715449, 47.11905938121771], [28.714211079308203, 47.11904506119426], [28.714253494183268, 47.11904778009817], [28.714589358437564, 47.119546789869354], [28.714589994287955, 47.119547682147314], [28.71469608752631, 47.11968857226983], [28.714769358335932, 47.11968747511399], [28.714648938046523, 47.11952755919608], [28.714305441330556, 47.119017210214956], [28.7143049489883, 47.11901656429048], [28.71430448854585, 47.119015907495104], [28.714304203147876, 47.11901558579113], [28.714303948841817, 47.11901525215632], [28.7143033661198, 47.119014642283126], [28.71430281358295, 47.11901401945702], [28.71430248336464, 47.11901371839714], [28.714302182375366, 47.11901340338365], [28.714301514885523, 47.11901283543515], [28.714300875575496, 47.11901225257644], [28.71430050371702, 47.11901197506002], [28.71430015894324, 47.1190116817016], [28.714299413113842, 47.11901116114739], [28.714298693187587, 47.11901062386939], [28.71429828327025, 47.11901037256913], [28.714297898032203, 47.11901010369089], [28.714297081045846, 47.119009635544124], [28.714296287436788, 47.11900914902119], [28.714295843408262, 47.11900892635718], [28.714295421416086, 47.11900868454863], [28.714294541141044, 47.11900827331796], [28.714293681491814, 47.119007842235405], [28.71429320762823, 47.119007650351996], [28.71429275294602, 47.11900743794193], [28.714291817859756, 47.119007087587676], [28.714290900449317, 47.11900671609709], [28.714290401314393, 47.11900655684229], [28.714289918320837, 47.11900637587625], [28.714288937428563, 47.11900608977246], [28.714287971092237, 47.119005781451584], [28.714287451492833, 47.11900565635906], [28.714286944839493, 47.11900550857989], [28.71428592758788, 47.11900528948196], [28.71428492163185, 47.11900504729999], [28.714284386572032, 47.11900495757447], [28.714283861138217, 47.11900484440534], [28.714283685755042, 47.119004819205124], [28.714231166109016, 47.1189182373149], [28.71423098943932, 47.11891797524758], [28.714230884928607, 47.118917796184874], [28.714230737969935, 47.11891760222432], [28.714230526412045, 47.118917288404745], [28.71405602635605, 47.11868278843211], [28.714055946866768, 47.118682682765105], [28.713970246840425, 47.118569982778475], [28.713969128215695, 47.11856869250268], [28.713967806817408, 47.11856749489199], [28.713520006791224, 47.118205394950934], [28.713519178421915, 47.11820476618211], [28.713414073770164, 47.118129847324624], [28.71347353945704, 47.1180629701895], [28.713777354365984, 47.11782312674341], [28.713777368070748, 47.11782311591267], [28.713840568066697, 47.11777311590451], [28.713840958955718, 47.117772796844804], [28.713928383200695, 47.11769916063411], [28.714012104535385, 47.11763037174489], [28.714100745289326, 47.117564238193346], [28.71432199235763, 47.117419595780355], [28.71492997091978, 47.11706261579154], [28.715063936360576, 47.11716375102947], [28.71506482810963, 47.1171643817915], [28.71550253171702, 47.11745450269729], [28.715539746358925, 47.11762498889201], [28.715540204862872, 47.11762649470393], [28.7155409113848, 47.11762795512473], [28.715541856748054, 47.11762935118574], [28.715575456738286, 47.11767235119094], [28.71570456177161, 47.11783735769607], [28.715704827096626, 47.11783768575744], [28.715889350488798, 47.11805853509524], [28.716090240576552, 47.118348709805566], [28.716275431129745, 47.11869463200102], [28.716275720034545, 47.118695139635236], [28.716466219946415, 47.11901083966656], [28.716467271722117, 47.119012319495305], [28.716621201062623, 47.119198987981186], [28.716666020797398, 47.11919831610201], [28.716502320341966, 47.11899979849967], [28.716312431918674, 47.11868511218892], [28.716127068764145, 47.11833886802717], [28.716126374337744, 47.118337733965625], [28.715924774263726, 47.1180465339978], [28.715924072945537, 47.11804561421192], [28.715739308898286, 47.11782447701327], [28.715610340722996, 47.117659645562874], [28.71557835036515, 47.1176187055403], [28.715540653577175, 47.117446011111966], [28.715540297696595, 47.11744477791797], [28.715539775284263, 47.117443572674155], [28.715539090871882, 47.11744240583552], [28.71553825039646, 47.11744128752385], [28.715537261148754, 47.117440227440056], [28.71553613171008, 47.117439234779866], [28.71553487187782, 47.11743831815421], [28.715092832773177, 47.11714532369733], [28.714959956885508, 47.11704501104198], [28.715452390110325, 47.11675593186278], [28.715452667268217, 47.11675576606538], [28.716336299044, 47.11621714196722], [28.716499393892594, 47.116673597847246], [28.716499955389647, 47.11667488663111], [28.71650070197266, 47.11667613087598], [28.716501626230272, 47.11667731823022], [28.716502718987343, 47.11667843690684], [28.716533018983842, 47.11670633691106], [28.71653302734375, 47.11670634386747], [28.71653303463145, 47.11670635129928], [28.716596634624175, 47.1167647513081], [28.716677454170014, 47.116838916286895], [28.716727735789704, 47.117075338881016], [28.716728312787904, 47.11707715826339], [28.71685780669037, 47.11738200874735], [28.71704601466784, 47.117898656641955], [28.717046058343623, 47.11789877427371], [28.71712315827609, 47.11810257428738], [28.71712352407578, 47.1181034247858], [28.717365798732033, 47.11860513108019], [28.71716561961943, 47.11902584281372], [28.717046922425595, 47.11919260541163], [28.717091356697885, 47.11919193914557], [28.717201782324747, 47.11903679742516], [28.71720280313343, 47.119035068706616], [28.71740540299734, 47.11860926867538], [28.71752958348584, 47.1183482094993], [28.717844802611395, 47.11769994131646], [28.718016114061864, 47.11770637467445], [28.718017961879152, 47.117706385024064], [28.71801980304001, 47.11770627755723], [28.71843910703291, 47.117668258799405], [28.718564203831008, 47.117664783887435], [28.718802366252337, 47.117658132416445], [28.719049738783657, 47.11768107221892], [28.719051565673446, 47.11768118302259], [28.719053399744215, 47.11768117777909], [28.719221199786414, 47.117675377777104], [28.719223421363065, 47.11767521468393], [28.719225601790235, 47.11767488150989], [28.719227713215265, 47.117674382510934], [28.719668691931865, 47.11755070184041], [28.719795192464726, 47.117544386381894], [28.72013794510169, 47.117587973418715], [28.72109932343035, 47.11776234252212], [28.72109942749866, 47.11776236119008], [28.721269963720257, 47.11779261371461], [28.720885503733626, 47.11864390938858], [28.720838238811044, 47.118732679944515], [28.72037454879686, 47.11960340402156], [28.72045937116134, 47.11960212967969], [28.720906198507528, 47.118763068237286], [28.722769789762594, 47.119183834320154], [28.7227688651427, 47.11915519748251], [28.720919711337913, 47.11873769100767], [28.72096016149276, 47.1186617193785], [28.720960450673008, 47.1186610801506], [28.72096078501436, 47.118660451269335], [28.721345709613168, 47.11780812413756], [28.721442914069065, 47.11783077160565], [28.721554115889056, 47.1178566720299], [28.721978719765456, 47.117955549646894], [28.722609580275854, 47.1181074678965], [28.723146539933182, 47.11824760517308], [28.72314710701411, 47.11824774643451], [28.72341660265292, 47.11831171280716], [28.723415672576262, 47.11828291690059], [28.72316037810314, 47.1182223212405], [28.722623460173768, 47.11808219485791], [28.72262297695666, 47.1180820736436], [28.721991777090516, 47.117930073677826], [28.721991583022362, 47.11793002771587], [28.7215668836476, 47.11783112786252], [28.721473672507464, 47.1178094177232], [28.721845789867633, 47.116956563243484], [28.72202448275835, 47.117004789385014], [28.72202353792178, 47.11697551149299], [28.72185673129951, 47.11693049323469], [28.721902491429045, 47.11681598543233], [28.72186126051377, 47.11681660540378], [28.72181398793226, 47.11693489763293], [28.721436223324236, 47.117800693849915], [28.72135658889318, 47.117782139977294], [28.721721336622636, 47.11681870926805], [28.72163919426261, 47.11681994426249], [28.721280778675318, 47.11776664566067], [28.721109424569747, 47.11773624804691], [28.720147376788212, 47.1175617575171], [28.720145920588482, 47.117561533202135], [28.719821972990292, 47.11752033758648], [28.719997925874228, 47.11714561915844], [28.71999794077994, 47.117145587278294], [28.720137140683747, 47.11684658725684], [28.720137783298842, 47.11684478684035], [28.720254557864997, 47.1163811811653], [28.720492459052842, 47.115864546831304], [28.720492968032467, 47.11586320369474], [28.72049327231649, 47.115861831983544], [28.72054165247294, 47.11552885596194], [28.720566390011886, 47.11545384103304], [28.72052566138512, 47.115454452978625], [28.720502813920362, 47.11552373622233], [28.72050242780673, 47.115525368019725], [28.72045412907793, 47.11585778193868], [28.720216440782917, 47.11637395312876], [28.720215816868446, 47.11637571317389], [28.720099047254898, 47.116839297853474], [28.71996026664684, 47.117137396772016], [28.719781547658936, 47.11751800542061], [28.719662658001806, 47.117523940902934], [28.719660587548173, 47.117524119661695], [28.719658556236602, 47.11752444641396], [28.719656586703618, 47.11752491751849], [28.719215818645434, 47.11764853910908], [28.71905323793221, 47.117654158703], [28.7188059612767, 47.117631227785935], [28.71880423013753, 47.11763111989807], [28.718802491806787, 47.11763111623479], [28.71858317845768, 47.11763724130363], [28.718583368585453, 47.117338187740565], [28.718657307313975, 47.11707552602538], [28.718925068625595, 47.11635090063577], [28.718925157513915, 47.11635065000634], [28.71908786822859, 47.115871912198855], [28.719326632904952, 47.11527804824789], [28.719439370033125, 47.11501002664979], [28.719397973875918, 47.11501064821795], [28.71928859917087, 47.115270675498245], [28.71928853633962, 47.11527082825189], [28.719049636141094, 47.11586502821502], [28.719049442653297, 47.115865550015386], [28.71888668517847, 47.116344424385716], [28.718618831130293, 47.117069299319695], [28.718618585875273, 47.117070053416434], [28.71854418578195, 47.11733435340514], [28.71854392000152, 47.11733561802659], [28.718543830599376, 47.1173368941375], [28.718543638725535, 47.11763834271701], [28.71843659620124, 47.11764131611122], [28.71843479685842, 47.11764142245349], [28.718016434778473, 47.117679355809244], [28.717852886549974, 47.11767321398984], [28.717865634226783, 47.11759907600784], [28.71791312853045, 47.11732386734291], [28.71827341998236, 47.11651201259757], [28.71827396064471, 47.116510474595145], [28.71827423398317, 47.116508903973774], [28.718287926681853, 47.11635228682277], [28.718362316680146, 47.11564732679314], [28.718505344888193, 47.11519783749423], [28.71877058741661, 47.1147589760182], [28.719037229894866, 47.1145553217178], [28.718983139358237, 47.11455613370149], [28.718739779389786, 47.11474200527588], [28.718566131625963, 47.114842297528384], [28.71856472310355, 47.114843194994194], [28.718563449252866, 47.114844181801764], [28.718281214390586, 47.115085583899884], [28.71758528469816, 47.115596557409354], [28.71731195223835, 47.115738248478046], [28.717270612079673, 47.11575963460908], [28.717036466205137, 47.11582758048648], [28.717034470370926, 47.11582825256261], [28.717032597838568, 47.115829073511975], [28.716762964112995, 47.115962492259634], [28.716505242151776, 47.11607812263535], [28.716504052861893, 47.116078700238035], [28.716502929242075, 47.116079336166116], [28.71633453098143, 47.11618203508934], [28.7154264701837, 47.11673555015264], [28.714918809916814, 47.11703356807869], [28.71429580831712, 47.11739936896394], [28.714295025962944, 47.11739985374887], [28.714072925964828, 47.11754505372254], [28.71407201425229, 47.117545690428486], [28.713982614248685, 47.11761239041723], [28.713981993689973, 47.11761287620791], [28.71389789368325, 47.11768197619692], [28.71389774105709, 47.117682103164576], [28.713810432891936, 47.11775564156694], [28.713747438778874, 47.11780547867021], [28.71344254561972, 47.118046173215326], [28.713441516721737, 47.1180470577217], [28.713440599778256, 47.118047997859605], [28.71338358613541, 47.11811211730288], [28.71300770863469, 47.11792422627291], [28.712613104307522, 47.117714866781775], [28.712547827270296, 47.11766800122428], [28.712546433051934, 47.11766709327634], [28.712544915967552, 47.1176662822939], [28.712543290429686, 47.11766557598145], [28.712541571881204, 47.11766498104906], [28.712461995786356, 47.11764068472067], [28.712814903629372, 47.117420669346686], [28.713626762151968, 47.11695846368792], [28.71362692632668, 47.11695836918209], [28.714319729515264, 47.11655514187656], [28.714827422953707, 47.11628250646586], [28.71482940970087, 47.11628128219078], [28.715359843162954, 47.115906917170115], [28.715879189777397, 47.1156698176193], [28.71588090458224, 47.11566893927924], [28.715882469974233, 47.115667939343645], [28.716325298682836, 47.115352630878895], [28.716873576780763, 47.11505930802864], [28.71709436242225, 47.11499882422086], [28.717096249047646, 47.11499822691749], [28.717098033313704, 47.11499749761882], [28.717099695473934, 47.114996644396044], [28.717101217133198, 47.11499567669174], [28.71767370899111, 47.11459115962421], [28.718057531350095, 47.114395411189975], [28.718059251987178, 47.11439442486137], [28.718513474956854, 47.114102440521414], [28.718454424901438, 47.11410332668482], [28.718032967216224, 47.11437424854314], [28.717648768686992, 47.11457018876883], [28.71764753346818, 47.11457087327682], [28.717646382882947, 47.114571623376904], [28.717075717658457, 47.11497484963878], [28.71685623762447, 47.11503497576378], [28.716854541671474, 47.11503550506049], [28.716852926322375, 47.11503614109204], [28.71685140595107, 47.11503687819885], [28.71629980599016, 47.11533197814007], [28.716297730040665, 47.11533326070921], [28.71585542027448, 47.11564819956184], [28.715336110285033, 47.115885282329195], [28.715334428773875, 47.115886141630625], [28.71533289031424, 47.1158871178727], [28.714801922835075, 47.116261859660185], [28.71429497708665, 47.11653409347851], [28.714294373646165, 47.116534430893815], [28.713601355389294, 47.11693778325933], [28.71278923789601, 47.11740013622095], [28.712788568008563, 47.117400535368766], [28.712415514095706, 47.11763311036445], [28.71227725481955, 47.11767391299117], [28.71227532883717, 47.11767456849255], [28.71227351864639, 47.11767536301638], [28.712271845698606, 47.117676287147255], [28.711997045706305, 47.117845787115584], [28.71199563659025, 47.11784674863964], [28.711994376409688, 47.11784780209795], [28.711874550076832, 47.1179589674164], [28.711780201488125, 47.11795767614674], [28.711569367597598, 47.11787602260419], [28.711435436927335, 47.117756205295095], [28.71124045080458, 47.11747996748886], [28.711242539768392, 47.11754510566574], [28.711400690037568, 47.11776915788201], [28.711401650040635, 47.11777035827058], [28.711402783095576, 47.11777148616958], [28.711540383081466, 47.1178945861885], [28.711541668758294, 47.11789562360185], [28.711543100750834, 47.11789656749882], [28.71154466454038, 47.11789740830941], [28.71154634427198, 47.11789813750883], [28.711765044305636, 47.11798283752687], [28.71176679529932, 47.1179834393763], [28.711768625007647, 47.11798391988591], [28.71177051543808, 47.117984274330546], [28.71177244800098, 47.117984499224775], [28.71177440369238, 47.1179845923571], [28.711845066524692, 47.11798555946971], [28.711286540684586, 47.11848564341236], [28.711073710606048, 47.118349647948186], [28.711072268186214, 47.11834881100829], [28.711070715106928, 47.118348072081346], [28.710816015141262, 47.1182388721041], [28.710814641776153, 47.11823833438812], [28.710587206377657, 47.118157368423674], [28.710588193498694, 47.11818815994007], [28.710795655753103, 47.11826201553729], [28.711048076224365, 47.118370238222674], [28.711262445403502, 47.118507217181445], [28.710412636959784, 47.119268080608784], [28.71023253201669, 47.11920911385375], [28.710018880263522, 47.119091233615954], [28.709744032365013, 47.11893746278414], [28.709742221769904, 47.11893656185315], [28.70974027346122, 47.11893580655272], [28.70973821246362, 47.11893520658416], [28.70955411380152, 47.11888984467797], [28.709477594041715, 47.11884510928785], [28.7094183229657, 47.11884599407697], [28.70953113971494, 47.118911949662035], [28.709532548664818, 47.1189127007288], [28.709534051245967, 47.1189133618487], [28.70953563517261, 47.118913927616106], [28.709537287493852, 47.11891439340505], [28.709721593739992, 47.118959806468034], [28.709993867649427, 47.1191121372441], [28.709993972104133, 47.11911219527886], [28.710209472120127, 47.119231095301856], [28.710211339767305, 47.11923200858965], [28.71021335002216, 47.11923276781343], [28.71038815414075, 47.119289999081985], [28.709697678549883, 47.11990811732661], [28.70969745591267, 47.119908320565145], [28.709628495462997, 47.11997252224386], [28.70956699222729, 47.11993046604051], [28.709565460759404, 47.1199295227855], [28.70956379364443, 47.119928693584875], [28.709562009030478, 47.119927987465275], [28.70956012634476, 47.11992741211347], [28.709340355477263, 47.11986944184267], [28.709105240384343, 47.119772151158855], [28.70903162152796, 47.11977324988246], [28.70932135102415, 47.11989314015087], [28.709322878482972, 47.119893710992834], [28.709324473606742, 47.11989418787301], [28.709541966790866, 47.119951557354845], [28.70960483774944, 47.11999454882216], [28.708726900869813, 47.12081201213165], [28.708206206878277, 47.12052990083361], [28.70795860935143, 47.120384152690995], [28.707959772164052, 47.12042047761017], [28.708180688266854, 47.120550519716076], [28.708181308415483, 47.120550869995114], [28.70870350470534, 47.12083379529707], [28.707930755333557, 47.12155322063906], [28.707929768508333, 47.12155423185763], [28.70792891893223, 47.12155529956099], [28.707928213492043, 47.1215564150942], [28.707827333393645, 47.121737999161255], [28.707644085159444, 47.12194719923041], [28.70741669525458, 47.12212889911352], [28.70736608606916, 47.12186709080661], [28.70737134832038, 47.12155462535208], [28.707437379951244, 47.121331370536744], [28.707437683421922, 47.12132996833146], [28.707437769748168, 47.12132855213415], [28.70743199924145, 47.12096909768189], [28.70747800175041, 47.12085148087664], [28.707478474275888, 47.12084989783066], [28.70747866626696, 47.120848287585424], [28.707482739831445, 47.12071783891445], [28.707443171008627, 47.12071842890221], [28.707439184445846, 47.1208460884681], [28.707393098211863, 47.12096391911292], [28.707392715111563, 47.120965113248936], [28.70739249189222, 47.12096632614863], [28.707392430385454, 47.120967547859706], [28.70739820740453, 47.1213274246303], [28.70733221997176, 47.12155052944982], [28.70733193859639, 47.12155178091774], [28.707331830287586, 47.121553044876954], [28.707326530170935, 47.12186774487756], [28.707326698746606, 47.12186966527979], [28.707383048474632, 47.122161171146914], [28.707334666145158, 47.122695968262605], [28.70733463386967, 47.12269711280938], [28.70734368667552, 47.12296361337631], [28.707259598672866, 47.122885977626986], [28.707181304533943, 47.122813743131175], [28.70714032959757, 47.12258148662654], [28.707139991515028, 47.12258014478492], [28.707139457062063, 47.12257883302477], [28.707138731678942, 47.122577564698645], [28.70713782274943, 47.12257635271696], [28.70713673952563, 47.122575209416624], [28.707135493033807, 47.122574146435404], [28.706906755982224, 47.1223980804477], [28.706661770628244, 47.122045899891404], [28.706663880632973, 47.12211186020795], [28.706872239658587, 47.122411388232635], [28.706873114986426, 47.122412507506134], [28.70687414044493, 47.12241356572414], [28.706875306970083, 47.12241455353308], [28.7071018088515, 47.12258889913406], [28.70714267031603, 47.12282051337828], [28.707143019227708, 47.12282188795786], [28.707143574182474, 47.122823230606784], [28.70714432924985, 47.1228245269769], [28.707145276360855, 47.12282576321461], [28.70714640539425, 47.122826926108885], [28.70721626976742, 47.122891383322504], [28.706477860529688, 47.1232794172778], [28.706086194379576, 47.12343004275332], [28.70608380438731, 47.123431124843165], [28.705425416024067, 47.123778654735496], [28.70477465244369, 47.12407790802982], [28.704774027435764, 47.12407820757447], [28.704180785097204, 47.124374363289014], [28.704302705921876, 47.12403410593561], [28.70430317215372, 47.12403225418509], [28.704309371043596, 47.12399030336325], [28.704269538965455, 47.123990896166504], [28.704263966301195, 47.124028608833065], [28.704129496332886, 47.12440388739515], [28.70411549870962, 47.124442780752155], [28.70411524674754, 47.12444358619922], [28.70401185561566, 47.124831750648816], [28.703939067298766, 47.124946019352905], [28.703938311741826, 47.12494740986823], [28.70393778430211, 47.12494884857317], [28.703937491349627, 47.12495031809224], [28.703905476307106, 47.125221996294805], [28.70376323235821, 47.125733774372364], [28.70345380028436, 47.12668166523379], [28.70345353982221, 47.126682625626295], [28.70335710164657, 47.12712766337993], [28.703319041403873, 47.12714782659534], [28.703265507973004, 47.12713155390755], [28.70326249267072, 47.12713075589835], [28.703259377281448, 47.12713016344444], [28.70325619180806, 47.12712978225148], [28.70325296692837, 47.12712961599053], [28.703249733699696, 47.12712966626281], [28.703246523259754, 47.12712993258413], [28.7032433665268, 47.12713041238971], [28.70324029390186, 47.12713110105876], [28.70323733497596, 47.12713199195901], [28.703235246493346, 47.12713279610657], [28.703087467766448, 47.127091428300034], [28.70302030694398, 47.12706798630533], [28.70263261404252, 47.126932523732876], [28.702235316805158, 47.12678966069186], [28.70223374711154, 47.12678915501901], [28.70223211848802, 47.12678874524928], [28.701942088902015, 47.12672549306809], [28.701726822996495, 47.12662013336011], [28.701726110980182, 47.12661980068233], [28.701402902013314, 47.12647575242417], [28.701403944990304, 47.12650845243827], [28.701704127687893, 47.12664223828067], [28.701921577021768, 47.1267486666602], [28.701923312161554, 47.126749425695984], [28.701925153637966, 47.126750057342], [28.70192708144491, 47.12675055473597], [28.70221842330603, 47.12681409311756], [28.702614283256796, 47.12695643933831], [28.702614489278698, 47.126956512369276], [28.702985702216008, 47.12708621678235], [28.702804296383487, 47.12736807263749], [28.702803688630507, 47.12736913716557], [28.70258628849396, 47.12780343713211], [28.70258617034307, 47.12780368070431], [28.702433125287822, 47.128129536662236], [28.70219033916576, 47.12797386464326], [28.70218908584142, 47.12797312595599], [28.70218774634712, 47.12797246143259], [28.70218633007775, 47.12797187573386], [28.701856234228185, 47.12784795271645], [28.701177167869172, 47.127518006381656], [28.701176032149366, 47.127517493822616], [28.700755433273585, 47.12734156964706], [28.70075645622944, 47.12737365318892], [28.701154787049877, 47.12754026324827], [28.701834232199005, 47.12787039368383], [28.701836169865356, 47.127871224238724], [28.702165081304862, 47.12799470263159], [28.70241894142191, 47.12815747518917], [28.702278711314484, 47.1283909027272], [28.702123120997122, 47.1286302331886], [28.702146713778525, 47.1286298825162], [28.702147644913005, 47.12865906101027], [28.702314974434387, 47.128401673018466], [28.702315195560974, 47.12840131937111], [28.702451680571897, 47.128174125702465], [28.70258239795496, 47.12823154765501], [28.70258387453553, 47.12823213627737], [28.70258542011151, 47.128232635630724], [28.70258702312385, 47.1282330419805], [28.70293002319883, 47.12830864199761], [28.702930407733884, 47.128308723809404], [28.703272745254758, 47.1283789545163], [28.703574199019094, 47.12852997869765], [28.70357571239745, 47.128530666125314], [28.703577311885923, 47.12853125579101], [28.703578983964928, 47.12853174271063], [28.70358071450132, 47.128532122768526], [28.70358248886785, 47.12853239275226], [28.703949887848232, 47.128576305775766], [28.704172465431892, 47.128643903198885], [28.704171512332096, 47.12861407187963], [28.70396373924246, 47.12855097060143], [28.703961468481225, 47.12855039193889], [28.70395911104059, 47.12855000723785], [28.703593870015375, 47.128506352151824], [28.70329340100649, 47.12835582133162], [28.703291516260492, 47.12835498526861], [28.703289504654826, 47.128354300600066], [28.703287392186315, 47.12835377617428], [28.702941985141155, 47.128282915759634], [28.702601632317712, 47.12820789922359], [28.70246698703468, 47.12814875181068], [28.702467768687594, 47.12814746373376], [28.702468422325556, 47.12814621678369], [28.70246889373114, 47.12814493211287], [28.702469178364463, 47.12814362209338], [28.702469273484372, 47.12814229934143], [28.702469191884685, 47.1281411668671], [28.702623772280766, 47.127812041462], [28.70284084053806, 47.12737840388219], [28.703020969011533, 47.127098532407004], [28.703070196738043, 47.12711571498166], [28.70307169653352, 47.12711618565215], [28.703220226230215, 47.12715776368096], [28.70322032310416, 47.12715806056087], [28.703221332147923, 47.127160157616906], [28.703222637503067, 47.12716217707373], [28.703224226598316, 47.12716409948282], [28.70322608412985, 47.12716590633034], [28.703228192208623, 47.127167580215335], [28.703230530532696, 47.12716910501737], [28.703233076582737, 47.127170466051766], [28.703235805838865, 47.12717165021099], [28.703238692016843, 47.12717264609095], [28.703296583600878, 47.12719024353367], [28.703402169585196, 47.127222387054026], [28.70367217191047, 47.127312121658335], [28.70415773406928, 47.12747337774555], [28.704365186563255, 47.12756290988314], [28.704365891223027, 47.127563205614656], [28.704517818482117, 47.1276251863912], [28.704802540222207, 47.127766479663], [28.704743599454996, 47.12780028009703], [28.70474125127113, 47.127801765321074], [28.704739125327944, 47.12780339904097], [28.704737241689, 47.12780516583849], [28.70473561813115, 47.12780704903955], [28.7047342699767, 47.12780903087147], [28.70469406994385, 47.127876530861265], [28.704692873741543, 47.127878914070074], [28.704692075539526, 47.12788137362587], [28.704632040692026, 47.1281321732741], [28.70469906486085, 47.1281311755739], [28.704702922828698, 47.12811505863233], [28.704702735695072, 47.12811464761955], [28.704702475632175, 47.12811378849858], [28.704702339405884, 47.12811291617569], [28.704702328311427, 47.12811203894496], [28.70470244245429, 47.128111165147175], [28.704702680749193, 47.12811030309047], [28.704703040930404, 47.12810946097134], [28.704705357865404, 47.128104886084394], [28.704705357865404, 47.128104886084394], [28.704756526521837, 47.12789112433537], [28.704792254305474, 47.127831133599166], [28.7048210614481, 47.127814613724716], [28.704817990500004, 47.12771852893884], [28.70457908760709, 47.12759997332444], [28.70486073654597, 47.127444512371405], [28.705128122890876, 47.1273119174837], [28.70512964944506, 47.1273110785252], [28.705317840608963, 47.12719670928912], [28.70547390484794, 47.1271187895524], [28.705472852451635, 47.12708587371083], [28.705293725435915, 47.127175308242215], [28.70529225055373, 47.12717612149478], [28.705104083337893, 47.12729047614443], [28.704837077138286, 47.12742288248778], [28.704836265867957, 47.12742330708544], [28.704545216995903, 47.12758395642427], [28.704400063813985, 47.12752473923041], [28.70419141347078, 47.12743469014555], [28.70418821948332, 47.12743347547327], [28.703701023871066, 47.1272716769415], [28.70343052815887, 47.127181778372666], [28.703429524788653, 47.1271814590202], [28.70342403802215, 47.12717978868855], [28.703396695876812, 47.12713466742791], [28.70341665464743, 47.1270969030885], [28.703493875858697, 47.12704561153749], [28.703688905197236, 47.12695162387645], [28.703689567791734, 47.12695129023647], [28.706104789278182, 47.125681241715846], [28.706417488985018, 47.12553667299742], [28.706419347179352, 47.125535699515446], [28.706421023651874, 47.12553458287688], [28.706620223643426, 47.125385182851765], [28.70662139832941, 47.12538421486817], [28.7066224359714, 47.12538317649148], [28.70662332756828, 47.12538207672917], [28.706624065385835, 47.12538092512123], [28.70672213424644, 47.1252060964729], [28.706700731992758, 47.1254106752287], [28.70668481646482, 47.12555856028423], [28.70665010221563, 47.12566260449955], [28.706290736865878, 47.12669540312248], [28.706290575032423, 47.126695892423314], [28.70629000710279, 47.12669770333464], [28.706215312616912, 47.126726370736186], [28.706349044164845, 47.12672437815483], [28.706354948054027, 47.126705552833876], [28.706714262548687, 47.12567289677626], [28.70671433165667, 47.125672693988115], [28.70674963159569, 47.12556689397908], [28.706750090947022, 47.125565230245044], [28.706750365638946, 47.12556354764197], [28.706766465547013, 47.125413947638556], [28.706766470402492, 47.12541390188276], [28.706800316264328, 47.12509037336177], [28.706825481989448, 47.125006618511335], [28.70682597544474, 47.125004437119024], [28.706826153254553, 47.12500223321901], [28.706826013706507, 47.12500002803608], [28.706825558144565, 47.12499784280732], [28.70682519022551, 47.12499681450338], [28.7069114684553, 47.124925303084005], [28.707027859856833, 47.12485507368423], [28.707153501879098, 47.12478781882569], [28.707154275947826, 47.12478738236094], [28.707277601928432, 47.12471416978727], [28.70736735908875, 47.124691029975985], [28.70742522507144, 47.124702745661345], [28.707470022173336, 47.12477335182226], [28.707534720989198, 47.1248856642156], [28.707532910756292, 47.12488837670492], [28.70753282442603, 47.124888524947], [28.707532720176637, 47.12488866772258], [28.70753222734989, 47.12488955021673], [28.70753171624834, 47.12489042785508], [28.70753165162275, 47.12489058115876], [28.707531568379267, 47.12489073022105], [28.70753120466012, 47.124891641435454], [28.70753082205685, 47.124892549040005], [28.707530779758304, 47.1248927059289], [28.70753071832242, 47.12489285984232], [28.70753048721372, 47.12489379100145], [28.707530236793396, 47.12489471983153], [28.707530217229262, 47.124894878794706], [28.707530178192638, 47.124895036076985], [28.70753008192009, 47.12489597821329], [28.707529966094427, 47.12489691932375], [28.707529969453127, 47.1248970788303], [28.707529953191706, 47.124897237966756], [28.70752999268247, 47.12489818200697], [28.70753001256697, 47.12489912633436], [28.70753003881615, 47.12489928484814], [28.707530045486543, 47.12489944430619], [28.70753022036033, 47.12490038115872], [28.70753037576349, 47.12490131960863], [28.707530424650365, 47.124901475603075], [28.70753045418834, 47.12490163384704], [28.707530762761042, 47.124902554489495], [28.70753105218626, 47.12490347802412], [28.70753112324002, 47.12490362999691], [28.707531175361108, 47.12490378550285], [28.707531614661036, 47.12490468106893], [28.70753203532099, 47.124905580794135], [28.707532127857352, 47.12490572728169], [28.707532202059603, 47.12490587855196], [28.70758270201728, 47.12499417856592], [28.707583611179192, 47.124995618031065], [28.707664011130067, 47.12511161805246], [28.707665505418916, 47.12511352989869], [28.707667262323977, 47.12511533473022], [28.707852362287245, 47.12528693477324], [28.70785287726604, 47.12528739946204], [28.7078890733953, 47.125319196300325], [28.7079711430005, 47.125317972288315], [28.70790518461956, 47.12526003059999], [28.70772222648888, 47.1250904163376], [28.707643680159958, 47.12497709087549], [28.707598661145937, 47.1248983745526], [28.70762375979052, 47.12486076613589], [28.707672231579284, 47.12480664900514], [28.707819667044372, 47.12465366108138], [28.70817075190362, 47.12436228644148], [28.708171325671316, 47.12436179648398], [28.70862012558932, 47.12396739638388], [28.708620209033132, 47.12396732273963], [28.709118754026115, 47.12352543493748], [28.709274866806044, 47.123417914140575], [28.709402658186033, 47.12347629425054], [28.70940775069448, 47.1234786996895], [28.709406945883146, 47.12345358233037], [28.70946844632826, 47.12345266427853], [28.7094399522069, 47.12343920513142], [28.709439529160495, 47.123439008604244], [28.709314845103567, 47.12338204806079], [28.709403162343825, 47.12328027285381], [28.7095011129048, 47.12318834541743], [28.710065151428783, 47.12269594806347], [28.7101031677425, 47.12266347976758], [28.710198984056465, 47.12268252836832], [28.710200871302366, 47.12268283587544], [28.710202793619782, 47.12268301564129], [28.71020473249572, 47.12268306593463]], [[28.70989789204841, 47.12115730370609], [28.709899752310292, 47.121156832361784], [28.70990153398449, 47.12115623611247], [28.70990321912412, 47.121155520964244], [28.709904790754692, 47.12115469412081], [28.70990623304511, 47.12115376391098], [28.710375141293643, 47.12081938002707], [28.71093403617253, 47.12091689754761], [28.71093593725492, 47.12091716217657], [28.710937867183468, 47.12091729834081], [28.71093980737189, 47.120917304728955], [28.7109417391351, 47.12091718127952], [28.710943643869147, 47.120916929181405], [28.71094550323038, 47.12091655086241], [28.710947299312142, 47.120916049966], [28.710949014817157, 47.12091543131606], [28.71095063322417, 47.12091470087052], [28.71095213894703, 47.120913865664015], [28.710953517484807, 47.12091293374001], [28.71095475556142, 47.120911914073446], [28.710955841253526, 47.1209108164843], [28.710956764105315, 47.12090965154293], [28.71095751522923, 47.1209084304684], [28.710958087391553, 47.12090716502029], [28.71095847508205, 47.120905867385574], [28.710958674567067, 47.120904550061205], [28.710958683925472, 47.1209032257337], [28.710958503067143, 47.12090190715709], [28.710958133733868, 47.12090060702996], [28.710957579482542, 47.120899337873276], [28.71095684565091, 47.120898111909675], [28.710955939306185, 47.12089694094588], [28.71095486917698, 47.12089583625889], [28.710953645569216, 47.120894808487435], [28.71095228026691, 47.12089386752953], [28.71095078641868, 47.120893022447106], [28.710949178411084, 47.12089228137875], [28.71094747173012, 47.12089165146137], [28.710945682812042, 47.120891138761394], [28.71094382888511, 47.120890748216404], [28.710373742722723, 47.12079127797709], [28.710371881398416, 47.120791017525846], [28.710369992041823, 47.12079088023556], [28.710368092102726, 47.12079086737419], [28.71036619912869, 47.12079097906056], [28.710364330602925, 47.120791214263114], [28.710362503782846, 47.120791570809615], [28.710360735540693, 47.120792045406986], [28.710359042207674, 47.12079263367196], [28.71035743942316, 47.1207933301714], [28.710355941990223, 47.12079412847256], [28.710354563738942, 47.12079502120244], [28.709885172670983, 47.1211297493593], [28.7092999509104, 47.12105010491861], [28.709297812142584, 47.12104989600786], [28.70929565274892, 47.121049847640734], [28.70925612055379, 47.12105043770805], [28.709255414593038, 47.12105047195487], [28.709254707548588, 47.12105049338718], [28.709254447386037, 47.121050518874995], [28.709254185218708, 47.121050531592985], [28.709253487575133, 47.12105061290652], [28.70925278701298, 47.12105068153975], [28.70925253176328, 47.12105072431074], [28.709252272684566, 47.12105075450755], [28.70925159007692, 47.1210508821047], [28.709250902743776, 47.12105099727789], [28.70925065486493, 47.12105105692019], [28.709250401370106, 47.12105110430498], [28.709249740372204, 47.12105127695693], [28.709249072887527, 47.12105143756089], [28.70924883476699, 47.121051513500056], [28.709248589297083, 47.12105157761653], [28.709247956274606, 47.121051793660584], [28.709247315066726, 47.12105199814856], [28.709247088997557, 47.12105208965329], [28.709246853916756, 47.121052169883946], [28.709246254966256, 47.121052427239405], [28.709245646210153, 47.12105267364215], [28.70924543436951, 47.12105277983123], [28.70924521194177, 47.1210528754034], [28.70924465283142, 47.121053171591804], [28.709244082389784, 47.12105345753631], [28.70924388681787, 47.12105357738705], [28.70924367918524, 47.12105368738033], [28.709243165299647, 47.12105401954917], [28.70924263866607, 47.121054342281695], [28.709242461246262, 47.121054474639934], [28.709242270408446, 47.12105459799497], [28.70924180669651, 47.1210549629453], [28.70924132894286, 47.121055319357744], [28.70924117138392, 47.121055462948696], [28.709240999178668, 47.1210555984776], [28.709240590106102, 47.12105599269486], [28.709240165833496, 47.12105637935466], [28.708854383370042, 47.1214464821106], [28.70869415242663, 47.12141054952556], [28.708692281637298, 47.12141019838992], [28.708690369433256, 47.1214099741076], [28.708688434230055, 47.121409878838556], [28.708686494664747, 47.121409913500294], [28.708684569416384, 47.12141007775897], [28.708682677026157, 47.12141037003272], [28.708680835718805, 47.12141078750676], [28.708679063227112, 47.121411326160626], [28.708677376621132, 47.121411980806755], [28.708675792143794, 47.12141274514056], [28.708674325054478, 47.12141361180112], [28.708672989482054, 47.12141457244199], [28.708671798288815, 47.121415617811685], [28.708670762946607, 47.121416737842736], [28.708669893426347, 47.12141792174864], [28.708669198101997, 47.12141915812775], [28.708668683669938, 47.12142043507303], [28.708668355084416, 47.121421740286806], [28.708668215509928, 47.12142306119919], [28.70866826629065, 47.12142438508903], [28.708668506937556, 47.1214256992066], [28.7086689351331, 47.12142699089616], [28.708669546753537, 47.12142824771808], [28.70867033590864, 47.12142945756845], [28.708671294998414, 47.12143060879578], [28.708672414786317, 47.12143169031307], [28.70867368448818, 47.12143269170474], [28.70867509187608, 47.12143360332683], [28.708676623396112, 47.121434416399936], [28.708678264298886, 47.12143512309367], [28.708679998781612, 47.12143571660223], [28.70868181014025, 47.12143619120976], [28.708831387988173, 47.12146973479431], [28.708077011000075, 47.12223253909785], [28.70802131837594, 47.12222146601061], [28.70784914441815, 47.12217918954551], [28.707847288675882, 47.12217880293479], [28.707845386351423, 47.1221785423397], [28.70784345576516, 47.12217841026991], [28.707841515509706, 47.12217840799732], [28.70783958427075, 47.12217853554383], [28.70783768064718, 47.122178791681094], [28.707835822971905, 47.122179173942385], [28.70783402913535, 47.122179678646276], [28.70783231641313, 47.12218030093224], [28.707830701299685, 47.12218103480731], [28.707829199349437, 47.12218187320388], [28.707827825026982, 47.12218280804774], [28.70782659156781, 47.12218383033581], [28.707825510850796, 47.122184930222936], [28.70782459328385, 47.12218609711659], [28.707823847703647, 47.122187319778966], [28.70782328129054, 47.12218858643512], [28.707822899499416, 47.122189884886524], [28.707822706007132, 47.12219120262834], [28.707822702677156, 47.122192526970004], [28.707822889541564, 47.1221938451574], [28.70782326480076, 47.122195144495635], [28.7078238248408, 47.12219641247138], [28.707824564268215, 47.12219763687334], [28.707825475961926, 47.12219880590985], [28.707826551141824, 47.122199908322415], [28.707827779453353, 47.122200933494234], [28.707829149067194, 47.122201871552335], [28.70783064679322, 47.122202713462684], [28.70783225820751, 47.122203451117215], [28.70783396779126, 47.122204077411915], [28.70783575908023, 47.122204586315235], [28.708008508859628, 47.122247004171165], [28.708009672063504, 47.12224726234384], [28.70805377759403, 47.12225603162986], [28.707388449376065, 47.12292876972017], [28.70738738436148, 47.122929978299005], [28.707386509961108, 47.12293125614396], [28.707385835725194, 47.12293258929839], [28.70738536901775, 47.12293396320157], [28.707382595681377, 47.12294463481786], [28.707374185585834, 47.122697059928186], [28.70742222628885, 47.12216603467668], [28.707675233261206, 47.12196386503036], [28.707676257987153, 47.12196297289091], [28.707677169398025, 47.12196202519551], [28.707862169353344, 47.12175082516891], [28.707862997150027, 47.121749777895154], [28.70786368656632, 47.1217486849183], [28.70796423365889, 47.121567700044125], [28.708746644564258, 47.12083927925176], [28.70964674453535, 47.120001179041616], [28.709729234173437, 47.11992438176622], [28.710434321371668, 47.1192931825762], [28.711304721903165, 47.11851388189115], [28.711900121838593, 47.11798078180581], [28.71190021574713, 47.1179806885648], [28.711900323612014, 47.117980597916926], [28.71202503826266, 47.11786489756014], [28.712295936401315, 47.117697804252316], [28.712426264729913, 47.11765934217837], [28.712521863454704, 47.117688530582896], [28.71258547272394, 47.11773419878221], [28.712586533042934, 47.11773490504577], [28.712587667863076, 47.11773555512562], [28.712983667896715, 47.1179456551668], [28.71298411970471, 47.11794588786983], [28.713376220820013, 47.11814188862975], [28.713490192951497, 47.11822312829416], [28.713732402241646, 47.118418984433134], [28.713728540451687, 47.11841707906309], [28.71372407056149, 47.118415300773506], [28.713719366847293, 47.118413830115344], [28.71371447460836, 47.118412681251804], [28.713709440959548, 47.11841186524709], [28.713704314377562, 47.118411389959725], [28.71369914423408, 47.11841125996702], [28.713693980320325, 47.118411476520805], [28.7136888723675, 47.11841203753562], [28.713683869567884, 47.11841293760856], [28.7136790201011, 47.11841416807148], [28.71367437067008, 47.11841571707434], [28.713669966051324, 47.118417569699425], [28.71366584866368, 47.118419708105], [28.713662058159816, 47.11842211169708], [28.71365863104435, 47.11842475732777], [28.713461024135533, 47.11859329347004], [28.713460980617423, 47.118593330636216], [28.71086906607317, 47.12080980961242], [28.710866040613894, 47.120812674464446], [28.710863441110956, 47.120815727937725], [28.71086129259904, 47.120818940625746], [28.710859615769568, 47.12082228158854], [28.71085842677139, 47.12082571865084], [28.710857737055317, 47.12082921871188], [28.71085755326377, 47.120832748064174], [28.71085787716688, 47.1208362727181], [28.710858705645364, 47.12083975872935], [28.71086003072063, 47.12084317252569], [28.710861839631566, 47.12084648123037], [28.710864114957435, 47.120849652978755], [28.710866834785676, 47.120852657225136], [28.71086997292289, 47.120855465036946], [28.71087349914713, 47.120858049373396], [28.71087737949893, 47.120860385345864], [28.71088157660837, 47.12086245045764], [28.71088605005496, 47.12086422482053], [28.710890756756903, 47.120865691346424], [28.710895651386036, 47.120866835911855], [28.710900686804308, 47.120867647494], [28.710905814517808, 47.120868118276874], [28.71091098514375, 47.12086824372658], [28.71091614888608, 47.12086802263495], [28.710921256015038, 47.120867457131226], [28.710926257346088, 47.12086655266154], [28.710931104713588, 47.12086531793644], [28.710935751434665, 47.120863764847044], [28.710940152758788, 47.120861908350456], [28.71094426629877, 47.1208597663258], [28.71094805243894, 47.12085735940195], [28.7109514747167, 47.12085471075896], [28.713543366175788, 47.11863824854151], [28.713740951204514, 47.11846973083437], [28.713743981924257, 47.11846686864169], [28.713746587061813, 47.11846381745385], [28.713748741528335, 47.11846060665548], [28.713750424575192, 47.11845726716836], [28.713751619993804, 47.1184538311536], [28.71375231627174, 47.11845033170192], [28.71375250670354, 47.11844680251494], [28.713752189455352, 47.11844327758067], [28.713751367582557, 47.118439790846146], [28.71375004900032, 47.118436375890525], [28.7137482464074, 47.11843306560168], [28.713746094994757, 47.11843005665667], [28.713936169763194, 47.11858375411528], [28.714020813043863, 47.118695064518185], [28.714192831073778, 47.118926229265995], [28.714188507925996, 47.1189732649244], [28.71414576593051, 47.11901614196648], [28.71413074642286, 47.119020892777996], [28.71412793114203, 47.119021898544304], [28.71412527087719, 47.11902308473918], [28.7141227903681, 47.11902444033135], [28.714120512682886, 47.119025952714104], [28.714118459003423, 47.11902760782274], [28.713544758339907, 47.11953795236441], [28.713335978166292, 47.11970910812565], [28.713334444246538, 47.11971046793952], [28.713139265926866, 47.11989787093538], [28.71279394318653, 47.120187502775806], [28.71279204547134, 47.12018926259444], [28.71250783365615, 47.12048156889429], [28.71197989681278, 47.12100091138588], [28.711596665695936, 47.121363761945325], [28.711372475800378, 47.12156719896796], [28.711211933432832, 47.121703784183005], [28.71107831586543, 47.12180411578377], [28.71107797591572, 47.12180300730351], [28.711077394153264, 47.12180174389451], [28.711076633765238, 47.12180052549086], [28.711075702074613, 47.121799363826476], [28.711074608054087, 47.12179827008882], [28.711073362239677, 47.12179725481115], [28.711071976629263, 47.12179632777115], [28.711070464567022, 47.12179549789674], [28.71106884061495, 47.12179477318004], [28.711067120412572, 47.12179416060046], [28.71106532052638, 47.12179366605749], [28.711063458290248, 47.121793294313825], [28.711038276676792, 47.121789171138744], [28.7110380389897, 47.1217891332779], [28.708919011950254, 47.12146097531311], [28.7088934311033, 47.121455238717175], [28.70926721495061, 47.121077268704255], [28.709294347462347, 47.12107686371655], [28.70988808475362, 47.12115766702066], [28.709890047764087, 47.121157864860564], [28.70989202994124, 47.12115792739508], [28.709894011318497, 47.12115785399428], [28.70989597193736, 47.12115764539755], [28.70989789204841, 47.12115730370609]], [[28.707391040280253, 47.12303842556466], [28.707392683421165, 47.12303772124369], [28.707394217506224, 47.12303691038554], [28.707395627761343, 47.12303600079923], [28.70739690060499, 47.123035001244574], [28.707398023778996, 47.123033921347826], [28.70739898646658, 47.123032771509], [28.70739977939654, 47.12303156280169], [28.70740039493254, 47.12303030686638], [28.707400397634302, 47.12303029879594], [28.707705064065408, 47.12311470429482], [28.707706723345584, 47.12311510623452], [28.70858532354077, 47.12329830627598], [28.708586793570017, 47.12329857107203], [28.70921616851364, 47.123394436280684], [28.709070493808493, 47.12349476789144], [28.7090677910748, 47.12349687736603], [28.708568032590858, 47.12393984037287], [28.70811955622074, 47.1243339558008], [28.707767648060493, 47.124626013475634], [28.707765568244024, 47.12462793997131], [28.707616868196865, 47.12478223993645], [28.70761628391711, 47.12478286864058], [28.707566483898077, 47.1248384686287], [28.707564610777922, 47.12484087671286], [28.70755752670944, 47.124851491640904], [28.70750670101011, 47.124763262018774], [28.707506444041144, 47.124762837317384], [28.707458932130532, 47.124687952331946], [28.707434582196065, 47.124564140997094], [28.707400046254325, 47.12421908229582], [28.70736787857339, 47.123644563322465], [28.707383776629072, 47.12304005034206], [28.70738561909418, 47.12303983698601], [28.707387491026118, 47.12303948855441], [28.707389303907828, 47.12303901656546], [28.707391040280253, 47.12303842556466]], [[28.710013558311626, 47.12266795821698], [28.71001334032824, 47.12266814643779], [28.70944884022794, 47.123160946312154], [28.709448149912856, 47.12316157103767], [28.709348949889673, 47.123254671015076], [28.709347247289763, 47.123256437959036], [28.7092473698954, 47.12337153470927], [28.708596148905706, 47.12327234202285], [28.707719119414552, 47.12308946949649], [28.70740754881869, 47.12300315124026], [28.707423571480135, 47.12294149698037], [28.708093646580036, 47.12226395856734], [28.71003473212791, 47.12264987448286], [28.710013558311626, 47.12266795821698]], [[28.70890935249961, 47.12148715550361], [28.71102917142859, 47.121815436105685], [28.71105423438149, 47.12181953985151], [28.71105614103414, 47.12181978521587], [28.71105735067872, 47.121819858207324], [28.710902131756704, 47.12193640921036], [28.7107311834022, 47.12205127132646], [28.710729280926877, 47.12205266259832], [28.710527980904494, 47.12221296255498], [28.710526437891073, 47.12221428930707], [28.710388086854163, 47.122342914029836], [28.710279283059595, 47.12242412119541], [28.710277671737032, 47.12242541916614], [28.710276208759865, 47.122426796554414], [28.71017508573655, 47.12253000351243], [28.71006143227135, 47.12262707090453], [28.708116879971655, 47.12224046602746], [28.70887043573499, 47.12147849140853], [28.70890755617876, 47.12148681580217], [28.70890935249961, 47.12148715550361]], [[28.706735317965986, 47.125082781472976], [28.706734729799017, 47.12508569811489], [28.70673184187509, 47.125113303241854], [28.706588467442035, 47.1253688988428], [28.70639336132267, 47.125515228398854], [28.706082111053494, 47.12565912697091], [28.70608113203043, 47.12565961001704], [28.703665758419913, 47.126929738233265], [28.703469794826777, 47.127024176102694], [28.70346856318917, 47.127024820529584], [28.703467409396808, 47.12702552889611], [28.703411106374958, 47.12706292625762], [28.703492555425964, 47.1266870577852], [28.7037999967169, 47.12574526333123], [28.704176396950558, 47.12559872206236], [28.70417874337801, 47.12559765012865], [28.705270143457557, 47.12501795001282], [28.70527066716042, 47.12501766194702], [28.70595921827481, 47.1246255453218], [28.707037500791138, 47.12413952529512], [28.7069853101878, 47.12428304922182], [28.7069851174529, 47.12428363460928], [28.706779014773335, 47.124981827526014], [28.70677783809377, 47.12498220156473], [28.70677505445596, 47.124983325078055], [28.70677244556947, 47.1249846294041], [28.70677003655929, 47.12498610198151], [28.70676785062551, 47.124987728628554], [28.70676590881987, 47.12498949367975], [28.706764229843024, 47.12499138013672], [28.706762829864466, 47.124993369831834], [28.70676172236677, 47.124995443603275], [28.70676091801578, 47.12499758147949], [28.706735317965986, 47.125082781472976]], [[28.704050353392535, 47.12483811381317], [28.704154045286895, 47.12444881914612], [28.704166183777982, 47.12441509145045], [28.704797064303616, 47.12410014631677], [28.70544804763214, 47.12380079190577], [28.705449095568408, 47.12380027522513], [28.706106858265244, 47.12345307551345], [28.706498505682013, 47.12330245721199], [28.706500861595913, 47.1233013930544], [28.70723978657434, 47.12291308799255], [28.707345011159333, 47.123010238422424], [28.707328398668736, 47.1236418996851], [28.70725242700032, 47.123767092360225], [28.70717431410977, 47.12384925405666], [28.707173164335885, 47.12385063517511], [28.70717226030072, 47.12385209893998], [28.70711576026689, 47.12396109893128], [28.707115521794027, 47.1239615885675], [28.707052118402732, 47.12410059193674], [28.705936504328566, 47.12460343883732], [28.705934732808036, 47.1246043381276], [28.705245591106046, 47.12499679097839], [28.7041555736274, 47.12557575658394], [28.703810009310683, 47.125710292769966], [28.70394452595932, 47.125226315138406], [28.70394480875138, 47.125224881908544], [28.70397664481999, 47.124954720787194], [28.704049032672287, 47.12484108063301], [28.704049818292315, 47.124839623198966], [28.704050353392535, 47.12483811381317]], [[28.70337156280121, 47.127163813683055], [28.703360001654186, 47.127160294124245], [28.703367138839713, 47.12715651304872], [28.70337156280121, 47.127163813683055]], [[28.707257159679507, 47.124690814841045], [28.707255696270124, 47.12469147331107], [28.707254324052084, 47.12469221765171], [28.70712870297044, 47.12476679269587], [28.70700299813471, 47.12483408115949], [28.70700210408309, 47.12483458943201], [28.70688410408723, 47.12490578941858], [28.7068829760385, 47.124906526232785], [28.706881936689864, 47.124907321501475], [28.706828200069005, 47.124951860928306], [28.707023795716978, 47.12428925954369], [28.707087950318517, 47.12411283421443], [28.707153165830913, 47.12396985780359], [28.707208759394643, 47.123862606433526], [28.70728658587916, 47.123780745929714], [28.707287499553566, 47.123779681272886], [28.707288266941507, 47.12377856410815], [28.70733179285186, 47.123706838352916], [28.707360542415106, 47.1242203153467], [28.70736057396545, 47.124220719731774], [28.707395173838535, 47.12456641973934], [28.707395303623073, 47.12456729536968], [28.707416040012735, 47.12467273346268], [28.707372222970744, 47.12466386215346], [28.707370442420682, 47.124663562211744], [28.707368628812, 47.124663376162644], [28.707366797748232, 47.124663305606845], [28.70736496498312, 47.124663351151355], [28.707363146285026, 47.124663512404375], [28.7073613573013, 47.12466378797852], [28.707359613423616, 47.12466417550288], [28.707260313443435, 47.12468977549659], [28.70725870277958, 47.12469024741647], [28.707257159679507, 47.124690814841045]], [[28.714224244937714, 47.11898539184499], [28.714225338915966, 47.11898415730554], [28.714226233554644, 47.11898285009747], [28.714226835954133, 47.118981649880794], [28.71423897883745, 47.119001668181994], [28.71420987936599, 47.11899980282618], [28.714224244937714, 47.11898539184499]], [[28.71678505788248, 47.11598487733887], [28.716785802141498, 47.11598452651423], [28.71705399167757, 47.11585182234779], [28.717286650416238, 47.11578430800587], [28.71691522989451, 47.11657912401251], [28.716859554669423, 47.11661054643147], [28.71655613926854, 47.11668230584445], [28.716536859652507, 47.11666455332896], [28.71636971680519, 47.116196769037785], [28.716528180067773, 47.11610012900301], [28.71678505788248, 47.11598487733887]], [[28.718322982314767, 47.115644430399534], [28.7182484820545, 47.116350430390185], [28.718248466075213, 47.1163505960244], [28.718234904770636, 47.11650570897923], [28.717874779755185, 47.11731718734356], [28.717874347414586, 47.117318343470856], [28.717874066366495, 47.11731952114786], [28.7178309057448, 47.11756961707688], [28.71770726186967, 47.117491680001116], [28.717550243123835, 47.1173885217785], [28.71724428619893, 47.11711128254599], [28.717069648418057, 47.116881485604594], [28.7170688896155, 47.116880575378026], [28.716947906521188, 47.116747721547064], [28.716892254424828, 47.11662711140085], [28.716944896891757, 47.116597400618936], [28.71694628799298, 47.11659653622615], [28.71694755244278, 47.11659558548958], [28.716948678792466, 47.11659455701749], [28.71694965684374, 47.116593460121976], [28.71695047774105, 47.11659230473464], [28.716951134051765, 47.11659110131671], [28.717340833999874, 47.1157571667427], [28.71761055554997, 47.115617347468394], [28.717611865921274, 47.11561660534174], [28.717613077887716, 47.11561578899682], [28.718310677863965, 47.11510358890963], [28.71831165077953, 47.11510281823353], [28.718593144558746, 47.11486204988802], [28.7187043341961, 47.11479783109213], [28.718468125713834, 47.11518865296242], [28.718467529605427, 47.11518977837796], [28.718467081892886, 47.11519093541935], [28.71832338173575, 47.11564253539734], [28.718322982314767, 47.115644430399534]], [[28.716704277417058, 47.11681831021404], [28.716628363609175, 47.116748647071944], [28.71658085648832, 47.116705024208414], [28.716856654313684, 47.11663979650479], [28.716906550728375, 47.11674793301396], [28.716786826781103, 47.11680410637278], [28.716704277417058, 47.11681831021404]], [[28.717161279291673, 47.118095396357816], [28.717084363879213, 47.117892084472], [28.71689608515711, 47.1173752433884], [28.71689588730759, 47.117374741710904], [28.716766667841245, 47.117070537809205], [28.716718426627004, 47.11684370995276], [28.71679993194132, 47.11682968575163], [28.71680161316685, 47.11682934161996], [28.716803243052187, 47.116828897052216], [28.716804808749725, 47.11682835555272], [28.71680629791781, 47.116827721389846], [28.7169239388386, 47.11677252536387], [28.71703490508931, 47.11689437956324], [28.717209951523817, 47.11712471442013], [28.717210772333576, 47.117125692282805], [28.71721170980929, 47.11712661998342], [28.717519609775938, 47.117405620025984], [28.71752060369528, 47.117406449896905], [28.71752169096753, 47.117407223301136], [28.717679990970723, 47.11751122331988], [28.71768028817464, 47.11751141457891], [28.717825191670958, 47.11760275233129], [28.7178114007178, 47.11768295742222], [28.717492036812295, 47.11833974875969], [28.71749199662088, 47.11833983232456], [28.717386458387928, 47.118561700544014], [28.717161279291673, 47.118095396357816]]]]}}]}