{"type": "FeatureCollection", "crs": {"type": "name", "properties": {"name": "urn:ogc:def:crs:EPSG::32635"}}, "features": [{"type": "Feature", "geometry": {"type": "LineString", "coordinates": [[28.707377621998358, 47.12303346369267], [28.707368642145138, 47.12304124660975], [28.707368066433258, 47.12302325747192], [28.707367490721932, 47.12300526833404], [28.707366915011168, 47.122987279196096], [28.707339983529923, 47.122969683006026], [28.707313052066432, 47.12295208680933], [28.707286120620694, 47.12293449060602], [28.70725918919271, 47.1229168943961], [28.707232257782472, 47.122899298179554], [28.707205902044166, 47.12289969109619], [28.707180121951165, 47.12291807314676], [28.7071543418404, 47.122936455191685], [28.70712856171189, 47.12295483723097], [28.707102205944732, 47.122955230124106], [28.707076425789033, 47.122973612151945], [28.70705064561558, 47.122991994174164], [28.707024289829008, 47.1229923870496], [28.70699850962837, 47.123010769060365], [28.706972729409983, 47.1230291510655], [28.706946949173844, 47.123047533065], [28.706920593358408, 47.123047925916936], [28.70689481309508, 47.123066307904985], [28.706869032814005, 47.123084689887406], [28.70684325251517, 47.12310307186419], [28.706816896670887, 47.12310346469261], [28.706791116344867, 47.123121846657945], [28.706765336001094, 47.12314022861766], [28.706739555639572, 47.12315861057173], [28.706713199766437, 47.12315900337664], [28.706687419377722, 47.123177385319266], [28.706661638971266, 47.12319576725627], [28.706635858547052, 47.12321414918762], [28.706609502645062, 47.123214541969034], [28.706583722193663, 47.12323292388894], [28.70655794172451, 47.123251305803215], [28.7065315858031, 47.12325169856693], [28.706505805306755, 47.123270080469766], [28.70648002479266, 47.123288462366965], [28.706453668851836, 47.123288855112975], [28.706427888310554, 47.123307236998734], [28.706402107751522, 47.12332561887886], [28.70637575179127, 47.123326011607176], [28.706349971205054, 47.12334439347584], [28.706323615234815, 47.123344786192284], [28.706297834621417, 47.12336316804951], [28.70627147864119, 47.123363560754065], [28.706245698000608, 47.123381942599856], [28.70621934201039, 47.123382335292554], [28.706193561342616, 47.12340071712687], [28.706167205342418, 47.12340110980769], [28.706141424647456, 47.123419491630564], [28.70611506863727, 47.123419884299494], [28.70608928791512, 47.12343826611093], [28.706063507175227, 47.12345664791672], [28.706037151145612, 47.12345704056796], [28.70601137037853, 47.12347542236231], [28.70598558959369, 47.12349380415102], [28.705959808791103, 47.1235121859341], [28.70593345273264, 47.12351257856183], [28.70590767190287, 47.12353096033346], [28.705881891055338, 47.12354934209946], [28.70585611019005, 47.123567723859836], [28.705829754102737, 47.123568116464064], [28.705803973210273, 47.12358649821297], [28.705778192300052, 47.123604879956254], [28.705752411372075, 47.123623261693915], [28.70572605525591, 47.123623654274624], [28.705700274300746, 47.12364203600083], [28.70567449332783, 47.1236604177214], [28.705648712337165, 47.123678799436334], [28.705622356192144, 47.12367919199354], [28.705596575174294, 47.12369757369703], [28.705570794138684, 47.123715955394886], [28.705544437974247, 47.1237163479344], [28.705518656911455, 47.12373472962081], [28.70549287583091, 47.12375311130158], [28.7054670947326, 47.123771492976715], [28.705440738539313, 47.12377188549271], [28.705414957413826, 47.12379026715641], [28.705389176270582, 47.12380864881447], [28.70536282005788, 47.12380904131277], [28.70533703888745, 47.12382742295939], [28.705311257699268, 47.12384580460036], [28.705284901467138, 47.123846197080965], [28.705259120251775, 47.1238645787105], [28.70523333901866, 47.1238829603344], [28.705206982767105, 47.12388335279731], [28.7051812015068, 47.123901734409756], [28.70515542022874, 47.12392011601658], [28.70512906395777, 47.123920508461794], [28.705103282652527, 47.12393889005716], [28.705076926371564, 47.1239392824905], [28.70505114503914, 47.12395766407442], [28.705025363688954, 47.123976045652704], [28.704999007388572, 47.123976438068354], [28.704973226011205, 47.12399481963518], [28.704947444616078, 47.124013201196384], [28.704921088296285, 47.12401359359434], [28.704895306873976, 47.12403197514409], [28.704869525433903, 47.12405035668821], [28.70484316909469, 47.124050749068466], [28.70481738762744, 47.12406913060112], [28.70479160614243, 47.12408751212816], [28.704765249783794, 47.12408790449072], [28.704739468271605, 47.12410628600632], [28.70471368674166, 47.124124667516256], [28.70468733036361, 47.124125059861136], [28.70466154880647, 47.12414344135965], [28.70463576723159, 47.124161822852514], [28.704609410834113, 47.12416221517969], [28.70458362923204, 47.1241805966611], [28.70455784761221, 47.12419897813689], [28.704531491195322, 47.12419937044637], [28.704505709548307, 47.124217751910706], [28.704479927883536, 47.12423613336941], [28.70445414620102, 47.12425451482248], [28.70442778975528, 47.12425490710846], [28.704402008045566, 47.12427328855008], [28.704376226318104, 47.12429166998607], [28.704349869852944, 47.12429206225435], [28.704324088098293, 47.12431044367888], [28.704298306325892, 47.12432882509779], [28.70427194984131, 47.12432921734837], [28.704246168041724, 47.124347598755826], [28.704220386224375, 47.12436598015765], [28.704194604389283, 47.124384361553844], [28.704167673215817, 47.124366764617356], [28.704167098556347, 47.12434877545374], [28.70416652389743, 47.124330786290066], [28.704165949239066, 47.12431279712632], [28.704191731050305, 47.12429441573669], [28.704191156384173, 47.124276426573076], [28.704190581718603, 47.124258437409395], [28.704190007053587, 47.124240448245644], [28.704215788822104, 47.12422206685093], [28.70424157057287, 47.12420368545056], [28.704215788822104, 47.12422206685093], [28.70421636349544, 47.12424005601448], [28.704216938169342, 47.124258045177974], [28.704191156384173, 47.124276426573076], [28.704191731050305, 47.12429441573669], [28.704165949239066, 47.12431279712632], [28.70416652389743, 47.124330786290066], [28.704167098556347, 47.12434877545374], [28.704167673215817, 47.124366764617356], [28.70416824787584, 47.12438475378091], [28.704168822536428, 47.1244027429444], [28.70414304066582, 47.124421124329324], [28.704143615318635, 47.124439113492926], [28.704144189972006, 47.12445710265647], [28.70414476462593, 47.12447509181997], [28.7041189827126, 47.124493473199806], [28.70411955735876, 47.124511462363415], [28.704120132005475, 47.12452945152694], [28.70412070665274, 47.12454744069043], [28.704121281300566, 47.12456542985385], [28.704095499336194, 47.12458381122879], [28.70409607397625, 47.124601800392334], [28.70409664861686, 47.12461978955582], [28.704097223258024, 47.12463777871923], [28.704097797899742, 47.12465576788259], [28.70407201588433, 47.12467414925262], [28.70407259051828, 47.1246921384161], [28.70407316515279, 47.12471012757951], [28.70407373978785, 47.124728116742865], [28.70407431442347, 47.12474610590615], [28.70404853235701, 47.12476448727128], [28.70404910698486, 47.124782476434696], [28.704049681613263, 47.12480046559806], [28.704050256242226, 47.12481845476134], [28.704024474133046, 47.12483683612139], [28.704025048754236, 47.12485482528481], [28.704025623375983, 47.124872814448146], [28.703999841232402, 47.12489119580293], [28.704000415846384, 47.1249091849664], [28.70397463367673, 47.12492756631573], [28.703975208282937, 47.12494555547932], [28.703949426087206, 47.12496393682321], [28.703950000685648, 47.124981925986916], [28.703950575284644, 47.12499991515057], [28.7039511498842, 47.125017904314156], [28.70395172448431, 47.12503589347766], [28.70395229908497, 47.12505388264113], [28.703952873686195, 47.125071871804515], [28.703953448287972, 47.12508986096787], [28.7039540228903, 47.12510785013113], [28.703954597493183, 47.125125839294356], [28.70392881520479, 47.125144220634255], [28.703929389799907, 47.125162209797594], [28.703929964395574, 47.125180198960855], [28.703930538991802, 47.12519818812407], [28.70393111358858, 47.125216177287214], [28.70393168818592, 47.12523416645029], [28.703932262783812, 47.12525215561331], [28.703906480427722, 47.12527053694868], [28.703907055017844, 47.12528852611183], [28.703907629608526, 47.12530651527491], [28.703908204199756, 47.12532450443793], [28.703908778791543, 47.12534249360088], [28.703882996384415, 47.125360874931346], [28.703883570968436, 47.12537886409443], [28.703884145553012, 47.12539685325744], [28.70388472013814, 47.1254148424204], [28.703885294723825, 47.12543283158329], [28.703859512265645, 47.12545121290886], [28.70386008684357, 47.12546920207187], [28.703860661422038, 47.12548719123482], [28.703861236001064, 47.12550518039771], [28.703861810580648, 47.12552316956053], [28.703861236001064, 47.12550518039771], [28.703860661422038, 47.12548719123482], [28.70386008684357, 47.12546920207187], [28.703859512265645, 47.12545121290886], [28.70385893768829, 47.12543322374578], [28.703858363111483, 47.12541523458265], [28.703857788535228, 47.12539724541944], [28.703883570968436, 47.12537886409443], [28.703882996384415, 47.125360874931346], [28.70388242180095, 47.12534288576821], [28.703881847218046, 47.12532489660501], [28.703907629608526, 47.12530651527491], [28.703907055017844, 47.12528852611183], [28.703906480427722, 47.12527053694868], [28.70390590583816, 47.12525254778547], [28.703905331249146, 47.1252345586222], [28.70393111358858, 47.125216177287214], [28.703930538991802, 47.12519818812407], [28.703929964395574, 47.125180198960855], [28.703929389799907, 47.125162209797594], [28.70392881520479, 47.125144220634255], [28.703928240610228, 47.125126231470865], [28.70392766601622, 47.12510824230739], [28.70392709142277, 47.125090253143874], [28.703926516829874, 47.12507226398029], [28.703925942237532, 47.12505427481665], [28.70395172448431, 47.12503589347766], [28.7039511498842, 47.125017904314156], [28.703950575284644, 47.12499991515057], [28.703950000685648, 47.124981925986916], [28.703949426087206, 47.12496393682321], [28.70394885148932, 47.12494594765944], [28.70397463367673, 47.12492756631573], [28.703974059071072, 47.12490957715208], [28.703999841232402, 47.12489119580293], [28.70399926661898, 47.124873206639414], [28.70399869200611, 47.12485521747581], [28.704024474133046, 47.12483683612139], [28.704023899512407, 47.12481884695792], [28.704023324892326, 47.12480085779439], [28.70404910698486, 47.124782476434696], [28.70404853235701, 47.12476448727128], [28.704047957729713, 47.124746498107825], [28.704047383102978, 47.12472850894429], [28.704046808476793, 47.12471051978068], [28.70407259051828, 47.1246921384161], [28.70407201588433, 47.12467414925262], [28.70407144125093, 47.12465616008908], [28.70407086661809, 47.12463817092549], [28.704070291985797, 47.12462018176183], [28.70409607397625, 47.124601800392334], [28.704095499336194, 47.12458381122879], [28.704094924696697, 47.124565822065186], [28.704094350057748, 47.12454783290152], [28.704093775419356, 47.1245298437378], [28.70411955735876, 47.124511462363415], [28.7041189827126, 47.124493473199806], [28.704118408066996, 47.12447548403613], [28.704117833421954, 47.1244574948724], [28.704117258777462, 47.12443950570861], [28.70414304066582, 47.124421124329324], [28.704168822536428, 47.1244027429444], [28.704194604389283, 47.124384361553844], [28.70422096090216, 47.12438396932072], [28.704246742727822, 47.12436558791871], [28.704272524535735, 47.12434720651107], [28.704298881029192, 47.124346814260235], [28.70432466280992, 47.12432843284114], [28.704350444572892, 47.12431005141642], [28.70437680104693, 47.124309659147904], [28.704402582782713, 47.124291277711734], [28.704428364500743, 47.12427289626993], [28.70445414620102, 47.12425451482248], [28.704480502646213, 47.12425412253046], [28.7045062843193, 47.12423574107157], [28.70453206597463, 47.124217359607044], [28.7045584224004, 47.12421696729732], [28.704584204028553, 47.124198585821354], [28.70460998563895, 47.12418020433975], [28.704636342045298, 47.12417981201233], [28.704662123628506, 47.12416143051927], [28.704687905193957, 47.124143049020596], [28.70471368674166, 47.124124667516256], [28.70474004311916, 47.124124275165336], [28.704765824639672, 47.12410589364957], [28.70479160614243, 47.12408751212816], [28.70481796250051, 47.124087119759544], [28.704843743976088, 47.12406873822669], [28.704869525433903, 47.12405035668821], [28.704895881772565, 47.12404996430189], [28.7049216632032, 47.124031582751954], [28.704947444616078, 47.124013201196384], [28.704973800935317, 47.124012808792365], [28.704999582321012, 47.12399442722536], [28.705025938630264, 47.12399403480946], [28.705051719988774, 47.123975653231], [28.705077501329527, 47.123957271646894], [28.70510385761936, 47.12395687921331], [28.705129638932924, 47.12393849761775], [28.70515542022874, 47.12392011601658], [28.705181776499156, 47.12391972356529], [28.705207557767782, 47.12390134195265], [28.70523333901866, 47.1238829603344], [28.70525969526965, 47.12388256786542], [28.70528547649334, 47.12386418623571], [28.705311257699268, 47.12384580460036], [28.705337613930848, 47.12384541211369], [28.70536339510959, 47.1238270304669], [28.70538975133118, 47.12382663796835], [28.705415532482743, 47.1238082563101], [28.70544131361655, 47.12378987464623], [28.705467669818713, 47.123789482129986], [28.70549345092534, 47.123771100454654], [28.705519232014204, 47.123752718773694], [28.705545013085324, 47.123734337087114], [28.705571369258642, 47.12373394454736], [28.705597150302566, 47.12371556284932], [28.705622931328744, 47.123697181145644], [28.705648712337165, 47.123678799436334], [28.70567506848163, 47.12367840687306], [28.705700849462865, 47.12366002515232], [28.705726630426348, 47.12364164342593], [28.705752411372075, 47.123623261693915], [28.705778767487683, 47.123622869107145], [28.70580454840623, 47.123604487363664], [28.70583032930702, 47.12358610561457], [28.70585611019005, 47.123567723859836], [28.70588246627681, 47.12356733124955], [28.705908247132665, 47.123548949483364], [28.70593402797076, 47.123530567711555], [28.705960384038097, 47.12353017508358], [28.70598616484901, 47.12351179330031], [28.706011945642167, 47.12349341151141], [28.70603772641757, 47.12347502971688], [28.706064082456056, 47.1234746370654], [28.70608986320428, 47.12345625525942], [28.706115643934748, 47.123437873447806], [28.706141999953807, 47.12343748077863], [28.706167780657086, 47.123419098955566], [28.706194136666166, 47.123418706274514], [28.70621991734226, 47.12340032444], [28.706245698000608, 47.123381942599856], [28.706272053990258, 47.12338154990111], [28.706297834621417, 47.12336316804951], [28.70632419060109, 47.12336277533888], [28.706349971205054, 47.12334439347584], [28.706376327174738, 47.123344000753335], [28.706402107751522, 47.12332561887886], [28.70642846371122, 47.123325226144466], [28.70645424426082, 47.12330684425853], [28.706480600210522, 47.12330645151228], [28.70650638073294, 47.123288069614894], [28.7065321612376, 47.12326968771187], [28.706558517167885, 47.12326929494792], [28.706584297645357, 47.12325091303345], [28.70661007810508, 47.12323253111336], [28.706635858547052, 47.12321414918762], [28.70666221444848, 47.12321375640016], [28.706687994863266, 47.12319537446299], [28.706713775260294, 47.12317699252018], [28.706739555639572, 47.12315861057173], [28.706765911512154, 47.12315821776076], [28.706791691864243, 47.12313983580088], [28.706817472198587, 47.123121453835346], [28.706843828051742, 47.12312106100668], [28.7068696083589, 47.123102679029714], [28.706895388648302, 47.1230842970471], [28.706921168919948, 47.123065915058866], [28.70694752474426, 47.123065522206694], [28.70697330498872, 47.12304714020701], [28.706999085215426, 47.1230287582017], [28.707024865424383, 47.12301037619074], [28.70705122121984, 47.12300998331506], [28.707077001401608, 47.12299160129267], [28.707102781565627, 47.12297321926464], [28.70712856171189, 47.12295483723097], [28.70715491747849, 47.122954444331775], [28.707180697597575, 47.12293606228667], [28.707206477698897, 47.12291768023593], [28.707232257782472, 47.122899298179554], [28.70725918919271, 47.1229168943961], [28.707286120620694, 47.12293449060602], [28.707313052066432, 47.12295208680933], [28.707339983529923, 47.122969683006026], [28.707365763591298, 47.12295130092001], [28.707365187882193, 47.122933311781885], [28.70736461217365, 47.12291532264368], [28.707364036465663, 47.12289733350543], [28.70736346075823, 47.122879344367114], [28.707362885051353, 47.12286135522872], [28.707362309345033, 47.12284336609028], [28.707361733639267, 47.12282537695179], [28.707361157934056, 47.122807387813204], [28.707360582229402, 47.12278939867457], [28.707360006525303, 47.122771409535886], [28.707359430821764, 47.122753420397125], [28.70735885511878, 47.12273543125832], [28.707358279416347, 47.12271744211944], [28.707357703714475, 47.12269945298049], [28.70735712801316, 47.122681463841495], [28.707356552312397, 47.122663474702435], [28.70735597661219, 47.122645485563304], [28.707355400912544, 47.12262749642411], [28.70735482521345, 47.12260950728486], [28.707354249514914, 47.12259151814555], [28.707353673816925, 47.12257352900618], [28.7073530981195, 47.12255553986673], [28.707352522422635, 47.12253755072724], [28.707351946726323, 47.12251956158767], [28.707377726570254, 47.12250117950043], [28.707377150866176, 47.122483190360995], [28.707376575162655, 47.122465201221495], [28.70737599945969, 47.12244721208194], [28.707375423757277, 47.122429222942294], [28.707374848055423, 47.12241123380261], [28.707374272354123, 47.12239324466286], [28.70737369665338, 47.12237525552305], [28.707373120953196, 47.12235726638317], [28.707372545253563, 47.12233927724324], [28.707371969554487, 47.122321288103244], [28.70737139385597, 47.122303298963175], [28.707397173590632, 47.12228491687234], [28.70739659788435, 47.1222669277324], [28.70739602217862, 47.1222489385924], [28.70739544647345, 47.12223094945232], [28.707394870768834, 47.12221296031219], [28.707394295064773, 47.12219497117201], [28.707393719361274, 47.12217698203176], [28.707393143658326, 47.12215899289145], [28.707418923316993, 47.12214061079626], [28.707444702957904, 47.122122228695446], [28.70747048258107, 47.12210384658899], [28.707496262186474, 47.12208546447691], [28.707495686450805, 47.122067475337275], [28.70752146603014, 47.12204909321975], [28.70754724559173, 47.12203071109658], [28.70757302513556, 47.12201232896779], [28.70759880466164, 47.12199394683337], [28.707624584169974, 47.1219755646933], [28.707650363660548, 47.12195718254761], [28.707676143133373, 47.12193880039627], [28.707675567340022, 47.121920811257866], [28.707701346786774, 47.1219024291011], [28.707700770985657, 47.121884439962805], [28.707726550406342, 47.12186605780058], [28.70775232980927, 47.121847675632736], [28.707751753992067, 47.12182968649474], [28.70777753336893, 47.12181130432145], [28.707803312728036, 47.12179292214251], [28.70780273689475, 47.12177493300483], [28.707828516227785, 47.12175655082046], [28.70782794038674, 47.121738561682896], [28.7078537196937, 47.12172017949307], [28.707853143844883, 47.12170219035563], [28.707878923125776, 47.121683808160356], [28.7078783472692, 47.12166581902303], [28.70787777141318, 47.12164782988565], [28.707903550659683, 47.12162944768511], [28.707902974795896, 47.12161145854785], [28.707928754016333, 47.12159307634186], [28.707928178144783, 47.12157508720473], [28.70795395733914, 47.12155670499329], [28.70795338145983, 47.12153871585627], [28.70797916062812, 47.12152033363939], [28.70800493977866, 47.121501951416874], [28.70803071891144, 47.121483569188726], [28.70803014300773, 47.121465580052195], [28.708055922114443, 47.12144719781861], [28.708081701203408, 47.12142881557938], [28.70810748027462, 47.121410433334525], [28.7081069043465, 47.12139244419849], [28.708132683391643, 47.121374061948174], [28.708158462419036, 47.121355679692236], [28.70818424142867, 47.12133729743067], [28.708183665476156, 47.12131930829512], [28.708209444459726, 47.12130092602811], [28.70823522342554, 47.12128254375546], [28.708261002373604, 47.121264161477185], [28.70828678130392, 47.12124577919328], [28.70828620531868, 47.1212277900584], [28.708311984222924, 47.12120940776904], [28.708337763109412, 47.12119102547405], [28.708363541978155, 47.12117264317342], [28.708362965968515, 47.121154654039046], [28.708388744811185, 47.12113627173297], [28.708414523636105, 47.12111788942128], [28.708440302443275, 47.12109950710394], [28.70843972640923, 47.12108151797004], [28.708465505190333, 47.12106313564726], [28.708491283953677, 47.121044753318856], [28.708517062699276, 47.12102637098481], [28.708516486640832, 47.12100838185139], [28.708542265360357, 47.120989999511906], [28.708568044062133, 47.12097161716678], [28.708593822746156, 47.12095323481603], [28.708619601412433, 47.120934852459655], [28.708619025321266, 47.12091686332692], [28.708644803961473, 47.12089848096508], [28.708670582583927, 47.12088009859763], [28.70869636118863, 47.12086171622453], [28.70869578507306, 47.12084372709228], [28.708721563651693, 47.120825344713744], [28.70874734221258, 47.12080696232957], [28.70877312075571, 47.12078857993976], [28.70877254461574, 47.120770590808], [28.708798323132804, 47.12075220841275], [28.708824101632114, 47.12073382601187], [28.708849880113675, 47.120715443605356], [28.708875658577483, 47.120697061193205], [28.708875082404795, 47.120679072062124], [28.708900860842533, 47.12066068964454], [28.708926639262526, 47.12064230722131], [28.708952417664765, 47.12062392479246], [28.70895184146768, 47.120605935661864], [28.708977619843846, 47.120587553227566], [28.70900339820227, 47.120569170787626], [28.70902917654293, 47.12055078834206], [28.709028600321446, 47.12053279921195], [28.709054378636047, 47.12051441676095], [28.709080156932895, 47.120496034304296], [28.70910593521199, 47.12047765184202], [28.70910535896611, 47.120459662712406], [28.709131137219135, 47.12044128024468], [28.709156915454415, 47.120422897771334], [28.709182693671945, 47.12040451529235], [28.709208471871722, 47.12038613280773], [28.709207895593114, 47.12036814367879], [28.709233673766825, 47.120349761188734], [28.709259451922787, 47.120331378693045], [28.709285230060996, 47.120312996191714], [28.70928465375799, 47.120295007063255], [28.709310431870133, 47.12027662455649], [28.70933620996452, 47.12025824204409], [28.709361988041156, 47.12023985952605], [28.70936141171375, 47.12022187039809], [28.709387189764325, 47.12020348787461], [28.709412967797146, 47.12018510534549], [28.709438745812218, 47.12016672281075], [28.709464523809533, 47.12014834027039], [28.709463947449414, 47.12013035114308], [28.709489725420667, 47.12011196859727], [28.709515503374167, 47.120093586045826], [28.70954128130992, 47.12007520348874], [28.709540704925402, 47.120057214361935], [28.70956648283508, 47.12003883179941], [28.709592260727018, 47.12002044923125], [28.709618038601196, 47.120002066657456], [28.70961746219228, 47.11998407753115], [28.709643240040396, 47.11996569495191], [28.70966901787076, 47.11994731236704], [28.709694795683372, 47.11992892977654], [28.70972057347824, 47.11991054718041], [28.709719997036608, 47.119892558054765], [28.709745774805402, 47.1198741754532], [28.709771552556447, 47.11985579284599], [28.709797330289746, 47.119837410233146], [28.709823108005295, 47.11981902761468], [28.709822531530943, 47.11980103848971], [28.709848309220426, 47.1197826558658], [28.709874086892157, 47.11976427323625], [28.709899864546138, 47.119745890601074], [28.70989928804738, 47.11972790147659], [28.709925065675296, 47.119709518835975], [28.709950843285462, 47.119691136189715], [28.709976620877875, 47.11967275353784], [28.71000239845254, 47.11965437088032], [28.71000182192108, 47.119636381756514], [28.71002759946967, 47.119617999093556], [28.710053377000516, 47.11959961642495], [28.710079154513615, 47.11958123375073], [28.71010493200896, 47.119562851070874], [28.710104355444784, 47.119544861947745], [28.710130132914056, 47.11952647926245], [28.71015591036559, 47.11950809657151], [28.71018168779937, 47.11948971387495], [28.7102074652154, 47.119471331172754], [28.710206888618508, 47.119453342050306], [28.710232666008473, 47.11943495934266], [28.710258443380688, 47.11941657662939], [28.710284220735158, 47.11939819391049], [28.71030999807187, 47.11937981118596], [28.71030942144226, 47.119361822064185], [28.710335198752908, 47.119343439334195], [28.71036097604581, 47.11932505659859], [28.71038675332096, 47.11930667385735], [28.71041253057836, 47.11928829111048], [28.710411953916037, 47.11927030198938], [28.710437731147373, 47.119251919237065], [28.710463508360956, 47.11923353647911], [28.71048928555679, 47.119215153715544], [28.710515062734878, 47.11919677094633], [28.71051448603984, 47.11917878182591], [28.71054026319186, 47.11916039905124], [28.710566040326132, 47.119142016270956], [28.71059181744265, 47.119123633485046], [28.71061759454143, 47.119105250693494], [28.710617017813675, 47.11908726157374], [28.71064279488638, 47.119068878776744], [28.71066857194134, 47.11905049597412], [28.71069434897855, 47.11903211316586], [28.710720125998, 47.11901373035198], [28.71071954923754, 47.1189957412329], [28.710745326230935, 47.11897735841358], [28.71077110320658, 47.11895897558861], [28.71079688016447, 47.11894059275803], [28.710822657104615, 47.118922209921806], [28.710822080311438, 47.11890422080339], [28.71084785722552, 47.118885837961734], [28.71087363412185, 47.11886745511443], [28.71089941100043, 47.11884907226152], [28.710925187861264, 47.118830689402955], [28.710924611035377, 47.118812700285226], [28.71095038787014, 47.11879431742122], [28.71097616468716, 47.118775934551586], [28.711001941486426, 47.11875755167632], [28.71102771826795, 47.118739168795415], [28.71102714140935, 47.11872117967836], [28.711052918164803, 47.118702796792014], [28.711078694902504, 47.11868441390005], [28.711104471622466, 47.11866603100244], [28.71113024832467, 47.11864764809922], [28.711129671433362, 47.11862965898282], [28.7111554481095, 47.11861127607415], [28.7111812247679, 47.11859289315985], [28.711207001408543, 47.11857451023992], [28.71123277803144, 47.11855612731434], [28.711232201107414, 47.11853813819863], [28.71125797770425, 47.11851975526761], [28.71128375428333, 47.118501372330975], [28.711309530844666, 47.118482989388696], [28.71133530738825, 47.11846460644079], [28.711334730431517, 47.11844661732575], [28.711360506949035, 47.1184282343724], [28.71138628344881, 47.118409851413425], [28.711412059930836, 47.11839146844882], [28.71143783639511, 47.11837308547858], [28.71143725940566, 47.11835509636422], [28.71146303584387, 47.11833671338853], [28.711488812264335, 47.11831833040722], [28.71151458866705, 47.11829994742028], [28.711540365052016, 47.118281564427704], [28.711539788029857, 47.11826357531401], [28.711565564388753, 47.118245192315996], [28.71159134072991, 47.11822680931234], [28.711617117053315, 47.11820842630306], [28.71161654000676, 47.11819043718985], [28.7116423163041, 47.118172054175126], [28.71166809258369, 47.11815367115477], [28.711693868845536, 47.118135288128784], [28.711719645089627, 47.11811690509717], [28.711719068010364, 47.11809891598464], [28.711744844228395, 47.11808053294759], [28.71177062042868, 47.118062149904894], [28.71179639661121, 47.11804376685657], [28.711822172776, 47.11802538380261], [28.711821595664027, 47.11800739469078], [28.711847371802747, 47.11798901163137], [28.711873147923722, 47.11797062856636], [28.711898924026947, 47.117952245495694], [28.711924700112426, 47.11793386241942], [28.711950476180156, 47.11791547933749], [28.71197625223014, 47.11789709624995], [28.71200202826237, 47.11787871315677], [28.712027804276858, 47.117860330057965], [28.712053580273597, 47.117841946953526], [28.712079356252584, 47.11782356384346], [28.712105132213832, 47.11780518072777], [28.712130908157324, 47.11778679760644], [28.712156684083073, 47.1177684144795], [28.71218245999107, 47.11775003134692], [28.712208813118046, 47.11774963731779], [28.712234588998868, 47.11773125417376], [28.712260364861937, 47.117712871024096], [28.712286140707263, 47.11769448786882], [28.712311916534844, 47.1176761047079], [28.71233826962353, 47.11767571064946], [28.712364622711664, 47.11767531658496], [28.71239039850263, 47.11765693340678], [28.712416751580776, 47.117656539330405], [28.712442527344567, 47.117638156140785], [28.712468303090603, 47.117619772945545], [28.71249465614933, 47.11761937885148], [28.712520431868192, 47.117600995644786], [28.712546207569307, 47.117582612432464], [28.712571983252676, 47.11756422921452], [28.712597758918296, 47.11754584599094], [28.712623534566166, 47.11752746276173], [28.71264931019629, 47.1175090795269], [28.71267508580867, 47.11749069628643], [28.71270143880082, 47.11749030214561], [28.712727214386014, 47.11747191889369], [28.712752989953465, 47.11745353563616], [28.71277876550317, 47.11743515237299], [28.712804541035126, 47.11741676910419], [28.712830316549336, 47.117398385829766], [28.712856092045797, 47.11738000254971], [28.7128824449808, 47.11737960836794], [28.712908220450082, 47.11736122507645], [28.71293399590162, 47.11734284177932], [28.71295977133541, 47.11732445847655], [28.71298554675145, 47.117306075168166], [28.713011899648173, 47.11730568095708], [28.713037675037032, 47.11728729763725], [28.713063450408146, 47.11726891431179], [28.713089225761518, 47.1172505309807], [28.713115001097137, 47.117232147643975], [28.713141353955578, 47.11723175340359], [28.71316712926402, 47.11721337005542], [28.713192904554717, 47.117194986701634], [28.713218679827662, 47.11717660334221], [28.713244455082865, 47.117158219977156], [28.71327080790302, 47.117157825707444], [28.713296583131036, 47.11713944233096], [28.713322358341316, 47.11712105894883], [28.71334813353385, 47.11710267556108], [28.713373908708625, 47.1170842921677], [28.7134002614905, 47.11708389786868], [28.7134260366381, 47.11706551446385], [28.71345181176796, 47.1170471310534], [28.713477586880067, 47.11702874763733], [28.713503939633085, 47.1170283533148], [28.71352971471802, 47.11700996988726], [28.713555489785204, 47.11699158645412], [28.713581264834644, 47.116973203015334], [28.713607039866336, 47.11695481957092], [28.71363339258107, 47.11695442521908], [28.71365916758558, 47.116936041763225], [28.71368494257235, 47.116917658301745], [28.713710717541364, 47.11689927483463], [28.713736492492636, 47.11688089136189], [28.713762267426162, 47.11686250788351], [28.713788620093183, 47.11686211349656], [28.71381439499953, 47.11684373000674], [28.713840169888133, 47.1168253465113], [28.713865944758982, 47.11680696301022], [28.713891719612093, 47.116788579503535], [28.713918072240833, 47.11678818508725], [28.713943847066762, 47.1167698015691], [28.71396962187494, 47.116751418045325], [28.713995396665375, 47.11673303451592], [28.714021171438066, 47.11671465098089], [28.714046946193008, 47.116696267440226], [28.71407329877403, 47.11669587298882], [28.7140990735018, 47.11667748943672], [28.714124848211814, 47.116659105878995], [28.714150622904082, 47.11664072231563], [28.71417639757861, 47.116622338746645], [28.71420275012135, 47.11662194426593], [28.714228524768696, 47.11660356068549], [28.7142542993983, 47.11658517709943], [28.71428007401015, 47.11656679350775], [28.714305848604262, 47.11654840991043], [28.714332201108718, 47.116548015400404], [28.714357975675647, 47.11652963179164], [28.71438375022483, 47.11651124817725], [28.714409524756263, 47.11649286455723], [28.71443587723187, 47.116492470023694], [28.71446165173613, 47.11647408639224], [28.714487426222643, 47.11645570275516], [28.714513200691407, 47.11643731911243], [28.714539553138163, 47.116436924555394], [28.714565327579752, 47.11641854090124], [28.714591102003595, 47.11640015724146], [28.71461687640969, 47.11638177357604], [28.71464322882759, 47.116381378995506], [28.71466900320651, 47.11636299531864], [28.714694777567676, 47.116344611636165], [28.714720551911107, 47.11632622794805], [28.714746326236785, 47.11630784425431], [28.714772100544714, 47.116289460554924], [28.714746326236785, 47.11630784425431], [28.714719973856607, 47.116308238858096], [28.714694199521492, 47.11632662254602], [28.714668425168643, 47.11634500622832], [28.714642650798037, 47.116363389905], [28.714616298389007, 47.11636378448528], [28.714590523991227, 47.116382168150515], [28.7145647495757, 47.11640055181012], [28.71453897514243, 47.11641893546409], [28.714512622704547, 47.11641933002088], [28.714486848244096, 47.1164377136634], [28.7144610737659, 47.11645609730032], [28.714435299269955, 47.11647448093159], [28.714408946803218, 47.11647487546488], [28.714383172280098, 47.11649325908471], [28.71435739773923, 47.11651164269892], [28.714331623180616, 47.116530026307494], [28.71430527068503, 47.116530420817284], [28.71427949609924, 47.116548804414414], [28.714253721495698, 47.11656718800591], [28.714227946874416, 47.11658557159179], [28.71420217223539, 47.11660395517204], [28.714175819701516, 47.116604349652505], [28.71415004503531, 47.11662273322131], [28.714124270351352, 47.11664111678448], [28.714098495649647, 47.11665950034203], [28.7140727209302, 47.116677883893935], [28.714046946193008, 47.116696267440226], [28.714020593611423, 47.11669666188558], [28.713994818847052, 47.11671504542043], [28.713969044064932, 47.116733428949644], [28.713943269265066, 47.11675181247323], [28.713917494447454, 47.11677019599119], [28.713891141827585, 47.11677059040722], [28.71386536698279, 47.116788973913756], [28.713839592120255, 47.116807357414636], [28.713813817239974, 47.116825740909896], [28.713788042341942, 47.11684412439952], [28.713761689683793, 47.116844518786245], [28.71373591475858, 47.11686290226442], [28.71371013981563, 47.11688128573699], [28.71368436485492, 47.11689966920391], [28.713658589876474, 47.11691805266522], [28.713632814880278, 47.11693643612088], [28.713606462174415, 47.11693683047247], [28.713580687151037, 47.116955213916704], [28.713554912109913, 47.116973597355305], [28.713529137051047, 47.116991980788264], [28.71350336197443, 47.117010364215616], [28.713477009230285, 47.11701075853788], [28.71345123412649, 47.117029141953786], [28.71342545900495, 47.11704752536405], [28.71339968386566, 47.11706590876871], [28.713373908708625, 47.1170842921677], [28.713347555926198, 47.117084686460664], [28.713321780741982, 47.117103069848234], [28.713296005540023, 47.117121453230176], [28.71327023032032, 47.11713983660648], [28.713244455082865, 47.117158219977156], [28.71321810226215, 47.11715861424081], [28.713192326997518, 47.11717699760005], [28.713166551715137, 47.11719538095365], [28.713140776415013, 47.117213764301624], [28.713115001097137, 47.117232147643975], [28.71308864823814, 47.117232541878316], [28.71306287289309, 47.11725092520922], [28.71303709753029, 47.1172693085345], [28.713011322149743, 47.117287691854145], [28.71298554675145, 47.117306075168166], [28.712959193854175, 47.117306469373176], [28.7129334184287, 47.11732485267577], [28.712907642985478, 47.11734323597272], [28.712881867524516, 47.117361619264024], [28.712856092045797, 47.11738000254971], [28.71282973911024, 47.11738039672541], [28.712803963604348, 47.117398779999654], [28.7127781880807, 47.11741716326827], [28.712752412539313, 47.117435546531254], [28.71272663698018, 47.11745392978861], [28.7127008614033, 47.11747231304033], [28.712674508420026, 47.117472707180916], [28.712648732815964, 47.11749109042119], [28.712622957194153, 47.11750947365585], [28.7125971815546, 47.117527856884855], [28.712571405897297, 47.11754624010826], [28.71254563022224, 47.117564623326025], [28.712519854529447, 47.117583006538155], [28.7124940788189, 47.11760138974466], [28.71246772576905, 47.11760178383848], [28.712441950031323, 47.11762016703354], [28.712416174275855, 47.11763855022298], [28.71239039850263, 47.11765693340678], [28.71236404542393, 47.117657327477104], [28.71233769234467, 47.117657721541356], [28.712311916534844, 47.1176761047079], [28.712286140707263, 47.11769448786882], [28.712259787608584, 47.11769488191538], [28.71223401175383, 47.11771326506485], [28.712208235881327, 47.1177316482087], [28.71218245999107, 47.11775003134692], [28.712156684083073, 47.1177684144795], [28.712130908157324, 47.11778679760644], [28.712105132213832, 47.11780518072777], [28.712079356252584, 47.11782356384346], [28.712053580273597, 47.117841946953526], [28.712027804276858, 47.117860330057965], [28.71200202826237, 47.11787871315677], [28.71197625223014, 47.11789709624995], [28.711950476180156, 47.11791547933749], [28.71195105333371, 47.11793346844842], [28.711925277257667, 47.11795185153052], [28.711899501163874, 47.11797023460699], [28.711873725052328, 47.11798861767783], [28.71184794892304, 47.11800700074304], [28.711848526043884, 47.11802498985465], [28.71182274988853, 47.118043372914414], [28.711796973715426, 47.11806175596854], [28.711771197524577, 47.11808013901705], [28.711745421315975, 47.11809852205993], [28.71174599840411, 47.118116511172204], [28.71172022216945, 47.11813489420964], [28.711694445917036, 47.11815327724143], [28.711668669646876, 47.1181716602676], [28.71164289335897, 47.118190043288145], [28.711643470414398, 47.11820803240111], [28.711617694100422, 47.1182264154162], [28.711591917768704, 47.11824479842567], [28.711566141419233, 47.1182631814295], [28.711540365052016, 47.118281564427704], [28.711540942074727, 47.118299553541334], [28.711515165681448, 47.11831793653409], [28.711489389270415, 47.11833631952122], [28.71146361284164, 47.11835470250272], [28.71143783639511, 47.11837308547858], [28.711438413385114, 47.118391074592886], [28.711412636912517, 47.11840945756331], [28.71138686042218, 47.1184278405281], [28.71136108391409, 47.11844622348726], [28.71133530738825, 47.11846460644079], [28.711335884345544, 47.11848259555578], [28.711310107793643, 47.11850097850387], [28.71128433122399, 47.118519361446324], [28.71125855463659, 47.11853774438315], [28.71123277803144, 47.11855612731434], [28.711233354956025, 47.11857411642999], [28.71120757832481, 47.11859249935574], [28.711181801675846, 47.11861088227587], [28.71115602500913, 47.11862926519036], [28.71113024832467, 47.11864764809922], [28.711130825216543, 47.11866563721554], [28.711105048506017, 47.118684020118955], [28.71107927177775, 47.11870240301674], [28.71105349503172, 47.1187207859089], [28.71102771826795, 47.118739168795415], [28.71102829512711, 47.11875715791243], [28.711002518337274, 47.1187755407935], [28.710976741529684, 47.11879392366895], [28.71095096470435, 47.118812306538764], [28.710925187861264, 47.118830689402955], [28.710925764687712, 47.118848678520635], [28.710899987818564, 47.11886706137936], [28.71087421093166, 47.118885444232475], [28.71084843402701, 47.11890382707997], [28.71084901082906, 47.118921816198124], [28.710823233898353, 47.11894019904015], [28.710797456949887, 47.118958581876555], [28.710771679983676, 47.118976964707336], [28.710745902999715, 47.118995347532476], [28.710746479769053, 47.119013336651314], [28.710720702759026, 47.11903171947102], [28.71069492573125, 47.11905010228508], [28.71066914868572, 47.119068485093514], [28.710643371622453, 47.11908686789633], [28.710643948359074, 47.119104857015834], [28.710618171269736, 47.1191232398132], [28.710592394162646, 47.11914162260492], [28.710566617037806, 47.119160005391024], [28.71054083989522, 47.11917838817149], [28.71054141659913, 47.119196377291686], [28.710515639430472, 47.1192147600667], [28.71048986224407, 47.119233142836094], [28.710464085039913, 47.11925152559986], [28.71043830781801, 47.119269908357985], [28.710438884489214, 47.11928789747884], [28.710413107241244, 47.11930628023153], [28.710387329975525, 47.119324662978585], [28.710361552692053, 47.11934304572001], [28.71033577539084, 47.1193614284558], [28.71033635202932, 47.119379417577335], [28.71031057470203, 47.11939780030768], [28.710284797357005, 47.11941618303239], [28.710259019994215, 47.119434565751476], [28.710233242613686, 47.11945294846494], [28.71023381921945, 47.119470937587145], [28.710208041812855, 47.119489320295145], [28.710182264388507, 47.119507702997524], [28.71015648694641, 47.119526085694275], [28.710130709486556, 47.11954446838539], [28.710131286059614, 47.11956245750827], [28.7101055085737, 47.11958084019393], [28.71007973107003, 47.11959922287397], [28.710053953548616, 47.11961760554839], [28.710028176009452, 47.119635988217176], [28.71002875254979, 47.11965397734073], [28.710002974984558, 47.11967236000407], [28.709977197401578, 47.11969074266177], [28.709951419800845, 47.119709125313825], [28.709925642182366, 47.11972750796026], [28.709926218689986, 47.119745497084494], [28.709900441045438, 47.11976387972549], [28.709874663383143, 47.11978226236086], [28.709848885703092, 47.119800644990576], [28.709823108005295, 47.11981902761468], [28.709823684480202, 47.11983701673958], [28.70979790675634, 47.11985539935823], [28.70977212901472, 47.11987378197126], [28.709746351255355, 47.119892164578644], [28.70972057347824, 47.11991054718041], [28.70972114992043, 47.11992853630599], [28.70969537211725, 47.11994691890231], [28.709669594296315, 47.11996530149298], [28.709643816457632, 47.119983684078036], [28.709644392875422, 47.1200016732041], [28.709618615010672, 47.120020055783705], [28.709592837128174, 47.120038438357675], [28.709567059227922, 47.12005682092602], [28.709567635621315, 47.12007481005258], [28.709541857694997, 47.12009319261548], [28.709516079750923, 47.12011157517275], [28.709490301789103, 47.12012995772439], [28.709464523809533, 47.12014834027039], [28.709465100170213, 47.12016632939761], [28.70943932216457, 47.12018471193817], [28.709413544141185, 47.12020309447309], [28.709387766100047, 47.12022147700239], [28.709388342436327, 47.120239466130116], [28.709362564369115, 47.120257848653964], [28.709336786284155, 47.12027623117217], [28.709311008181448, 47.12029461368477], [28.709311584493328, 47.120312602812966], [28.70928580636455, 47.1203309853201], [28.70926002821803, 47.12034936782162], [28.709234250053747, 47.12036775031749], [28.709208471871722, 47.12038613280773], [28.70920904815088, 47.120404121936616], [28.709183269942788, 47.120422504421406], [28.709157491716937, 47.12044088690058], [28.709131713473344, 47.120459269374116], [28.709132289728103, 47.120477258503485], [28.709106511458437, 47.120495640971576], [28.709080733171017, 47.12051402343404], [28.709054954865856, 47.12053240589087], [28.709055531096215, 47.12055039502073], [28.709029752764977, 47.12056877747211], [28.70900397441599, 47.12058715991786], [28.70897819604925, 47.12060554235798], [28.708952417664765, 47.12062392479246], [28.70895299386241, 47.120641913922995], [28.70892721545185, 47.120660296352035], [28.708901437023545, 47.120678678775434], [28.708875658577483, 47.120697061193205], [28.708876234750726, 47.12071505032424], [28.708850456278597, 47.120733432736564], [28.708824677788716, 47.120751815143265], [28.70879889928109, 47.120770197544324], [28.708799475429927, 47.120788186675846], [28.70877369689623, 47.12080656907146], [28.70874791834478, 47.120824951461444], [28.70872213977558, 47.12084333384581], [28.708722715900024, 47.1208613229778], [28.70869693730475, 47.120879705356714], [28.70867115869173, 47.12089808772999], [28.708645380060954, 47.12091647009764], [28.708619601412433, 47.120934852459655], [28.70862017750415, 47.12095284159233], [28.70859439882956, 47.1209712239489], [28.708568620137218, 47.12098960629983], [28.70854284142712, 47.12100798864513], [28.708543417494447, 47.121025977778295], [28.70851763875828, 47.121044360118155], [28.70849186000436, 47.12106274245238], [28.708466081232693, 47.12108112478098], [28.70846665727561, 47.12109911391463], [28.708440878477877, 47.12111749623779], [28.70841509966239, 47.12113587855529], [28.708389320829145, 47.12115426086717], [28.708363541978155, 47.12117264317342], [28.70836411798836, 47.121190632307766], [28.708338339111293, 47.12120901460856], [28.708312560216484, 47.12122739690373], [28.70828678130392, 47.12124577919328], [28.70828735728972, 47.121263768328085], [28.70826157835108, 47.12128215061219], [28.7082357993947, 47.12130053289064], [28.70821002042056, 47.12131891516347], [28.708210596381956, 47.12133690429878], [28.70818481738175, 47.121355286566164], [28.708159038363792, 47.12137366882792], [28.708133259328083, 47.12139205108402], [28.70810748027462, 47.121410433334525], [28.70810805620329, 47.1214284224705], [28.708082277123758, 47.12144680471554], [28.70805649802648, 47.12146518695494], [28.70803071891144, 47.121483569188726], [28.70803129481571, 47.1215015583252], [28.70800551567461, 47.121519940553526], [28.70797973651575, 47.12153832277622], [28.70795395733914, 47.12155670499329], [28.70795453321901, 47.121574694130246], [28.707928754016333, 47.12159307634186], [28.707929329888437, 47.12161106547894], [28.707929905761098, 47.12162905461595], [28.707904126524028, 47.1216474368223], [28.70790470238892, 47.12166542595944], [28.707878923125776, 47.121683808160356], [28.707879498982912, 47.12170179729761], [28.7078537196937, 47.12172017949307], [28.707854295543065, 47.12173816863045], [28.707854871392993, 47.12175615776776], [28.707829092069392, 47.12177453995797], [28.707803312728036, 47.12179292214251], [28.707803888561877, 47.121810911280136], [28.707778109194447, 47.12182929345926], [28.70775232980927, 47.121847675632736], [28.70775290562703, 47.12186566477067], [28.70772712621578, 47.12188404693869], [28.70772770202577, 47.12190203607674], [28.707701922588452, 47.12192041823933], [28.707676143133373, 47.12193880039627], [28.707676718927285, 47.12195678953465], [28.70765093944614, 47.12197517168616], [28.707625159947245, 47.12199355383202], [28.70759938043059, 47.12201193597227], [28.707573600896197, 47.12203031810687], [28.70754782134404, 47.12204870023585], [28.707522041774137, 47.122067082359195], [28.70752261751868, 47.12208507149858], [28.7074968379227, 47.12210345361649], [28.707471058308972, 47.122121835728755], [28.707445278677493, 47.12214021783539], [28.70741949902826, 47.122158599936384], [28.70742007474008, 47.12217658907645], [28.707394295064773, 47.12219497117201], [28.707394870768834, 47.12221296031219], [28.70739544647345, 47.12223094945232], [28.70739602217862, 47.1222489385924], [28.70739659788435, 47.1222669277324], [28.707397173590632, 47.12228491687234], [28.70739774929747, 47.122302906012216], [28.707398325004863, 47.122320895152036], [28.70739890071281, 47.12233888429179], [28.70739947642132, 47.122356873431485], [28.707400052130378, 47.1223748625711], [28.70740062784, 47.12239285171068], [28.707374848055423, 47.12241123380261], [28.707375423757277, 47.122429222942294], [28.70737599945969, 47.12244721208194], [28.707376575162655, 47.122465201221495], [28.707377150866176, 47.122483190360995], [28.707377726570254, 47.12250117950043], [28.70737830227489, 47.12251916863982], [28.707378877980076, 47.12253715777914], [28.70737945368582, 47.1225551469184], [28.707380029392127, 47.12257313605759], [28.70738060509898, 47.122591125196706], [28.7073811808064, 47.12260911433579], [28.707355400912544, 47.12262749642411], [28.70735597661219, 47.122645485563304], [28.707356552312397, 47.122663474702435], [28.70735712801316, 47.122681463841495], [28.707357703714475, 47.12269945298049], [28.707358279416347, 47.12271744211944], [28.70735885511878, 47.12273543125832], [28.707359430821764, 47.122753420397125], [28.707360006525303, 47.122771409535886], [28.707360582229402, 47.12278939867457], [28.707361157934056, 47.122807387813204], [28.707361733639267, 47.12282537695179], [28.707362309345033, 47.12284336609028], [28.707362885051353, 47.12286135522872], [28.70736346075823, 47.122879344367114], [28.707364036465663, 47.12289733350543], [28.70736461217365, 47.12291532264368], [28.707365187882193, 47.122933311781885], [28.707365763591298, 47.12295130092001], [28.70736633930095, 47.12296929005809], [28.707366915011168, 47.122987279196096], [28.707367490721932, 47.12300526833404], [28.707368066433258, 47.12302325747192], [28.707368642145138, 47.12304124660975], [28.707377621998358, 47.12303346369267]]}, "properties": {"name": "farmer", "length_m": 2951.24}}]}