{"type": "FeatureCollection", "features": [{"type": "Feature", "geometry": {"type": "LineString", "coordinates": [[28.70936260927593, 47.122064684906576], [28.709352891416444, 47.12207205155167]]}, "properties": {"vineyard_id": "V01", "row_id": "V01-R01", "row_structure": "regular", "tile": "siret3_r021_c012.tif"}}, {"type": "Feature", "geometry": {"type": "LineString", "coordinates": [[28.709361408277314, 47.12202720007312], [28.709309767555506, 47.122072695248185]]}, "properties": {"vineyard_id": "V01", "row_id": "V01-R02", "row_structure": "regular", "tile": "siret3_r021_c012.tif"}}, {"type": "Feature", "geometry": {"type": "LineString", "coordinates": [[28.709360014199767, 47.121983688883354], [28.709262789230124, 47.12207339646062]]}, "properties": {"vineyard_id": "V01", "row_id": "V01-R03", "row_structure": "regular", "tile": "siret3_r021_c012.tif"}}, {"type": "Feature", "geometry": {"type": "LineString", "coordinates": [[28.709358742602163, 47.121944000381795], [28.709217425165296, 47.122074073559816]]}, "properties": {"vineyard_id": "V01", "row_id": "V01-R04", "row_structure": "regular", "tile": "siret3_r021_c012.tif"}}, {"type": "Feature", "geometry": {"type": "LineString", "coordinates": [[28.70935729665848, 47.121898870170305], [28.709167119479282, 47.12207482439609]]}, "properties": {"vineyard_id": "V01", "row_id": "V01-R05", "row_structure": "regular", "tile": "siret3_r021_c012.tif"}}, {"type": "Feature", "geometry": {"type": "LineString", "coordinates": [[28.709355929967558, 47.12185621346282], [28.70912129419313, 47.12207550834101]]}, "properties": {"vineyard_id": "V01", "row_id": "V01-R06", "row_structure": "regular", "tile": "siret3_r021_c012.tif"}}, {"type": "Feature", "geometry": {"type": "LineString", "coordinates": [[28.709354595699832, 47.12181456864317], [28.709073294592542, 47.12207622471802]]}, "properties": {"vineyard_id": "V01", "row_id": "V01-R07", "row_structure": "regular", "tile": "siret3_r021_c012.tif"}}, {"type": "Feature", "geometry": {"type": "LineString", "coordinates": [[28.709353219649312, 47.12177161961173], [28.709020583978923, 47.122077011382046]]}, "properties": {"vineyard_id": "V01", "row_id": "V01-R08", "row_structure": "regular", "tile": "siret3_r021_c012.tif"}}, {"type": "Feature", "geometry": {"type": "LineString", "coordinates": [[28.70935191420536, 47.121730874247554], [28.708974231581234, 47.122077703134686]]}, "properties": {"vineyard_id": "V01", "row_id": "V01-R09", "row_structure": "regular", "tile": "siret3_r021_c012.tif"}}, {"type": "Feature", "geometry": {"type": "LineString", "coordinates": [[28.70935011742349, 47.12167479315529], [28.7089132849292, 47.12207861266009]]}, "properties": {"vineyard_id": "V01", "row_id": "V01-R10", "row_structure": "regular", "tile": "siret3_r021_c012.tif"}}, {"type": "Feature", "geometry": {"type": "LineString", "coordinates": [[28.709348389809136, 47.121620870757255], [28.7088538866487, 47.12207949904744]]}, "properties": {"vineyard_id": "V01", "row_id": "V01-R11", "row_structure": "regular", "tile": "siret3_r021_c012.tif"}}, {"type": "Feature", "geometry": {"type": "LineString", "coordinates": [[28.709317151516885, 47.12161184324164], [28.708812607642344, 47.12208011502672]]}, "properties": {"vineyard_id": "V01", "row_id": "V01-R12", "row_structure": "regular", "tile": "siret3_r021_c012.tif"}}, {"type": "Feature", "geometry": {"type": "LineString", "coordinates": [[28.709271754901838, 47.12161252084908], [28.70876875899164, 47.1220807693348]]}, "properties": {"vineyard_id": "V01", "row_id": "V01-R13", "row_structure": "regular", "tile": "siret3_r021_c012.tif"}}, {"type": "Feature", "geometry": {"type": "LineString", "coordinates": [[28.7092238874968, 47.12161323531698], [28.708725009171815, 47.12208142215138]]}, "properties": {"vineyard_id": "V01", "row_id": "V01-R14", "row_structure": "regular", "tile": "siret3_r021_c012.tif"}}, {"type": "Feature", "geometry": {"type": "LineString", "coordinates": [[28.70918082989139, 47.12161387797679], [28.708687922143238, 47.12207502391417]]}, "properties": {"vineyard_id": "V01", "row_id": "V01-R15", "row_structure": "regular", "tile": "siret3_r021_c012.tif"}}, {"type": "Feature", "geometry": {"type": "LineString", "coordinates": [[28.70913691574449, 47.12161453340431], [28.708686680568377, 47.12203625734217]]}, "properties": {"vineyard_id": "V01", "row_id": "V01-R16", "row_structure": "regular", "tile": "siret3_r021_c012.tif"}}, {"type": "Feature", "geometry": {"type": "LineString", "coordinates": [[28.709091749729815, 47.12161520749863], [28.70868539578597, 47.121996141585235]]}, "properties": {"vineyard_id": "V01", "row_id": "V01-R17", "row_structure": "regular", "tile": "siret3_r021_c012.tif"}}, {"type": "Feature", "geometry": {"type": "LineString", "coordinates": [[28.709041642136135, 47.12161595532423], [28.7086839302444, 47.1219503817388]]}, "properties": {"vineyard_id": "V01", "row_id": "V01-R18", "row_structure": "regular", "tile": "siret3_r021_c012.tif"}}, {"type": "Feature", "geometry": {"type": "LineString", "coordinates": [[28.708992621687514, 47.12161668690361], [28.70868251151717, 47.1219060835087]]}, "properties": {"vineyard_id": "V01", "row_id": "V01-R19", "row_structure": "regular", "tile": "siret3_r021_c012.tif"}}, {"type": "Feature", "geometry": {"type": "LineString", "coordinates": [[28.70894485310333, 47.12161739978002], [28.708681190015398, 47.12186482094376]]}, "properties": {"vineyard_id": "V01", "row_id": "V01-R20", "row_structure": "regular", "tile": "siret3_r021_c012.tif"}}, {"type": "Feature", "geometry": {"type": "LineString", "coordinates": [[28.70889972002556, 47.12161807330701], [28.70867989588271, 47.121824412862146]]}, "properties": {"vineyard_id": "V01", "row_id": "V01-R21", "row_structure": "regular", "tile": "siret3_r021_c012.tif"}}, {"type": "Feature", "geometry": {"type": "LineString", "coordinates": [[28.708855707037202, 47.12161873010163], [28.708678516773894, 47.12178135138364]]}, "properties": {"vineyard_id": "V01", "row_id": "V01-R22", "row_structure": "regular", "tile": "siret3_r021_c012.tif"}}, {"type": "Feature", "geometry": {"type": "LineString", "coordinates": [[28.708806093591875, 47.12161947045014], [28.708677248572727, 47.12174175281219]]}, "properties": {"vineyard_id": "V01", "row_id": "V01-R23", "row_structure": "regular", "tile": "siret3_r021_c012.tif"}}, {"type": "Feature", "geometry": {"type": "LineString", "coordinates": [[28.708762838308918, 47.12162011590246], [28.70867600846039, 47.121703031210544]]}, "properties": {"vineyard_id": "V01", "row_id": "V01-R24", "row_structure": "regular", "tile": "siret3_r021_c012.tif"}}, {"type": "Feature", "geometry": {"type": "LineString", "coordinates": [[28.70872208675765, 47.12162072397931], [28.708674779152975, 47.12166464690479]]}, "properties": {"vineyard_id": "V01", "row_id": "V01-R25", "row_structure": "regular", "tile": "siret3_r021_c012.tif"}}, {"type": "Feature", "geometry": {"type": "LineString", "coordinates": [[28.70418457611892, 47.12901779591459], [28.704159275035963, 47.12906057951346]]}, "properties": {"vineyard_id": "V02", "row_id": "V02-R01", "row_structure": "regular", "tile": "siret3_r006_c004.tif"}}, {"type": "Feature", "geometry": {"type": "LineString", "coordinates": [[28.704182755573033, 47.1289608152856], [28.704124777925152, 47.129061092867246]]}, "properties": {"vineyard_id": "V02", "row_id": "V02-R02", "row_structure": "regular", "tile": "siret3_r006_c004.tif"}}, {"type": "Feature", "geometry": {"type": "LineString", "coordinates": [[28.70418091922694, 47.1289033399544], [28.70408764493088, 47.129061645434156]]}, "properties": {"vineyard_id": "V02", "row_id": "V02-R03", "row_structure": "regular", "tile": "siret3_r006_c004.tif"}}, {"type": "Feature", "geometry": {"type": "LineString", "coordinates": [[28.704178931295285, 47.1288411199844], [28.70404774425879, 47.129062239172775]]}, "properties": {"vineyard_id": "V02", "row_id": "V02-R04", "row_structure": "regular", "tile": "siret3_r006_c004.tif"}}, {"type": "Feature", "geometry": {"type": "LineString", "coordinates": [[28.704176979292246, 47.128780024335526], [28.704013840218504, 47.1290627436681]]}, "properties": {"vineyard_id": "V02", "row_id": "V02-R05", "row_structure": "regular", "tile": "siret3_r006_c004.tif"}}, {"type": "Feature", "geometry": {"type": "LineString", "coordinates": [[28.704175063935896, 47.12872007549423], [28.70397786041964, 47.1290632790399]]}, "properties": {"vineyard_id": "V02", "row_id": "V02-R06", "row_structure": "disrupted", "tile": "siret3_r006_c004.tif"}}, {"type": "Feature", "geometry": {"type": "LineString", "coordinates": [[28.704173331786606, 47.1286658606938], [28.703938684611828, 47.129063861954776]]}, "properties": {"vineyard_id": "V02", "row_id": "V02-R07", "row_structure": "disrupted", "tile": "siret3_r006_c004.tif"}}, {"type": "Feature", "geometry": {"type": "LineString", "coordinates": [[28.704171269163307, 47.128601302131436], [28.70390207878861, 47.12906440661756]]}, "properties": {"vineyard_id": "V02", "row_id": "V02-R08", "row_structure": "disrupted", "tile": "siret3_r006_c004.tif"}}, {"type": "Feature", "geometry": {"type": "LineString", "coordinates": [[28.704137477714795, 47.12860016269808], [28.703867186288264, 47.12906492577668]]}, "properties": {"vineyard_id": "V02", "row_id": "V02-R09", "row_structure": "disrupted", "tile": "siret3_r006_c004.tif"}}, {"type": "Feature", "geometry": {"type": "LineString", "coordinates": [[28.704100971058246, 47.12860070594946], [28.703833578779925, 47.12906542580659]]}, "properties": {"vineyard_id": "V02", "row_id": "V02-R10", "row_structure": "regular", "tile": "siret3_r006_c004.tif"}}, {"type": "Feature", "geometry": {"type": "LineString", "coordinates": [[28.704062223919806, 47.12860128252845], [28.703792986180414, 47.12906602975114]]}, "properties": {"vineyard_id": "V02", "row_id": "V02-R11", "row_structure": "regular", "tile": "siret3_r006_c004.tif"}}, {"type": "Feature", "geometry": {"type": "LineString", "coordinates": [[28.704026013795293, 47.128601821343395], [28.70375822547119, 47.12906654691624]]}, "properties": {"vineyard_id": "V02", "row_id": "V02-R12", "row_structure": "regular", "tile": "siret3_r006_c004.tif"}}, {"type": "Feature", "geometry": {"type": "LineString", "coordinates": [[28.703990034307477, 47.12860235671507], [28.703720795929176, 47.12906710377609]]}, "properties": {"vineyard_id": "V02", "row_id": "V02-R13", "row_structure": "regular", "tile": "siret3_r006_c004.tif"}}, {"type": "Feature", "geometry": {"type": "LineString", "coordinates": [[28.70395300047462, 47.12860290776351], [28.703684585482094, 47.129067642487136]]}, "properties": {"vineyard_id": "V02", "row_id": "V02-R14", "row_structure": "regular", "tile": "siret3_r006_c004.tif"}}, {"type": "Feature", "geometry": {"type": "LineString", "coordinates": [[28.70391705393296, 47.12860344262201], [28.703645409665107, 47.12906822530175]]}, "properties": {"vineyard_id": "V02", "row_id": "V02-R15", "row_structure": "regular", "tile": "siret3_r006_c004.tif"}}, {"type": "Feature", "geometry": {"type": "LineString", "coordinates": [[28.70388084380425, 47.128603981391095], [28.703609627546914, 47.12906875761695]]}, "properties": {"vineyard_id": "V02", "row_id": "V02-R16", "row_structure": "regular", "tile": "siret3_r006_c004.tif"}}, {"type": "Feature", "geometry": {"type": "LineString", "coordinates": [[28.70384460072624, 47.12860452063895], [28.703574932729687, 47.129069273746154]]}, "properties": {"vineyard_id": "V02", "row_id": "V02-R17", "row_structure": "regular", "tile": "siret3_r006_c004.tif"}}, {"type": "Feature", "geometry": {"type": "LineString", "coordinates": [[28.70380789637162, 47.12860506673828], [28.703537931513292, 47.12906982417437]]}, "properties": {"vineyard_id": "V02", "row_id": "V02-R18", "row_structure": "regular", "tile": "siret3_r006_c004.tif"}}, {"type": "Feature", "geometry": {"type": "LineString", "coordinates": [[28.703774289151905, 47.128605566747105], [28.70351066676502, 47.129055269166436]]}, "properties": {"vineyard_id": "V02", "row_id": "V02-R19", "row_structure": "regular", "tile": "siret3_r006_c004.tif"}}, {"type": "Feature", "geometry": {"type": "LineString", "coordinates": [[28.703736365709755, 47.12860613096091], [28.703508732748507, 47.128994713173284]]}, "properties": {"vineyard_id": "V02", "row_id": "V02-R20", "row_structure": "regular", "tile": "siret3_r006_c004.tif"}}, {"type": "Feature", "geometry": {"type": "LineString", "coordinates": [[28.70370282438463, 47.1286066299684], [28.703507015622893, 47.12894094808556]]}, "properties": {"vineyard_id": "V02", "row_id": "V02-R21", "row_structure": "regular", "tile": "siret3_r006_c004.tif"}}, {"type": "Feature", "geometry": {"type": "LineString", "coordinates": [[28.703665856439795, 47.12860717994367], [28.703505348055206, 47.12888873456193]]}, "properties": {"vineyard_id": "V02", "row_id": "V02-R22", "row_structure": "regular", "tile": "siret3_r006_c004.tif"}}, {"type": "Feature", "geometry": {"type": "LineString", "coordinates": [[28.703626713908776, 47.12860776225743], [28.703503259652308, 47.128823343981246]]}, "properties": {"vineyard_id": "V02", "row_id": "V02-R23", "row_structure": "disrupted", "tile": "siret3_r006_c004.tif"}}, {"type": "Feature", "geometry": {"type": "LineString", "coordinates": [[28.703591788753805, 47.12860828181904], [28.703501419738092, 47.12876573370968]]}, "properties": {"vineyard_id": "V02", "row_id": "V02-R24", "row_structure": "regular", "tile": "siret3_r006_c004.tif"}}, {"type": "Feature", "geometry": {"type": "LineString", "coordinates": [[28.703557423718294, 47.12860879303766], [28.703499625073146, 47.128709540083506]]}, "properties": {"vineyard_id": "V02", "row_id": "V02-R25", "row_structure": "regular", "tile": "siret3_r006_c004.tif"}}, {"type": "Feature", "geometry": {"type": "LineString", "coordinates": [[28.70352098294135, 47.12860933512399], [28.70349776578012, 47.12865132267666]]}, "properties": {"vineyard_id": "V02", "row_id": "V02-R26", "row_structure": "regular", "tile": "siret3_r006_c004.tif"}}]}