{"type": "FeatureCollection", "name": "siret3_study_area", "crs": {"type": "name", "properties": {"name": "urn:ogc:def:crs:EPSG::32635"}}, "features": [{"type": "Feature", "properties": {"name": "study area, 311 tiles"}, "geometry": {"type": "Polygon", "coordinates": [[[28.703378625562927, 47.12492563459967], [28.703393330511986, 47.12538615731079], [28.70271859064518, 47.125396191856346], [28.70273329013965, 47.12585671468745], [28.70205854409129, 47.12586674542076], [28.7020732381309, 47.12632726837176], [28.701398485900963, 47.126337295292714], [28.701413174485413, 47.12679781836356], [28.70073841607387, 47.126807841472015], [28.700753099202885, 47.127268364662655], [28.70076778269492, 47.127728887812594], [28.700782466549995, 47.12818941092183], [28.701457242417767, 47.1281793873319], [28.701471932454925, 47.12863991023994], [28.702146713778525, 47.1286298825162], [28.702161409998045, 47.12909040522299], [28.70283619677745, 47.129080373365326], [28.703510983193357, 47.12907033753431], [28.70352569141481, 47.129530859879054], [28.704200483286346, 47.12952081991392], [28.70418576924562, 47.12906029772995], [28.70417105556868, 47.12859977550525], [28.70415634225552, 47.12813925323983], [28.704831116305897, 47.128129209783765], [28.70481639753767, 47.12766868763847], [28.705491165405324, 47.127658640370065], [28.705476441182316, 47.12719811834492], [28.705461717323345, 47.126737596279064], [28.706136473189765, 47.126727545359394], [28.706811228692033, 47.12671749046671], [28.706796493560336, 47.12625696868206], [28.707471242879937, 47.12624690997744], [28.707456502294328, 47.12578638831311], [28.707441762073145, 47.12532586660806], [28.70811649939205, 47.12531580425275], [28.708101753717376, 47.1248552826681], [28.70877648485382, 47.12484521650116], [28.70876173372594, 47.124384695036944], [28.708746982962733, 47.123924173532], [28.709421702099142, 47.1239141037148], [28.709406945883146, 47.12345358233037], [28.710081658837293, 47.12344350870187], [28.710066897168797, 47.12298298743799], [28.710741603940708, 47.12297290999832], [28.71072683682, 47.12251238885506], [28.711401537409692, 47.12250230760435], [28.711386764837066, 47.12204178658177], [28.712061459244566, 47.12203170152015], [28.712046681220293, 47.12157118061829], [28.71272136944562, 47.12156109174588], [28.712706585970004, 47.12110057096483], [28.71269180285984, 47.12064005014302], [28.713366479086496, 47.12062995762156], [28.713351690525407, 47.1201694369206], [28.714026360570095, 47.12015934058868], [28.71401156655835, 47.11969882000863], [28.71468623042109, 47.119688719866375], [28.71536089391797, 47.11967861575212], [28.716035557048844, 47.11966850766591], [28.716020745954637, 47.119207987530444], [28.716695402903326, 47.11919787563416], [28.71737005948573, 47.11918775976597], [28.718044715701712, 47.11917763992588], [28.71871937155113, 47.11916751611389], [28.719394027033832, 47.11915738833002], [28.719379187226394, 47.118696868963966], [28.720053836526404, 47.11868673737043], [28.72006868214969, 47.119147256574266], [28.72008352813997, 47.11960777573733], [28.7207581887048, 47.119597639847406], [28.72143284890247, 47.119587499985556], [28.721447706891983, 47.12004801878318], [28.722122372538454, 47.12003787478697], [28.72210750873285, 47.119577356151765], [28.72278216819578, 47.119567208346055], [28.722767298941676, 47.119106689832535], [28.72344195222111, 47.11909653821745], [28.72342707751879, 47.118636019825686], [28.723412203184175, 47.118175501393125], [28.72339732921726, 47.11771498291977], [28.72272269338475, 47.11772513404724], [28.722707825600864, 47.11726461537057], [28.722033195216188, 47.117274762363905], [28.722018333615043, 47.11681424348397], [28.721343708678212, 47.11682438634331], [28.721328853259532, 47.11636386726018], [28.721313998208075, 47.11590334813628], [28.72063938453407, 47.11591348669939], [28.720624535664623, 47.115452967372384], [28.719949927438382, 47.11546310180179], [28.719935084750666, 47.11500258227173], [28.719260481972213, 47.11501271256757], [28.71924564546594, 47.11455219283454], [28.71857104813529, 47.114562318996924], [28.71855621781018, 47.11410179906097], [28.717881625927355, 47.11411192109005], [28.717866801783106, 47.11365140095127], [28.717192215348142, 47.113661518847145], [28.716517628546892, 47.11367163277189], [28.716502816397387, 47.113211112268395], [28.715828235044167, 47.11322122206013], [28.71584304137949, 47.11368174272548], [28.715168453846093, 47.113691848707944], [28.71518325473309, 47.11415236949434], [28.715198055985958, 47.114612890240004], [28.714523456457876, 47.114622992574795], [28.714538252261992, 47.115083513441455], [28.71386364655354, 47.11509361196665], [28.713878436908615, 47.115554132954244], [28.713203825019768, 47.115564227669715], [28.713218609925523, 47.11602474877818], [28.71254399185625, 47.1160348396838], [28.7125587713124, 47.11649536091308], [28.712573551133897, 47.11695588210163], [28.711898921068936, 47.11696596935878], [28.7119136954404, 47.11742649066808], [28.711239059194828, 47.117436574115054], [28.71125382811597, 47.11789709554507], [28.710579185689753, 47.11790717518173], [28.710593949160298, 47.11836769673239], [28.70991930055341, 47.11837777255862], [28.709934058573065, 47.11883829422987], [28.709259403785484, 47.118848366245544], [28.70927415635397, 47.11930888803733], [28.709288909287146, 47.11976940978839], [28.708614242502694, 47.11977947815457], [28.708628989984273, 47.1202400000261], [28.707954317018928, 47.12025006458139], [28.707969059048626, 47.120710586573345], [28.707294379902372, 47.12072064731762], [28.707309116479898, 47.12118116942994], [28.707323853421737, 47.121641691501516], [28.70664916227778, 47.12165174859568], [28.70666389376703, 47.12211227078759], [28.705989196441955, 47.12212232407042], [28.70600392247832, 47.12258284638256], [28.706018648878754, 47.12304336865397], [28.70534393955532, 47.123053418286254], [28.70535866050245, 47.12351394067787], [28.704683944997708, 47.12352398649848], [28.704698660491253, 47.123984509010235], [28.70402393880517, 47.123994551019074], [28.70403864884485, 47.12445507365091], [28.70336392097741, 47.124465111847826], [28.703378625562927, 47.12492563459967]]]}}]}