{"type": "FeatureCollection", "features": [{"type": "Feature", "geometry": {"type": "Polygon", "coordinates": [[[28.704185, 47.1218875], [28.704215, 47.1218875], [28.704215, 47.12191249999999], [28.704185, 47.12191249999999], [28.704185, 47.1218875]]]}, "properties": {"vineyard_id": "V03", "tile": "hardcoded"}}, {"type": "Feature", "geometry": {"type": "Polygon", "coordinates": [[[28.70549, 47.123391], [28.70551, 47.123391], [28.70551, 47.123408999999995], [28.70549, 47.123408999999995], [28.70549, 47.123391]]]}, "properties": {"vineyard_id": "V05", "tile": "hardcoded"}}, {"type": "Feature", "geometry": {"type": "Polygon", "coordinates": [[[28.706780000000002, 47.124785], [28.70682, 47.124785], [28.70682, 47.124815], [28.706780000000002, 47.124815], [28.706780000000002, 47.124785]]]}, "properties": {"vineyard_id": "V08", "tile": "hardcoded"}}, {"type": "Feature", "geometry": {"type": "Polygon", "coordinates": [[[28.70379, 47.126189999999994], [28.70381, 47.126189999999994], [28.70381, 47.12621], [28.70379, 47.12621], [28.70379, 47.126189999999994]]]}, "properties": {"vineyard_id": "V11", "tile": "hardcoded"}}, {"type": "Feature", "geometry": {"type": "Polygon", "coordinates": [[[28.706084999999998, 47.122189], [28.706115, 47.122189], [28.706115, 47.122211], [28.706084999999998, 47.122211], [28.706084999999998, 47.122189]]]}, "properties": {"vineyard_id": "V04", "tile": "hardcoded"}}]}