{"type": "FeatureCollection", "crs": {"type": "name", "properties": {"name": "urn:ogc:def:crs:EPSG::32635"}}, "features": [{"type": "Feature", "geometry": {"type": "Polygon", "coordinates": [[[629657.6124999999, 5220145.947499999], [629656.4474999999, 5220147.187499999], [629653.9699999999, 5220147.187500001], [629657.6124999999, 5220142.6925], [629657.6124999999, 5220145.947499999]]]}, "properties": {"vineyard_id": "V01", "interrow_cover": "bare_soil", "tile": "siret3_r021_c012.tif"}}, {"type": "Feature", "geometry": {"type": "Polygon", "coordinates": [[[629657.6124999998, 5220141.74], [629653.1974999999, 5220147.187499999], [629650.3999999998, 5220147.187499999], [629657.6124999999, 5220137.87], [629657.6124999998, 5220141.74]]]}, "properties": {"vineyard_id": "V01", "interrow_cover": "bare_soil", "tile": "siret3_r021_c012.tif"}}, {"type": "Feature", "geometry": {"type": "Polygon", "coordinates": [[[629646.9575000001, 5220147.187500001], [629657.6125000003, 5220133.4575000005], [629657.6125000003, 5220136.890000001], [629649.6425000001, 5220147.1875], [629646.9575000001, 5220147.187500001]]]}, "properties": {"vineyard_id": "V01", "interrow_cover": "bare_soil", "tile": "siret3_r021_c012.tif"}}, {"type": "Feature", "geometry": {"type": "Polygon", "coordinates": [[[629643.1375000003, 5220147.1875], [629657.6124999999, 5220128.44], [629657.6124999999, 5220132.48], [629646.1975, 5220147.1875], [629643.1375000003, 5220147.1875]]]}, "properties": {"vineyard_id": "V01", "interrow_cover": "bare_soil", "tile": "siret3_r021_c012.tif"}}, {"type": "Feature", "geometry": {"type": "Polygon", "coordinates": [[[629639.6600000001, 5220147.187500001], [629657.6125, 5220123.7], [629657.6124999999, 5220127.457500001], [629642.3800000002, 5220147.187499999], [629639.6600000001, 5220147.187500001]]]}, "properties": {"vineyard_id": "V01", "interrow_cover": "bare_soil", "tile": "siret3_r021_c012.tif"}}, {"type": "Feature", "geometry": {"type": "Polygon", "coordinates": [[[629636.0175000001, 5220147.187499999], [629657.6125000003, 5220119.069999999], [629657.6125000003, 5220122.712500001], [629638.905, 5220147.1875], [629636.0175000001, 5220147.187499999]]]}, "properties": {"vineyard_id": "V01", "interrow_cover": "bare_soil", "tile": "siret3_r021_c012.tif"}}, {"type": "Feature", "geometry": {"type": "Polygon", "coordinates": [[[629632.0200000003, 5220147.1875], [629657.6124999999, 5220114.292500001], [629657.6125, 5220118.084999998], [629635.26, 5220147.1875], [629632.0200000003, 5220147.1875]]]}, "properties": {"vineyard_id": "V01", "interrow_cover": "bare_soil", "tile": "siret3_r021_c012.tif"}}, {"type": "Feature", "geometry": {"type": "Polygon", "coordinates": [[[629628.5024999998, 5220147.1875], [629657.6125000003, 5220109.762499999], [629657.6125000003, 5220113.315000001], [629631.2600000002, 5220147.187499999], [629628.5024999998, 5220147.1875]]]}, "properties": {"vineyard_id": "V01", "interrow_cover": "bare_soil", "tile": "siret3_r021_c012.tif"}}, {"type": "Feature", "geometry": {"type": "Polygon", "coordinates": [[[629623.8775000002, 5220147.187500001], [629657.6125000003, 5220103.5275], [629657.6125000002, 5220108.785], [629627.7425, 5220147.1875], [629623.8775000002, 5220147.187500001]]]}, "properties": {"vineyard_id": "V01", "interrow_cover": "bare_soil", "tile": "siret3_r021_c012.tif"}}, {"type": "Feature", "geometry": {"type": "Polygon", "coordinates": [[[629619.3699999999, 5220147.1875], [629657.6125, 5220097.534999999], [629657.6124999999, 5220102.547500001], [629623.1174999999, 5220147.187500001], [629619.3699999999, 5220147.1875]]]}, "properties": {"vineyard_id": "V01", "interrow_cover": "bare_soil", "tile": "siret3_r021_c012.tif"}}, {"type": "Feature", "geometry": {"type": "Polygon", "coordinates": [[[629616.2374999999, 5220147.1875], [629655.6424999998, 5220095.987499999], [629657.6125000002, 5220095.9875], [629657.6125, 5220096.552500001], [629618.6125000002, 5220147.187499999], [629616.2374999999, 5220147.1875]]]}, "properties": {"vineyard_id": "V01", "interrow_cover": "bare_soil", "tile": "siret3_r021_c012.tif"}}, {"type": "Feature", "geometry": {"type": "Polygon", "coordinates": [[[629612.9075000002, 5220147.1875], [629652.2000000003, 5220095.987499999], [629654.885, 5220095.987499998], [629615.4800000001, 5220147.187500001], [629612.9075000002, 5220147.1875]]]}, "properties": {"vineyard_id": "V01", "interrow_cover": "bare_soil", "tile": "siret3_r021_c012.tif"}}, {"type": "Feature", "geometry": {"type": "Polygon", "coordinates": [[[629609.5875000003, 5220147.187499999], [629648.5650000002, 5220095.987499999], [629651.4425, 5220095.9875], [629612.1499999999, 5220147.187500001], [629609.5875000003, 5220147.187499999]]]}, "properties": {"vineyard_id": "V01", "interrow_cover": "bare_soil", "tile": "siret3_r021_c012.tif"}}, {"type": "Feature", "geometry": {"type": "Polygon", "coordinates": [[[629606.4125000002, 5220147.187500001], [629606.4125, 5220146.907499999], [629645.2975, 5220095.987499999], [629647.8099999998, 5220095.987500002], [629608.835, 5220147.187500001], [629606.4125000002, 5220147.187500001]]]}, "properties": {"vineyard_id": "V01", "interrow_cover": "bare_soil", "tile": "siret3_r021_c012.tif"}}, {"type": "Feature", "geometry": {"type": "Polygon", "coordinates": [[[629606.4124999999, 5220142.6], [629641.9650000001, 5220095.987499999], [629644.5425000002, 5220095.987499999], [629606.4124999997, 5220145.92], [629606.4124999999, 5220142.6]]]}, "properties": {"vineyard_id": "V01", "interrow_cover": "bare_soil", "tile": "siret3_r021_c012.tif"}}, {"type": "Feature", "geometry": {"type": "Polygon", "coordinates": [[[629606.4124999999, 5220138.14], [629638.5374999997, 5220095.987499999], [629641.2100000003, 5220095.987499999], [629606.4124999999, 5220141.610000002], [629606.4124999999, 5220138.14]]]}, "properties": {"vineyard_id": "V01", "interrow_cover": "bare_soil", "tile": "siret3_r021_c012.tif"}}, {"type": "Feature", "geometry": {"type": "Polygon", "coordinates": [[[629606.4124999999, 5220133.052499999], [629634.7350000001, 5220095.9875], [629637.7825000002, 5220095.9875], [629606.4125000001, 5220137.149999999], [629606.4124999999, 5220133.052499999]]]}, "properties": {"vineyard_id": "V01", "interrow_cover": "bare_soil", "tile": "siret3_r021_c012.tif"}}, {"type": "Feature", "geometry": {"type": "Polygon", "coordinates": [[[629606.4124999999, 5220128.127499999], [629631.0175000003, 5220095.9875], [629633.98, 5220095.9875], [629606.4125000001, 5220132.0649999995], [629606.4124999999, 5220128.127499999]]]}, "properties": {"vineyard_id": "V01", "interrow_cover": "bare_soil", "tile": "siret3_r021_c012.tif"}}, {"type": "Feature", "geometry": {"type": "Polygon", "coordinates": [[[629606.4125, 5220123.54], [629627.3899999999, 5220095.987499999], [629630.26, 5220095.987500001], [629606.4124999999, 5220127.14], [629606.4125, 5220123.54]]]}, "properties": {"vineyard_id": "V01", "interrow_cover": "bare_soil", "tile": "siret3_r021_c012.tif"}}, {"type": "Feature", "geometry": {"type": "Polygon", "coordinates": [[[629606.4125000001, 5220119.0475], [629623.965, 5220095.987499999], [629626.635, 5220095.987499998], [629606.4125000002, 5220122.55], [629606.4125000001, 5220119.0475]]]}, "properties": {"vineyard_id": "V01", "interrow_cover": "bare_soil", "tile": "siret3_r021_c012.tif"}}, {"type": "Feature", "geometry": {"type": "Polygon", "coordinates": [[[629606.4125000002, 5220114.2525], [629620.6274999998, 5220095.9875], [629623.2100000002, 5220095.987499999], [629606.4124999999, 5220118.055000002], [629606.4125000002, 5220114.2525]]]}, "properties": {"vineyard_id": "V01", "interrow_cover": "bare_soil", "tile": "siret3_r021_c012.tif"}}, {"type": "Feature", "geometry": {"type": "Polygon", "coordinates": [[[629619.8675000002, 5220095.987499999], [629606.4125, 5220113.277499999], [629606.4125000001, 5220109.86], [629616.8575000002, 5220095.987499999], [629619.8675000002, 5220095.987499999]]]}, "properties": {"vineyard_id": "V01", "interrow_cover": "bare_soil", "tile": "siret3_r021_c012.tif"}}, {"type": "Feature", "geometry": {"type": "Polygon", "coordinates": [[[629606.4124999997, 5220105.56], [629613.5750000002, 5220095.987499999], [629616.105, 5220095.987499999], [629606.4124999999, 5220108.8625], [629606.4124999997, 5220105.56]]]}, "properties": {"vineyard_id": "V01", "interrow_cover": "bare_soil", "tile": "siret3_r021_c012.tif"}}, {"type": "Feature", "geometry": {"type": "Polygon", "coordinates": [[[629606.4124999999, 5220101.2825], [629610.4850000002, 5220095.987499999], [629612.825, 5220095.987499999], [629606.4124999999, 5220104.5575], [629606.4124999999, 5220101.2825]]]}, "properties": {"vineyard_id": "V01", "interrow_cover": "bare_soil", "tile": "siret3_r021_c012.tif"}}, {"type": "Feature", "geometry": {"type": "Polygon", "coordinates": [[[629243.7000000002, 5220915.1875], [629248.0125000002, 5220904.914999999], [629248.0124999998, 5220909.7125], [629245.665, 5220915.1875], [629243.7000000002, 5220915.1875]]]}, "properties": {"vineyard_id": "V02", "interrow_cover": "bare_soil", "tile": "siret3_r006_c004.tif"}}, {"type": "Feature", "geometry": {"type": "Polygon", "coordinates": [[[629240.8825000001, 5220915.1875], [629248.0125000002, 5220898.512499999], [629248.0125, 5220903.364999999], [629243.0475000001, 5220915.1875], [629240.8825000001, 5220915.1875]]]}, "properties": {"vineyard_id": "V02", "interrow_cover": "bare_soil", "tile": "siret3_r006_c004.tif"}}, {"type": "Feature", "geometry": {"type": "Polygon", "coordinates": [[[629237.8550000002, 5220915.187499999], [629248.0125000001, 5220891.592499999], [629248.0125000003, 5220896.987500001], [629240.2300000001, 5220915.187499999], [629237.8550000002, 5220915.187499999]]]}, "properties": {"vineyard_id": "V02", "interrow_cover": "bare_soil", "tile": "siret3_r006_c004.tif"}}, {"type": "Feature", "geometry": {"type": "Polygon", "coordinates": [[[629235.2825000003, 5220915.1875], [629248.0125000002, 5220884.815], [629248.0124999998, 5220890.074999999], [629237.2, 5220915.1875], [629235.2825000003, 5220915.1875]]]}, "properties": {"vineyard_id": "V02", "interrow_cover": "bare_soil", "tile": "siret3_r006_c004.tif"}}, {"type": "Feature", "geometry": {"type": "Polygon", "coordinates": [[[629232.5499999999, 5220915.1875], [629248.0125000002, 5220878.155000001], [629248.0125000003, 5220883.2625], [629234.6300000001, 5220915.187499999], [629232.5499999999, 5220915.1875]]]}, "properties": {"vineyard_id": "V02", "interrow_cover": "bare_soil", "tile": "siret3_r006_c004.tif"}}, {"type": "Feature", "geometry": {"type": "Polygon", "coordinates": [[[629229.5774999999, 5220915.1875], [629248.0125, 5220872.11], [629248.0125000002, 5220876.5975], [629231.8999999999, 5220915.187499999], [629229.5774999999, 5220915.1875]]]}, "properties": {"vineyard_id": "V02", "interrow_cover": "bare_soil", "tile": "siret3_r006_c004.tif"}}, {"type": "Feature", "geometry": {"type": "Polygon", "coordinates": [[[629226.8000000002, 5220915.1875], [629248.0125, 5220864.942500001], [629248.0125, 5220870.585000001], [629228.9250000003, 5220915.1875], [629226.8000000002, 5220915.1875]]]}, "properties": {"vineyard_id": "V02", "interrow_cover": "bare_soil", "tile": "siret3_r006_c004.tif"}}, {"type": "Feature", "geometry": {"type": "Polygon", "coordinates": [[[629224.1524999999, 5220915.1875], [629245.7775000003, 5220863.9875], [629247.765, 5220863.987500001], [629226.1475000002, 5220915.1875], [629224.1524999999, 5220915.1875]]]}, "properties": {"vineyard_id": "V02", "interrow_cover": "bare_soil", "tile": "siret3_r006_c004.tif"}}, {"type": "Feature", "geometry": {"type": "Polygon", "coordinates": [[[629221.6025000003, 5220915.1875], [629243.0075000003, 5220863.9875], [629245.1275000001, 5220863.9875], [629223.4999999998, 5220915.1875], [629221.6025000003, 5220915.1875]]]}, "properties": {"vineyard_id": "V02", "interrow_cover": "bare_soil", "tile": "siret3_r006_c004.tif"}}, {"type": "Feature", "geometry": {"type": "Polygon", "coordinates": [[[629218.525, 5220915.1875], [629240.0674999999, 5220863.987500001], [629242.3575000002, 5220863.9875], [629220.9525000002, 5220915.1875], [629218.525, 5220915.1875]]]}, "properties": {"vineyard_id": "V02", "interrow_cover": "bare_soil", "tile": "siret3_r006_c004.tif"}}, {"type": "Feature", "geometry": {"type": "Polygon", "coordinates": [[[629215.8849999999, 5220915.1875], [629237.3200000002, 5220863.9875], [629239.4175000002, 5220863.9875], [629217.8725, 5220915.187499999], [629215.8849999999, 5220915.1875]]]}, "properties": {"vineyard_id": "V02", "interrow_cover": "bare_soil", "tile": "siret3_r006_c004.tif"}}, {"type": "Feature", "geometry": {"type": "Polygon", "coordinates": [[[629213.0450000002, 5220915.187499999], [629234.5925000003, 5220863.987500001], [629236.6699999999, 5220863.987499999], [629215.2349999999, 5220915.1875], [629213.0450000002, 5220915.187499999]]]}, "properties": {"vineyard_id": "V02", "interrow_cover": "bare_soil", "tile": "siret3_r006_c004.tif"}}, {"type": "Feature", "geometry": {"type": "Polygon", "coordinates": [[[629210.2975000001, 5220915.1875], [629231.7800000001, 5220863.987499999], [629233.9400000002, 5220863.987500001], [629212.3949999998, 5220915.1875], [629210.2975000001, 5220915.1875]]]}, "properties": {"vineyard_id": "V02", "interrow_cover": "bare_soil", "tile": "siret3_r006_c004.tif"}}, {"type": "Feature", "geometry": {"type": "Polygon", "coordinates": [[[629207.3249999998, 5220915.1875], [629229.0549999999, 5220863.987500001], [629231.1300000002, 5220863.987499999], [629209.6450000001, 5220915.1875], [629207.3249999998, 5220915.1875]]]}, "properties": {"vineyard_id": "V02", "interrow_cover": "bare_soil", "tile": "siret3_r006_c004.tif"}}, {"type": "Feature", "geometry": {"type": "Polygon", "coordinates": [[[629204.6124999999, 5220915.187500001], [629226.3049999998, 5220863.987500001], [629228.4024999999, 5220863.9875], [629206.675, 5220915.1875], [629204.6124999999, 5220915.187500001]]]}, "properties": {"vineyard_id": "V02", "interrow_cover": "mixed", "tile": "siret3_r006_c004.tif"}}, {"type": "Feature", "geometry": {"type": "Polygon", "coordinates": [[[629201.9800000002, 5220915.187499999], [629223.5550000002, 5220863.987500001], [629225.6550000001, 5220863.987499999], [629203.96, 5220915.1875], [629201.9800000002, 5220915.187499999]]]}, "properties": {"vineyard_id": "V02", "interrow_cover": "mixed", "tile": "siret3_r006_c004.tif"}}, {"type": "Feature", "geometry": {"type": "Polygon", "coordinates": [[[629199.1699999999, 5220915.1875], [629220.7699999998, 5220863.9875], [629222.905, 5220863.9875], [629201.3275, 5220915.1875], [629199.1699999999, 5220915.1875]]]}, "properties": {"vineyard_id": "V02", "interrow_cover": "mixed", "tile": "siret3_r006_c004.tif"}}, {"type": "Feature", "geometry": {"type": "Polygon", "coordinates": [[[629196.8125000001, 5220915.187499999], [629196.8125000001, 5220914.2925], [629218.2200000001, 5220863.987500001], [629220.1199999999, 5220863.9875], [629198.5175000002, 5220915.1875], [629196.8125000001, 5220915.187499999]]]}, "properties": {"vineyard_id": "V02", "interrow_cover": "mixed", "tile": "siret3_r006_c004.tif"}}, {"type": "Feature", "geometry": {"type": "Polygon", "coordinates": [[[629196.8124999998, 5220907.5575], [629215.3450000002, 5220863.9875], [629217.5699999998, 5220863.987500001], [629196.8124999999, 5220912.760000001], [629196.8124999998, 5220907.5575]]]}, "properties": {"vineyard_id": "V02", "interrow_cover": "bare_soil", "tile": "siret3_r006_c004.tif"}}, {"type": "Feature", "geometry": {"type": "Polygon", "coordinates": [[[629196.8125000002, 5220901.58], [629212.7999999999, 5220863.9875], [629214.6925000002, 5220863.9875], [629196.8125, 5220906.025000001], [629196.8125000002, 5220901.58]]]}, "properties": {"vineyard_id": "V02", "interrow_cover": "bare_soil", "tile": "siret3_r006_c004.tif"}}, {"type": "Feature", "geometry": {"type": "Polygon", "coordinates": [[[629196.8125000002, 5220895.794999999], [629209.9900000002, 5220863.987500001], [629212.1475, 5220863.9875], [629196.8125, 5220900.047500001], [629196.8125000002, 5220895.794999999]]]}, "properties": {"vineyard_id": "V02", "interrow_cover": "bare_soil", "tile": "siret3_r006_c004.tif"}}, {"type": "Feature", "geometry": {"type": "Polygon", "coordinates": [[[629196.8125, 5220888.520000001], [629207.0225, 5220863.987500001], [629209.3425, 5220863.9875], [629196.8125, 5220894.2275], [629196.8125, 5220888.520000001]]]}, "properties": {"vineyard_id": "V02", "interrow_cover": "bare_soil", "tile": "siret3_r006_c004.tif"}}, {"type": "Feature", "geometry": {"type": "Polygon", "coordinates": [[[629196.8125000001, 5220882.114999999], [629204.3724999998, 5220863.987500001], [629206.3725, 5220863.9875], [629196.8124999999, 5220886.9575000005], [629196.8125000001, 5220882.114999999]]]}, "properties": {"vineyard_id": "V02", "interrow_cover": "bare_soil", "tile": "siret3_r006_c004.tif"}}, {"type": "Feature", "geometry": {"type": "Polygon", "coordinates": [[[629196.8125, 5220875.867500002], [629201.7650000001, 5220863.9875], [629203.7225000001, 5220863.987499999], [629196.8125000001, 5220880.555000001], [629196.8125, 5220875.867500002]]]}, "properties": {"vineyard_id": "V02", "interrow_cover": "bare_soil", "tile": "siret3_r006_c004.tif"}}, {"type": "Feature", "geometry": {"type": "Polygon", "coordinates": [[[629196.8125000001, 5220869.419999999], [629198.9975000002, 5220863.987500001], [629201.115, 5220863.9875], [629196.8125000002, 5220874.3075], [629196.8125000001, 5220869.419999999]]]}, "properties": {"vineyard_id": "V02", "interrow_cover": "bare_soil", "tile": "siret3_r006_c004.tif"}}]}