{"type": "FeatureCollection", "crs": {"type": "name", "properties": {"name": "urn:ogc:def:crs:EPSG::32635"}}, "features": [{"type": "Feature", "geometry": {"type": "LineString", "coordinates": [[629657.6125000003, 5220146.385], [629656.8574999998, 5220147.1875]]}, "properties": {"vineyard_id": "V01", "row_id": "V01-R01", "row_structure": "regular", "tile": "siret3_r021_c012.tif"}}, {"type": "Feature", "geometry": {"type": "LineString", "coordinates": [[629657.6125, 5220142.217500001], [629653.5850000002, 5220147.187499999]]}, "properties": {"vineyard_id": "V01", "row_id": "V01-R02", "row_structure": "regular", "tile": "siret3_r021_c012.tif"}}, {"type": "Feature", "geometry": {"type": "LineString", "coordinates": [[629657.6124999999, 5220137.38], [629650.0200000001, 5220147.187500001]]}, "properties": {"vineyard_id": "V01", "row_id": "V01-R03", "row_structure": "regular", "tile": "siret3_r021_c012.tif"}}, {"type": "Feature", "geometry": {"type": "LineString", "coordinates": [[629657.6125, 5220132.967499999], [629646.5774999998, 5220147.1875]]}, "properties": {"vineyard_id": "V01", "row_id": "V01-R04", "row_structure": "regular", "tile": "siret3_r021_c012.tif"}}, {"type": "Feature", "geometry": {"type": "LineString", "coordinates": [[629657.6124999999, 5220127.95], [629642.7600000001, 5220147.187500001]]}, "properties": {"vineyard_id": "V01", "row_id": "V01-R05", "row_structure": "regular", "tile": "siret3_r021_c012.tif"}}, {"type": "Feature", "geometry": {"type": "LineString", "coordinates": [[629657.6125000003, 5220123.2075], [629639.2824999999, 5220147.187500001]]}, "properties": {"vineyard_id": "V01", "row_id": "V01-R06", "row_structure": "regular", "tile": "siret3_r021_c012.tif"}}, {"type": "Feature", "geometry": {"type": "LineString", "coordinates": [[629657.6125, 5220118.577500001], [629635.6399999999, 5220147.187499999]]}, "properties": {"vineyard_id": "V01", "row_id": "V01-R07", "row_structure": "regular", "tile": "siret3_r021_c012.tif"}}, {"type": "Feature", "geometry": {"type": "LineString", "coordinates": [[629657.6125, 5220113.802499999], [629631.6399999999, 5220147.187500001]]}, "properties": {"vineyard_id": "V01", "row_id": "V01-R08", "row_structure": "regular", "tile": "siret3_r021_c012.tif"}}, {"type": "Feature", "geometry": {"type": "LineString", "coordinates": [[629657.6125000002, 5220109.2725], [629628.1225, 5220147.187499999]]}, "properties": {"vineyard_id": "V01", "row_id": "V01-R09", "row_structure": "regular", "tile": "siret3_r021_c012.tif"}}, {"type": "Feature", "geometry": {"type": "LineString", "coordinates": [[629657.6125000002, 5220103.037500001], [629623.4975000003, 5220147.1875]]}, "properties": {"vineyard_id": "V01", "row_id": "V01-R10", "row_structure": "regular", "tile": "siret3_r021_c012.tif"}}, {"type": "Feature", "geometry": {"type": "LineString", "coordinates": [[629657.6125000003, 5220097.0425], [629618.9900000001, 5220147.187499999]]}, "properties": {"vineyard_id": "V01", "row_id": "V01-R11", "row_structure": "regular", "tile": "siret3_r021_c012.tif"}}, {"type": "Feature", "geometry": {"type": "LineString", "coordinates": [[629655.2649999999, 5220095.987499999], [629615.8575000002, 5220147.1875]]}, "properties": {"vineyard_id": "V01", "row_id": "V01-R12", "row_structure": "regular", "tile": "siret3_r021_c012.tif"}}, {"type": "Feature", "geometry": {"type": "LineString", "coordinates": [[629651.8200000002, 5220095.9875], [629612.5300000003, 5220147.187500001]]}, "properties": {"vineyard_id": "V01", "row_id": "V01-R13", "row_structure": "regular", "tile": "siret3_r021_c012.tif"}}, {"type": "Feature", "geometry": {"type": "LineString", "coordinates": [[629648.1875, 5220095.987500001], [629609.2100000002, 5220147.1875]]}, "properties": {"vineyard_id": "V01", "row_id": "V01-R14", "row_structure": "regular", "tile": "siret3_r021_c012.tif"}}, {"type": "Feature", "geometry": {"type": "LineString", "coordinates": [[629644.9199999997, 5220095.9875], [629606.4125, 5220146.414999999]]}, "properties": {"vineyard_id": "V01", "row_id": "V01-R15", "row_structure": "regular", "tile": "siret3_r021_c012.tif"}}, {"type": "Feature", "geometry": {"type": "LineString", "coordinates": [[629641.5875000001, 5220095.9875], [629606.4124999999, 5220142.1049999995]]}, "properties": {"vineyard_id": "V01", "row_id": "V01-R16", "row_structure": "regular", "tile": "siret3_r021_c012.tif"}}, {"type": "Feature", "geometry": {"type": "LineString", "coordinates": [[629638.1599999999, 5220095.9875], [629606.4124999997, 5220137.645]]}, "properties": {"vineyard_id": "V01", "row_id": "V01-R17", "row_structure": "regular", "tile": "siret3_r021_c012.tif"}}, {"type": "Feature", "geometry": {"type": "LineString", "coordinates": [[629634.3574999999, 5220095.987500001], [629606.4124999999, 5220132.5575]]}, "properties": {"vineyard_id": "V01", "row_id": "V01-R18", "row_structure": "regular", "tile": "siret3_r021_c012.tif"}}, {"type": "Feature", "geometry": {"type": "LineString", "coordinates": [[629630.6375000002, 5220095.987499999], [629606.4125000001, 5220127.632500001]]}, "properties": {"vineyard_id": "V01", "row_id": "V01-R19", "row_structure": "regular", "tile": "siret3_r021_c012.tif"}}, {"type": "Feature", "geometry": {"type": "LineString", "coordinates": [[629627.0125000002, 5220095.9875], [629606.4124999999, 5220123.045]]}, "properties": {"vineyard_id": "V01", "row_id": "V01-R20", "row_structure": "regular", "tile": "siret3_r021_c012.tif"}}, {"type": "Feature", "geometry": {"type": "LineString", "coordinates": [[629623.5874999999, 5220095.987499999], [629606.4124999997, 5220118.5525]]}, "properties": {"vineyard_id": "V01", "row_id": "V01-R21", "row_structure": "regular", "tile": "siret3_r021_c012.tif"}}, {"type": "Feature", "geometry": {"type": "LineString", "coordinates": [[629620.2474999999, 5220095.9875], [629606.4124999999, 5220113.765000001]]}, "properties": {"vineyard_id": "V01", "row_id": "V01-R22", "row_structure": "regular", "tile": "siret3_r021_c012.tif"}}, {"type": "Feature", "geometry": {"type": "LineString", "coordinates": [[629616.4824999998, 5220095.9875], [629606.4124999999, 5220109.362499999]]}, "properties": {"vineyard_id": "V01", "row_id": "V01-R23", "row_structure": "regular", "tile": "siret3_r021_c012.tif"}}, {"type": "Feature", "geometry": {"type": "LineString", "coordinates": [[629613.1999999998, 5220095.9875], [629606.4124999999, 5220105.057499999]]}, "properties": {"vineyard_id": "V01", "row_id": "V01-R24", "row_structure": "regular", "tile": "siret3_r021_c012.tif"}}, {"type": "Feature", "geometry": {"type": "LineString", "coordinates": [[629610.1075000002, 5220095.987499999], [629606.4124999999, 5220100.789999999]]}, "properties": {"vineyard_id": "V01", "row_id": "V01-R25", "row_structure": "regular", "tile": "siret3_r021_c012.tif"}}, {"type": "Feature", "geometry": {"type": "LineString", "coordinates": [[629248.0125000001, 5220910.4750000015], [629245.9899999999, 5220915.1875]]}, "properties": {"vineyard_id": "V02", "row_id": "V02-R01", "row_structure": "regular", "tile": "siret3_r006_c004.tif"}}, {"type": "Feature", "geometry": {"type": "LineString", "coordinates": [[629248.0125000002, 5220904.140000001], [629243.3725, 5220915.1875]]}, "properties": {"vineyard_id": "V02", "row_id": "V02-R02", "row_structure": "regular", "tile": "siret3_r006_c004.tif"}}, {"type": "Feature", "geometry": {"type": "LineString", "coordinates": [[629248.0124999998, 5220897.750000001], [629240.555, 5220915.1875]]}, "properties": {"vineyard_id": "V02", "row_id": "V02-R03", "row_structure": "regular", "tile": "siret3_r006_c004.tif"}}, {"type": "Feature", "geometry": {"type": "LineString", "coordinates": [[629248.0124999998, 5220890.8325000005], [629237.5275, 5220915.1875]]}, "properties": {"vineyard_id": "V02", "row_id": "V02-R04", "row_structure": "regular", "tile": "siret3_r006_c004.tif"}}, {"type": "Feature", "geometry": {"type": "LineString", "coordinates": [[629248.0125000001, 5220884.040000001], [629234.9550000002, 5220915.187500001]]}, "properties": {"vineyard_id": "V02", "row_id": "V02-R05", "row_structure": "regular", "tile": "siret3_r006_c004.tif"}}, {"type": "Feature", "geometry": {"type": "LineString", "coordinates": [[629248.0125000001, 5220877.374999999], [629232.2250000003, 5220915.187500001]]}, "properties": {"vineyard_id": "V02", "row_id": "V02-R06", "row_structure": "disrupted", "tile": "siret3_r006_c004.tif"}}, {"type": "Feature", "geometry": {"type": "LineString", "coordinates": [[629248.0125000001, 5220871.3475], [629229.2525000003, 5220915.1875]]}, "properties": {"vineyard_id": "V02", "row_id": "V02-R07", "row_structure": "disrupted", "tile": "siret3_r006_c004.tif"}}, {"type": "Feature", "geometry": {"type": "LineString", "coordinates": [[629248.0124999998, 5220864.17], [629226.4749999999, 5220915.1875]]}, "properties": {"vineyard_id": "V02", "row_id": "V02-R08", "row_structure": "disrupted", "tile": "siret3_r006_c004.tif"}}, {"type": "Feature", "geometry": {"type": "LineString", "coordinates": [[629245.4524999999, 5220863.9875], [629223.8275, 5220915.187499999]]}, "properties": {"vineyard_id": "V02", "row_id": "V02-R09", "row_structure": "disrupted", "tile": "siret3_r006_c004.tif"}}, {"type": "Feature", "geometry": {"type": "LineString", "coordinates": [[629242.6825000001, 5220863.987500001], [629221.2774999999, 5220915.1875]]}, "properties": {"vineyard_id": "V02", "row_id": "V02-R10", "row_structure": "regular", "tile": "siret3_r006_c004.tif"}}, {"type": "Feature", "geometry": {"type": "LineString", "coordinates": [[629239.7425000002, 5220863.987500001], [629218.1974999999, 5220915.1875]]}, "properties": {"vineyard_id": "V02", "row_id": "V02-R11", "row_structure": "regular", "tile": "siret3_r006_c004.tif"}}, {"type": "Feature", "geometry": {"type": "LineString", "coordinates": [[629236.9950000001, 5220863.987500001], [629215.5600000003, 5220915.1875]]}, "properties": {"vineyard_id": "V02", "row_id": "V02-R12", "row_structure": "regular", "tile": "siret3_r006_c004.tif"}}, {"type": "Feature", "geometry": {"type": "LineString", "coordinates": [[629234.2649999999, 5220863.9875], [629212.7200000002, 5220915.1875]]}, "properties": {"vineyard_id": "V02", "row_id": "V02-R13", "row_structure": "regular", "tile": "siret3_r006_c004.tif"}}, {"type": "Feature", "geometry": {"type": "LineString", "coordinates": [[629231.4549999998, 5220863.9875], [629209.9724999998, 5220915.1875]]}, "properties": {"vineyard_id": "V02", "row_id": "V02-R14", "row_structure": "regular", "tile": "siret3_r006_c004.tif"}}, {"type": "Feature", "geometry": {"type": "LineString", "coordinates": [[629228.7274999999, 5220863.987500001], [629207.0000000001, 5220915.187499999]]}, "properties": {"vineyard_id": "V02", "row_id": "V02-R15", "row_structure": "regular", "tile": "siret3_r006_c004.tif"}}, {"type": "Feature", "geometry": {"type": "LineString", "coordinates": [[629225.98, 5220863.987500001], [629204.2849999999, 5220915.187499999]]}, "properties": {"vineyard_id": "V02", "row_id": "V02-R16", "row_structure": "regular", "tile": "siret3_r006_c004.tif"}}, {"type": "Feature", "geometry": {"type": "LineString", "coordinates": [[629223.23, 5220863.987500001], [629201.6525000002, 5220915.1875]]}, "properties": {"vineyard_id": "V02", "row_id": "V02-R17", "row_structure": "regular", "tile": "siret3_r006_c004.tif"}}, {"type": "Feature", "geometry": {"type": "LineString", "coordinates": [[629220.4450000001, 5220863.9875], [629198.8450000001, 5220915.187500001]]}, "properties": {"vineyard_id": "V02", "row_id": "V02-R18", "row_structure": "regular", "tile": "siret3_r006_c004.tif"}}, {"type": "Feature", "geometry": {"type": "LineString", "coordinates": [[629217.8949999999, 5220863.9875], [629196.8125, 5220913.525000001]]}, "properties": {"vineyard_id": "V02", "row_id": "V02-R19", "row_structure": "regular", "tile": "siret3_r006_c004.tif"}}, {"type": "Feature", "geometry": {"type": "LineString", "coordinates": [[629215.0175000001, 5220863.9875], [629196.8124999998, 5220906.792500001]]}, "properties": {"vineyard_id": "V02", "row_id": "V02-R20", "row_structure": "regular", "tile": "siret3_r006_c004.tif"}}, {"type": "Feature", "geometry": {"type": "LineString", "coordinates": [[629212.4724999999, 5220863.987499999], [629196.8124999999, 5220900.815]]}, "properties": {"vineyard_id": "V02", "row_id": "V02-R21", "row_structure": "regular", "tile": "siret3_r006_c004.tif"}}, {"type": "Feature", "geometry": {"type": "LineString", "coordinates": [[629209.6675, 5220863.987499999], [629196.8124999998, 5220895.01]]}, "properties": {"vineyard_id": "V02", "row_id": "V02-R22", "row_structure": "regular", "tile": "siret3_r006_c004.tif"}}, {"type": "Feature", "geometry": {"type": "LineString", "coordinates": [[629206.6975, 5220863.987499999], [629196.8124999998, 5220887.740000001]]}, "properties": {"vineyard_id": "V02", "row_id": "V02-R23", "row_structure": "disrupted", "tile": "siret3_r006_c004.tif"}}, {"type": "Feature", "geometry": {"type": "LineString", "coordinates": [[629204.0475000001, 5220863.987500001], [629196.8125, 5220881.335]]}, "properties": {"vineyard_id": "V02", "row_id": "V02-R24", "row_structure": "regular", "tile": "siret3_r006_c004.tif"}}, {"type": "Feature", "geometry": {"type": "LineString", "coordinates": [[629201.4400000002, 5220863.987500001], [629196.8125000001, 5220875.087499999]]}, "properties": {"vineyard_id": "V02", "row_id": "V02-R25", "row_structure": "regular", "tile": "siret3_r006_c004.tif"}}, {"type": "Feature", "geometry": {"type": "LineString", "coordinates": [[629198.675, 5220863.9875], [629196.8125000002, 5220868.615]]}, "properties": {"vineyard_id": "V02", "row_id": "V02-R26", "row_structure": "regular", "tile": "siret3_r006_c004.tif"}}]}