{
  "type": "FeatureCollection",
  "name": "siret3_route_start",
  "crs": {
    "type": "name",
    "properties": {
      "name": "urn:ogc:def:crs:EPSG::32635"
    }
  },
  "features": [
    {
      "type": "Feature",
      "properties": {
        "name": "START",
        "description": "Route start and finish: pre-test point provided by organizer",
        "crs": "EPSG:32635",
        "lon": 28.7094577,
        "lat": 47.1225039,
        "tile": "siret3_r018_c010.tif"
      },
      "geometry": {
        "type": "Point",
        "coordinates": [
          629663.8,
          5220195.3
        ]
      }
    }
  ]
}
